{"type":"FeatureCollection","features":[{"type":"Feature","geometry":{"type":"Point","coordinates":[55.212215,25.149602]},"properties":{}},{"type":"Feature","geometry":{"type":"Point","coordinates":[55.209938,25.146759]},"properties":{"name":"J3 Mall"}},{"type":"Feature","geometry":{"type":"Point","coordinates":[55.229616,25.157036]},"properties":{}},{"type":"Feature","geometry":{"type":"Point","coordinates":[55.22833,25.12452]},"properties":{}},{"type":"Feature","geometry":{"type":"Point","coordinates":[55.209492,25.114477]},"properties":{"name":"Dubai American Academy"}},{"type":"Feature","geometry":{"type":"Point","coordinates":[55.221813,25.116418]},"properties":{}},{"type":"Feature","geometry":{"type":"Point","coordinates":[55.215288,25.114404]},"properties":{}},{"type":"Feature","geometry":{"type":"Point","coordinates":[55.208662,25.126903]},"properties":{"name":"First Gulf Bank Bus Station"}},{"type":"Feature","geometry":{"type":"Point","coordinates":[55.201139,25.112372]},"properties":{"name":"Al Barsha, Street 23, Nour Centre for Training 2"}},{"type":"Feature","geometry":{"type":"Point","coordinates":[55.19953,25.114027]},"properties":{"name":"Al Barsha, Street 23, Dunes Hotel 1"}},{"type":"Feature","geometry":{"type":"Point","coordinates":[55.197492,25.11677]},"properties":{"name":"Mall of the Emirates, Saleh Bin Lahej Building"}},{"type":"Feature","geometry":{"type":"Point","coordinates":[55.178178,25.122245]},"properties":{}},{"type":"Feature","geometry":{"type":"Point","coordinates":[55.182859,25.127062]},"properties":{}},{"type":"Feature","geometry":{"type":"Point","coordinates":[55.185085,25.129342]},"properties":{}},{"type":"Feature","geometry":{"type":"Point","coordinates":[55.196172,25.129631]},"properties":{"name":"Umm Suqeim, Etisalat"}},{"type":"Feature","geometry":{"type":"Point","coordinates":[55.197693,25.131556]},"properties":{}},{"type":"Feature","geometry":{"type":"Point","coordinates":[55.188227,25.135826]},"properties":{"name":"648002"}},{"type":"Feature","geometry":{"type":"Point","coordinates":[55.250908,25.143014]},"properties":{"name":"Quoz, Al Khail Gate 1"}},{"type":"Feature","geometry":{"type":"Point","coordinates":[55.255447,25.138572]},"properties":{"name":"Al Khail Gate 2"}},{"type":"Feature","geometry":{"type":"Point","coordinates":[55.252862,25.141083]},"properties":{"name":"Al Khail Gate"}},{"type":"Feature","geometry":{"type":"Point","coordinates":[55.243642,25.149907]},"properties":{"name":"Quoz, New Housing Junction 1"}},{"type":"Feature","geometry":{"type":"Point","coordinates":[55.197895,25.148144]},"properties":{}},{"type":"Feature","geometry":{"type":"Point","coordinates":[55.20126,25.152123]},"properties":{}},{"type":"Feature","geometry":{"type":"Point","coordinates":[55.174356,25.117672]},"properties":{}},{"type":"Feature","geometry":{"type":"Point","coordinates":[55.172629,25.116447]},"properties":{}},{"type":"Feature","geometry":{"type":"Point","coordinates":[55.200868,25.112268]},"properties":{"name":"Al Barsha, Al Waseer Compound Villas"}},{"type":"Feature","geometry":{"type":"Point","coordinates":[55.192267,25.114834]},"properties":{}},{"type":"Feature","geometry":{"type":"Point","coordinates":[55.195318,25.113466]},"properties":{}},{"type":"Feature","geometry":{"type":"Point","coordinates":[55.260938,25.191443]},"properties":{"name":"Business Bay Metro Bus Stop Landside 1"}},{"type":"Feature","geometry":{"type":"Point","coordinates":[55.196364,25.129418]},"properties":{}},{"type":"Feature","geometry":{"type":"Point","coordinates":[55.225848,25.121259]},"properties":{"name":"Al Ahli"}},{"type":"Feature","geometry":{"type":"Point","coordinates":[55.229207,25.146066]},"properties":{}},{"type":"Feature","geometry":{"type":"Point","coordinates":[55.241103,25.167744]},"properties":{"name":"Al Quoz Bus Stop"}},{"type":"Feature","geometry":{"type":"Point","coordinates":[55.210072,25.114608]},"properties":{}},{"type":"Feature","geometry":{"type":"Point","coordinates":[55.244862,25.145129]},"properties":{}},{"type":"Feature","geometry":{"type":"Point","coordinates":[55.219242,25.136871]},"properties":{}},{"type":"Feature","geometry":{"type":"Point","coordinates":[55.209815,25.162427]},"properties":{"name":"Umm Suqeim 1"}},{"type":"Feature","geometry":{"type":"Point","coordinates":[55.229129,25.145702]},"properties":{}},{"type":"Feature","geometry":{"type":"Point","coordinates":[55.207105,25.16111]},"properties":{"name":"kite beach free parking"}},{"type":"Feature","geometry":{"type":"Point","coordinates":[55.21631,25.17]},"properties":{"name":"Manara"}},{"type":"Feature","geometry":{"type":"Point","coordinates":[55.218986,25.173481]},"properties":{"name":"Dubai offshore sailing club"}},{"type":"Feature","geometry":{"type":"Point","coordinates":[55.251601,25.126773]},"properties":{"name":"AL quoz 2"}},{"type":"Feature","geometry":{"type":"Point","coordinates":[55.211897,25.164921]},"properties":{"name":"Abu Manara Masjid"}},{"type":"Feature","geometry":{"type":"Point","coordinates":[55.218739,25.173595]},"properties":{"name":"Dubai offshore sailing club"}},{"type":"Feature","geometry":{"type":"Point","coordinates":[55.216023,25.170062]},"properties":{"name":"Manara"}},{"type":"Feature","geometry":{"type":"Point","coordinates":[55.185434,25.129152]},"properties":{}},{"type":"Feature","geometry":{"type":"Point","coordinates":[55.183281,25.12695]},"properties":{}},{"type":"Feature","geometry":{"type":"Point","coordinates":[55.178254,25.121727]},"properties":{}},{"type":"Feature","geometry":{"type":"Point","coordinates":[55.192872,25.129266]},"properties":{}},{"type":"Feature","geometry":{"type":"Point","coordinates":[55.201222,25.136207]},"properties":{}},{"type":"Feature","geometry":{"type":"Point","coordinates":[55.200997,25.135233]},"properties":{}},{"type":"Feature","geometry":{"type":"Point","coordinates":[55.203532,25.13856]},"properties":{}},{"type":"Feature","geometry":{"type":"Point","coordinates":[55.188238,25.137368]},"properties":{"name":"Burj Al Arab Hotel"}},{"type":"Feature","geometry":{"type":"Point","coordinates":[55.247041,25.143185]},"properties":{"name":"Staff Bus Stop"}},{"type":"Feature","geometry":{"type":"Point","coordinates":[55.244917,25.183082]},"properties":{}},{"type":"Feature","geometry":{"type":"Point","coordinates":[55.199673,25.120098]},"properties":{"name":"Mall of the Emirates Bus Station 3"}},{"type":"Feature","geometry":{"type":"Point","coordinates":[55.228648,25.155551]},"properties":{"name":"\u0627\u0644\u0635\u0641\u0627"}},{"type":"Feature","geometry":{"type":"Point","coordinates":[55.269513,25.200893]},"properties":{"name":"Dubai Mall Metro Bus Stop Landside 1"}},{"type":"Feature","geometry":{"type":"Point","coordinates":[55.264827,25.196426]},"properties":{}},{"type":"Feature","geometry":{"type":"Point","coordinates":[55.183258,25.126999]},"properties":{}},{"type":"Feature","geometry":{"type":"Point","coordinates":[55.213512,25.166426]},"properties":{"name":"594001"}},{"type":"Feature","geometry":{"type":"Point","coordinates":[55.216696,25.170538]},"properties":{"name":"Manara, Enoc 2"}},{"type":"Feature","geometry":{"type":"Point","coordinates":[55.206512,25.158137]},"properties":{}},{"type":"Feature","geometry":{"type":"Point","coordinates":[55.222116,25.177412]},"properties":{"name":"567002"}},{"type":"Feature","geometry":{"type":"Point","coordinates":[55.18972,25.139114]},"properties":{"name":"Big bus 13 Burj Al Arab"}},{"type":"Feature","geometry":{"type":"Point","coordinates":[55.202719,25.118006]},"properties":{"name":"Big bus 15-16 Mall of Emirates"}},{"type":"Feature","geometry":{"type":"Point","coordinates":[55.192414,25.144855]},"properties":{"name":"\u0628\u064a\u062c \u0628\u0627\u0635 \u0627\u0644\u0645\u062d\u0637\u0629 12"}},{"type":"Feature","geometry":{"type":"Point","coordinates":[55.199561,25.114323]},"properties":{"name":"Al Barsha, Street 23, Dunes Hotel 1"}},{"type":"Feature","geometry":{"type":"Point","coordinates":[55.262445,25.195287]},"properties":{"name":"Etihad shuttle to Abu Dhabi airport"}},{"type":"Feature","geometry":{"type":"Point","coordinates":[55.246881,25.19678]},"properties":{"name":"Wasl Road, Box Park 2-2"}},{"type":"Feature","geometry":{"type":"Point","coordinates":[55.236169,25.181467]},"properties":{}},{"type":"Feature","geometry":{"type":"Point","coordinates":[55.236,25.181631]},"properties":{}},{"type":"Feature","geometry":{"type":"Point","coordinates":[55.248868,25.197359]},"properties":{"name":"Al Wasl Street 35, Dar Al Ber Society 2"}},{"type":"Feature","geometry":{"type":"Point","coordinates":[55.253327,25.194816]},"properties":{"name":"Al Wasl, Street 35, Al Ittihad Health Centre 2"}},{"type":"Feature","geometry":{"type":"Point","coordinates":[55.253021,25.170714]},"properties":{"name":"Al Quoz, Clinic 1"}},{"type":"Feature","geometry":{"type":"Point","coordinates":[55.252532,25.170643]},"properties":{"name":"Al Quoz, Clinic 1"}},{"type":"Feature","geometry":{"type":"Point","coordinates":[55.252577,25.177783]},"properties":{"name":"Safa, Interchange"}},{"type":"Feature","geometry":{"type":"Point","coordinates":[55.256218,25.193008]},"properties":{"name":"Emarat, Headquarters"}},{"type":"Feature","geometry":{"type":"Point","coordinates":[55.248943,25.199858]},"properties":{"name":"Wasl Road, Box Park 1-2"}},{"type":"Feature","geometry":{"type":"Point","coordinates":[55.260212,25.192726]},"properties":{"name":"Business Bay Metro Bus Stop Seaside"}},{"type":"Feature","geometry":{"type":"Point","coordinates":[55.249246,25.197484]},"properties":{"name":"Al Wasl, Street 35, Dar Al Ber Society, Donation Centre 1"}},{"type":"Feature","geometry":{"type":"Point","coordinates":[55.253481,25.195007]},"properties":{"name":"Al Wasl, Street 35, Al Ittihad Health Centre 1"}},{"type":"Feature","geometry":{"type":"Point","coordinates":[55.240908,25.173863]},"properties":{}},{"type":"Feature","geometry":{"type":"Point","coordinates":[55.240646,25.16955]},"properties":{"name":"Oasis Centre 1"}},{"type":"Feature","geometry":{"type":"Point","coordinates":[55.256373,25.193226]},"properties":{"name":"Emarat, Headquarters 2, Street 35"}},{"type":"Feature","geometry":{"type":"Point","coordinates":[55.250578,25.196673]},"properties":{"name":"Al Wasl, Street 35A-1"}},{"type":"Feature","geometry":{"type":"Point","coordinates":[55.243132,25.175837]},"properties":{}},{"type":"Feature","geometry":{"type":"Point","coordinates":[55.252365,25.195328]},"properties":{"name":"Al Wasl, Street 35A-2"}},{"type":"Feature","geometry":{"type":"Point","coordinates":[55.2349,25.177388]},"properties":{}},{"type":"Feature","geometry":{"type":"Point","coordinates":[55.223774,25.164463]},"properties":{}},{"type":"Feature","geometry":{"type":"Point","coordinates":[55.237909,25.178392]},"properties":{}},{"type":"Feature","geometry":{"type":"Point","coordinates":[55.240121,25.177896]},"properties":{"name":"\u0645\u062f\u0631\u0633\u0629 \u0627\u0644\u0635\u0641\u0627 \u0627\u0644\u0628\u0631\u064a\u0637\u0627\u0646\u064a\u0629"}},{"type":"Feature","geometry":{"type":"Point","coordinates":[55.224943,25.165924]},"properties":{}},{"type":"Feature","geometry":{"type":"Point","coordinates":[55.221152,25.161089]},"properties":{"name":"Falcon House"}},{"type":"Feature","geometry":{"type":"Point","coordinates":[55.230099,25.172816]},"properties":{}},{"type":"Feature","geometry":{"type":"Point","coordinates":[55.227582,25.156274]},"properties":{"name":"Al Safa Metro Bus Stop Seaside"}},{"type":"Feature","geometry":{"type":"Point","coordinates":[55.217451,25.156368]},"properties":{"name":"Wasl, Road 5-2"}},{"type":"Feature","geometry":{"type":"Point","coordinates":[55.232892,25.176779]},"properties":{}},{"type":"Feature","geometry":{"type":"Point","coordinates":[55.200992,25.135763]},"properties":{"name":"\u0623\u0645 \u0627\u0644\u0634\u064a\u0641"}},{"type":"Feature","geometry":{"type":"Point","coordinates":[55.222887,25.163674]},"properties":{}},{"type":"Feature","geometry":{"type":"Point","coordinates":[55.224856,25.166373]},"properties":{"name":"Wasl, Road 4"}},{"type":"Feature","geometry":{"type":"Point","coordinates":[55.206332,25.119822]},"properties":{"name":"Interchange 4"}},{"type":"Feature","geometry":{"type":"Point","coordinates":[55.203276,25.13869]},"properties":{}},{"type":"Feature","geometry":{"type":"Point","coordinates":[55.205754,25.141856]},"properties":{}},{"type":"Feature","geometry":{"type":"Point","coordinates":[55.208884,25.145823]},"properties":{"name":"Wasl, Road 6"}},{"type":"Feature","geometry":{"type":"Point","coordinates":[55.217144,25.156349]},"properties":{"name":"Wasl, Road 5"}},{"type":"Feature","geometry":{"type":"Point","coordinates":[55.232134,25.176107]},"properties":{"name":"Al Safa Shopping Centre"}},{"type":"Feature","geometry":{"type":"Point","coordinates":[55.220378,25.160457]},"properties":{"name":"Falcon House"}},{"type":"Feature","geometry":{"type":"Point","coordinates":[55.229764,25.172884]},"properties":{"name":"Safa, Spinneys"}},{"type":"Feature","geometry":{"type":"Point","coordinates":[55.214618,25.153131]},"properties":{"name":"Ghadeer, Emarat"}},{"type":"Feature","geometry":{"type":"Point","coordinates":[55.207064,25.143525]},"properties":{"name":"\u0634\u0627\u0631\u0639 \u0627\u0644\u0648\u0635\u0644 7"}},{"type":"Feature","geometry":{"type":"Point","coordinates":[55.199522,25.116113]},"properties":{"name":"Mall of the Emirates 2"}},{"type":"Feature","geometry":{"type":"Point","coordinates":[55.202281,25.11637]},"properties":{"name":"Mall of the Emirates 1"}},{"type":"Feature","geometry":{"type":"Point","coordinates":[55.199344,25.120052]},"properties":{"name":"Mall of the Emirates Bus Station 5"}},{"type":"Feature","geometry":{"type":"Point","coordinates":[55.204878,25.115232]},"properties":{"name":"Al Barsha A"}},{"type":"Feature","geometry":{"type":"Point","coordinates":[55.215876,25.117394]},"properties":{"name":"ETA SwitchGear Manufacturing 2"}},{"type":"Feature","geometry":{"type":"Point","coordinates":[55.221809,25.137276]},"properties":{}},{"type":"Feature","geometry":{"type":"Point","coordinates":[55.21011,25.147011]},"properties":{"name":"Wasl Rosd 6-2"}},{"type":"Feature","geometry":{"type":"Point","coordinates":[55.256002,25.174428]},"properties":{"name":"Al Quoz, Intersection"}},{"type":"Feature","geometry":{"type":"Point","coordinates":[55.242232,25.137766]},"properties":{"name":"Joton Paints"}},{"type":"Feature","geometry":{"type":"Point","coordinates":[55.242531,25.135294]},"properties":{"name":"Rostamani Steel Mills"}},{"type":"Feature","geometry":{"type":"Point","coordinates":[55.240499,25.132756]},"properties":{"name":"Bartawi Camps 1"}},{"type":"Feature","geometry":{"type":"Point","coordinates":[55.242021,25.128754]},"properties":{"name":"ETA Steel Works 2"}},{"type":"Feature","geometry":{"type":"Point","coordinates":[55.249725,25.130087]},"properties":{"name":"Le Meridien Hotel Accomodation"}},{"type":"Feature","geometry":{"type":"Point","coordinates":[55.236384,25.127635]},"properties":{"name":"Danways Emirat 1"}},{"type":"Feature","geometry":{"type":"Point","coordinates":[55.226432,25.114948]},"properties":{"name":"Al Quoz Emirates Glass 2"}},{"type":"Feature","geometry":{"type":"Point","coordinates":[55.229578,25.118867]},"properties":{"name":"Rigid Construction, Camps 2"}},{"type":"Feature","geometry":{"type":"Point","coordinates":[55.232363,25.122333]},"properties":{"name":"Habtoor Equipment Corporation 2"}},{"type":"Feature","geometry":{"type":"Point","coordinates":[55.235271,25.125957]},"properties":{"name":"Al Quoz Depot 1"}},{"type":"Feature","geometry":{"type":"Point","coordinates":[55.237251,25.126598]},"properties":{"name":"Danways Emirates"}},{"type":"Feature","geometry":{"type":"Point","coordinates":[55.241095,25.123965]},"properties":{"name":"Bahar Plastic Factory 1"}},{"type":"Feature","geometry":{"type":"Point","coordinates":[55.246216,25.125201]},"properties":{"name":"Ducast Factory"}},{"type":"Feature","geometry":{"type":"Point","coordinates":[55.249632,25.129444]},"properties":{"name":"Le Meridien Hotel Accomodation"}},{"type":"Feature","geometry":{"type":"Point","coordinates":[55.250103,25.132685]},"properties":{"name":"Majid Industries"}},{"type":"Feature","geometry":{"type":"Point","coordinates":[55.247708,25.133062]},"properties":{"name":"Al-Khaleej, Metal Coating 2"}},{"type":"Feature","geometry":{"type":"Point","coordinates":[55.243825,25.12826]},"properties":{"name":"Emirates Printing Press 2"}},{"type":"Feature","geometry":{"type":"Point","coordinates":[55.241985,25.134321]},"properties":{"name":"Rostamani Steel Mills"}},{"type":"Feature","geometry":{"type":"Point","coordinates":[55.242159,25.138045]},"properties":{"name":"Joton Paints"}},{"type":"Feature","geometry":{"type":"Point","coordinates":[55.229689,25.156995]},"properties":{"name":"Quoz, Yusuf Motors 2"}},{"type":"Feature","geometry":{"type":"Point","coordinates":[55.236061,25.164514]},"properties":{"name":"Marine Centre"}},{"type":"Feature","geometry":{"type":"Point","coordinates":[55.19981,25.120117]},"properties":{"name":"Mall of the Emirates Bus Station 2"}},{"type":"Feature","geometry":{"type":"Point","coordinates":[55.224549,25.137892]},"properties":{}},{"type":"Feature","geometry":{"type":"Point","coordinates":[55.190542,25.131387]},"properties":{"name":"Dubai Police Academy"}},{"type":"Feature","geometry":{"type":"Point","coordinates":[55.258404,25.188829]},"properties":{}},{"type":"Feature","geometry":{"type":"Point","coordinates":[55.207085,25.143161]},"properties":{"name":"\u0634\u0627\u0631\u0639 \u0627\u0644\u0648\u0635\u0644 7-2"}},{"type":"Feature","geometry":{"type":"Point","coordinates":[55.262706,25.185294]},"properties":{"name":"Lillian Tower 2"}},{"type":"Feature","geometry":{"type":"Point","coordinates":[55.263228,25.186761]},"properties":{"name":"Lillian Tower 1"}},{"type":"Feature","geometry":{"type":"Point","coordinates":[55.266588,25.180393]},"properties":{"name":"XL Tower 2"}},{"type":"Feature","geometry":{"type":"Point","coordinates":[55.266839,25.180074]},"properties":{"name":"XL Tower 1"}},{"type":"Feature","geometry":{"type":"Point","coordinates":[55.269444,25.180586]},"properties":{"name":"U BORA Tower 2 GE Office"}},{"type":"Feature","geometry":{"type":"Point","coordinates":[55.269856,25.180427]},"properties":{"name":"U BORA Tower 1 GE Office"}},{"type":"Feature","geometry":{"type":"Point","coordinates":[55.271421,25.189087]},"properties":{"name":"8 Boulevard Walk Tower 2"}},{"type":"Feature","geometry":{"type":"Point","coordinates":[55.270967,25.189776]},"properties":{"name":"8 Boulevard Walk Tower 1"}},{"type":"Feature","geometry":{"type":"Point","coordinates":[55.267469,25.189788]},"properties":{"name":"East Height Towers Entrance G"}},{"type":"Feature","geometry":{"type":"Point","coordinates":[55.268655,25.188487]},"properties":{"name":"Clover Bay Tower 1"}},{"type":"Feature","geometry":{"type":"Point","coordinates":[55.268751,25.188156]},"properties":{"name":"Clover Bay Tower 2"}},{"type":"Feature","geometry":{"type":"Point","coordinates":[55.266173,25.187667]},"properties":{"name":"The Binary Tower 1"}},{"type":"Feature","geometry":{"type":"Point","coordinates":[55.266434,25.187483]},"properties":{"name":"The Binary Tower 2"}},{"type":"Feature","geometry":{"type":"Point","coordinates":[55.261437,25.191092]},"properties":{"name":"Business Bay Metro Bus Stop Landside 2"}},{"type":"Feature","geometry":{"type":"Point","coordinates":[55.255847,25.176276]},"properties":{"name":"Al Quoz, Dubai Municipality Center 2"}},{"type":"Feature","geometry":{"type":"Point","coordinates":[55.237739,25.141001]},"properties":{"name":"Speedwell Decor 2"}},{"type":"Feature","geometry":{"type":"Point","coordinates":[55.232067,25.146808]},"properties":{"name":"Al Quoz, Bus Station 10"}}]}