{"type":"FeatureCollection","features":[{"type":"Feature","geometry":{"type":"Point","coordinates":[55.221987,25.173011]},"properties":{}},{"type":"Feature","geometry":{"type":"Point","coordinates":[55.255818,25.174864]},"properties":{"name":"Cafe Fiesta Zone"}},{"type":"Feature","geometry":{"type":"Point","coordinates":[55.200821,25.114532]},"properties":{"name":"Tikka Cafe"}},{"type":"Feature","geometry":{"type":"Point","coordinates":[55.240103,25.186152]},"properties":{"name":"Tim Hortons"}},{"type":"Feature","geometry":{"type":"Point","coordinates":[55.2233,25.145972]},"properties":{"name":"Tom & Serg"}},{"type":"Feature","geometry":{"type":"Point","coordinates":[55.265292,25.18502]},"properties":{"name":"The Health Spot Cafe"}},{"type":"Feature","geometry":{"type":"Point","coordinates":[55.195862,25.117711]},"properties":{"name":"Jamaica Blue"}},{"type":"Feature","geometry":{"type":"Point","coordinates":[55.231625,25.189609]},"properties":{"name":"Bubble cafe"}},{"type":"Feature","geometry":{"type":"Point","coordinates":[55.241582,25.169448]},"properties":{"name":"Starbucks"}},{"type":"Feature","geometry":{"type":"Point","coordinates":[55.211246,25.167784]},"properties":{"name":"\u0627\u064a\u0633\u0643\u0631\u064a\u0645"}},{"type":"Feature","geometry":{"type":"Point","coordinates":[55.229111,25.186152]},"properties":{"name":"dip n dip Jumeirah"}},{"type":"Feature","geometry":{"type":"Point","coordinates":[55.205451,25.160369]},"properties":{"name":"Filli Cafe Kite Beach"}},{"type":"Feature","geometry":{"type":"Point","coordinates":[55.226098,25.149856]},"properties":{"name":"Rajju omelette"}},{"type":"Feature","geometry":{"type":"Point","coordinates":[55.262645,25.193138]},"properties":{"name":"Cafe Premiere"}},{"type":"Feature","geometry":{"type":"Point","coordinates":[55.188695,25.112748]},"properties":{"name":"Java Cafe"}},{"type":"Feature","geometry":{"type":"Point","coordinates":[55.202101,25.153782]},"properties":{"name":"Donas Dum Dum 2x1"}},{"type":"Feature","geometry":{"type":"Point","coordinates":[55.212409,25.165611]},"properties":{"name":"Local Bites Cafe"}},{"type":"Feature","geometry":{"type":"Point","coordinates":[55.198472,25.14936]},"properties":{"name":"Depresso1"}},{"type":"Feature","geometry":{"type":"Point","coordinates":[55.216457,25.169967]},"properties":{"name":"Attibassi Coffee"}},{"type":"Feature","geometry":{"type":"Point","coordinates":[55.197045,25.147012]},"properties":{"name":"Brew"}},{"type":"Feature","geometry":{"type":"Point","coordinates":[55.206757,25.112158]},"properties":{"name":"Que Club"}},{"type":"Feature","geometry":{"type":"Point","coordinates":[55.204936,25.115679]},"properties":{"name":"China Bistro"}},{"type":"Feature","geometry":{"type":"Point","coordinates":[55.22223,25.123039]},"properties":{"name":"Tea Corner"}},{"type":"Feature","geometry":{"type":"Point","coordinates":[55.246035,25.196428]},"properties":{"name":"Roasters Caf\u00e9"}},{"type":"Feature","geometry":{"type":"Point","coordinates":[55.248395,25.19879]},"properties":{"name":"Starbucks"}},{"type":"Feature","geometry":{"type":"Point","coordinates":[55.270544,25.196306]},"properties":{"name":"\u0643\u0627\u0631\u064a\u0628\u0648 \u0643\u0648\u0641\u064a"}},{"type":"Feature","geometry":{"type":"Point","coordinates":[55.22684,25.152395]},"properties":{"name":"Cafe Prima"}},{"type":"Feature","geometry":{"type":"Point","coordinates":[55.246173,25.155563]},"properties":{"name":"Bab Al Dar"}},{"type":"Feature","geometry":{"type":"Point","coordinates":[55.245576,25.15503]},"properties":{"name":"One Point Cafe"}},{"type":"Feature","geometry":{"type":"Point","coordinates":[55.210372,25.147113]},"properties":{"name":"Tim Hortons"}},{"type":"Feature","geometry":{"type":"Point","coordinates":[55.20847,25.144544]},"properties":{"name":"Hoya Cafe & Restaurant"}},{"type":"Feature","geometry":{"type":"Point","coordinates":[55.251727,25.1587]},"properties":{"name":"Tea Break"}},{"type":"Feature","geometry":{"type":"Point","coordinates":[55.234894,25.193843]},"properties":{"name":"\u0627\u0644\u0645\u0630\u0627\u0642 \u0627\u0644\u0645\u063a\u0631\u0628\u064a"}},{"type":"Feature","geometry":{"type":"Point","coordinates":[55.235101,25.194129]},"properties":{"name":"Il Caf\u00e9 di Roma"}},{"type":"Feature","geometry":{"type":"Point","coordinates":[55.227491,25.168795]},"properties":{"name":"Starbucks"}},{"type":"Feature","geometry":{"type":"Point","coordinates":[55.200991,25.119045]},"properties":{"name":"\u0633\u062a\u0627\u0631\u0628\u0643\u0633"}},{"type":"Feature","geometry":{"type":"Point","coordinates":[55.202667,25.118394]},"properties":{"name":"\u0633\u062a\u0627\u0631\u0628\u0643\u0633"}},{"type":"Feature","geometry":{"type":"Point","coordinates":[55.198984,25.117303]},"properties":{"name":"\u0633\u062a\u0627\u0631\u0628\u0643\u0633"}},{"type":"Feature","geometry":{"type":"Point","coordinates":[55.198767,25.117274]},"properties":{"name":"Costa"}},{"type":"Feature","geometry":{"type":"Point","coordinates":[55.208735,25.164574]},"properties":{"name":"\u041f\u043b\u044f\u0436"}},{"type":"Feature","geometry":{"type":"Point","coordinates":[55.197572,25.148326]},"properties":{"name":"The Surf Caf\u00e9 & The Sushi Bar"}},{"type":"Feature","geometry":{"type":"Point","coordinates":[55.197369,25.148381]},"properties":{"name":"Single Fin Cafe"}},{"type":"Feature","geometry":{"type":"Point","coordinates":[55.216418,25.171141]},"properties":{"name":"The Tea Cup"}},{"type":"Feature","geometry":{"type":"Point","coordinates":[55.223509,25.143747]},"properties":{"name":"The Lime Tree Cafe - Al Quoz"}},{"type":"Feature","geometry":{"type":"Point","coordinates":[55.209794,25.129645]},"properties":{"name":"The Lime Tree Cafe - Sheikh Zayed Road"}},{"type":"Feature","geometry":{"type":"Point","coordinates":[55.212558,25.130067]},"properties":{"name":"Roseleaf Cafe"}},{"type":"Feature","geometry":{"type":"Point","coordinates":[55.254954,25.184553]},"properties":{"name":"\u0627\u0644\u0645\u0642\u0647\u0649"}},{"type":"Feature","geometry":{"type":"Point","coordinates":[55.185165,25.134992]},"properties":{"name":"Folly by Nick&Scott"}},{"type":"Feature","geometry":{"type":"Point","coordinates":[55.225618,25.153445]},"properties":{}},{"type":"Feature","geometry":{"type":"Point","coordinates":[55.265357,25.189503]},"properties":{"name":"\u0633\u062a\u0627\u0631\u0628\u0643\u0633"}},{"type":"Feature","geometry":{"type":"Point","coordinates":[55.198884,25.118783]},"properties":{}},{"type":"Feature","geometry":{"type":"Point","coordinates":[55.269508,25.180816]},"properties":{"name":"Espressini"}},{"type":"Feature","geometry":{"type":"Point","coordinates":[55.202624,25.119085]},"properties":{"name":"% Arabica"}},{"type":"Feature","geometry":{"type":"Point","coordinates":[55.26249,25.195559]},"properties":{}},{"type":"Feature","geometry":{"type":"Point","coordinates":[55.253105,25.17835]},"properties":{"name":"Costa"}},{"type":"Feature","geometry":{"type":"Point","coordinates":[55.218572,25.174051]},"properties":{"name":"BW Cafe"}},{"type":"Feature","geometry":{"type":"Point","coordinates":[55.262918,25.181518]},"properties":{"name":"Pechka Cafe and Bakery"}},{"type":"Feature","geometry":{"type":"Point","coordinates":[55.196495,25.116981]},"properties":{"name":"Filli Cafe"}},{"type":"Feature","geometry":{"type":"Point","coordinates":[55.193883,25.116309]},"properties":{"name":"Lounge@Barsha"}},{"type":"Feature","geometry":{"type":"Point","coordinates":[55.237677,25.163573]},"properties":{"name":"\u0645\u0631\u0632\u0627\u0645 \u0643\u0627\u0641\u064a\u0647"}},{"type":"Feature","geometry":{"type":"Point","coordinates":[55.196019,25.11173]},"properties":{"name":"Lift Cafe & Bakery"}},{"type":"Feature","geometry":{"type":"Point","coordinates":[55.198617,25.144561]},"properties":{"name":"La Grove Caf\u00e9"}},{"type":"Feature","geometry":{"type":"Point","coordinates":[55.198197,25.148421]},"properties":{}},{"type":"Feature","geometry":{"type":"Point","coordinates":[55.249811,25.200809]},"properties":{"name":"Forever Rose"}},{"type":"Feature","geometry":{"type":"Point","coordinates":[55.2126,25.150949]},"properties":{"name":"Cafe Two Point Oh"}},{"type":"Feature","geometry":{"type":"Point","coordinates":[55.214585,25.153556]},"properties":{"name":"Costa"}},{"type":"Feature","geometry":{"type":"Point","coordinates":[55.242473,25.178641]},"properties":{"name":"Starbucks"}},{"type":"Feature","geometry":{"type":"Point","coordinates":[55.242453,25.17874]},"properties":{"name":"Level tea"}},{"type":"Feature","geometry":{"type":"Point","coordinates":[55.226625,25.184186]},"properties":{"name":"Block 92"}},{"type":"Feature","geometry":{"type":"Point","coordinates":[55.256689,25.169317]},"properties":{}},{"type":"Feature","geometry":{"type":"Point","coordinates":[55.255367,25.183472]},"properties":{"name":"Fuze Caffe"}},{"type":"Feature","geometry":{"type":"Point","coordinates":[55.246721,25.19636]},"properties":{"name":"Caia"}},{"type":"Feature","geometry":{"type":"Point","coordinates":[55.209691,25.165579]},"properties":{}},{"type":"Feature","geometry":{"type":"Point","coordinates":[55.204623,25.139437]},"properties":{}},{"type":"Feature","geometry":{"type":"Point","coordinates":[55.207368,25.163705]},"properties":{}},{"type":"Feature","geometry":{"type":"Point","coordinates":[55.195363,25.117451]},"properties":{"name":"Hotspot Cafe"}},{"type":"Feature","geometry":{"type":"Point","coordinates":[55.258327,25.188107]},"properties":{"name":"Costa Coffee"}},{"type":"Feature","geometry":{"type":"Point","coordinates":[55.259867,25.188859]},"properties":{"name":"Amazi"}},{"type":"Feature","geometry":{"type":"Point","coordinates":[55.270737,25.19828]},"properties":{"name":"THE SIX - Board Game Cafe"}},{"type":"Feature","geometry":{"type":"Point","coordinates":[55.245009,25.194963]},"properties":{}},{"type":"Feature","geometry":{"type":"Point","coordinates":[55.244765,25.184876]},"properties":{"name":"Kabab Al Bastakiah"}},{"type":"Feature","geometry":{"type":"Point","coordinates":[55.238127,25.183491]},"properties":{"name":"The Grey"}},{"type":"Feature","geometry":{"type":"Point","coordinates":[55.195405,25.14512]},"properties":{"name":"Artisan Bakers"}},{"type":"Feature","geometry":{"type":"Point","coordinates":[55.235494,25.180232]},"properties":{"name":"Adventure Parx & Cafe"}},{"type":"Feature","geometry":{"type":"Point","coordinates":[55.261734,25.191677]},"properties":{"name":"TEREA HEETS DUBAI"}},{"type":"Feature","geometry":{"type":"Point","coordinates":[55.261775,25.191688]},"properties":{}},{"type":"Feature","geometry":{"type":"Point","coordinates":[55.19638,25.126485]},"properties":{"name":"Costa Coffee"}},{"type":"Feature","geometry":{"type":"Point","coordinates":[55.245467,25.194164]},"properties":{"name":"Cr\u00e9me"}},{"type":"Feature","geometry":{"type":"Point","coordinates":[55.245343,25.193987]},"properties":{"name":"BEYOU Caf\u00e9"}},{"type":"Feature","geometry":{"type":"Point","coordinates":[55.190044,25.144898]},"properties":{"name":"heaf"}},{"type":"Feature","geometry":{"type":"Point","coordinates":[55.191011,25.144232]},"properties":{"name":"Feels"}},{"type":"Feature","geometry":{"type":"Point","coordinates":[55.226257,25.141001]},"properties":{"name":"Subko Specialty Coffee Roasters and Bakehouse"}},{"type":"Feature","geometry":{"type":"Point","coordinates":[55.208595,25.126451]},"properties":{"name":"Casa Alma Caf\u00e9"}},{"type":"Feature","geometry":{"type":"Point","coordinates":[55.26599,25.183445]},"properties":{"name":"Halfcup"}},{"type":"Feature","geometry":{"type":"Point","coordinates":[55.235833,25.19508]},"properties":{"name":"Orto"}},{"type":"Feature","geometry":{"type":"Point","coordinates":[55.268114,25.18533]},"properties":{"name":"Black Sheep Coffee"}},{"type":"Feature","geometry":{"type":"Point","coordinates":[55.266791,25.185477]},"properties":{"name":"Drinkit"}},{"type":"Feature","geometry":{"type":"Point","coordinates":[55.20638,25.141971]},"properties":{"name":"PlantMama - Floral Cafe"}},{"type":"Feature","geometry":{"type":"Polygon","coordinates":[[[55.22642,25.140762],[55.226557,25.140933],[55.227203,25.141743],[55.227195,25.141829],[55.226034,25.142589],[55.225828,25.142337],[55.226011,25.142214],[55.226742,25.141735],[55.226279,25.141127],[55.226121,25.140959],[55.22642,25.140762]]]},"properties":{}},{"type":"Feature","geometry":{"type":"Polygon","coordinates":[[[55.235279,25.11774],[55.235166,25.117602],[55.234697,25.117919],[55.234811,25.118057],[55.235279,25.11774]]]},"properties":{"name":"Cafeteria"}},{"type":"Feature","geometry":{"type":"Polygon","coordinates":[[[55.208974,25.161732],[55.209083,25.161655],[55.209124,25.161702],[55.209165,25.16175],[55.209055,25.161827],[55.208974,25.161732]]]},"properties":{"name":"Costa"}},{"type":"Feature","geometry":{"type":"Polygon","coordinates":[[[55.193475,25.143652],[55.193447,25.143619],[55.19347,25.143604],[55.193453,25.143585],[55.193505,25.143549],[55.193521,25.143567],[55.193561,25.143539],[55.193589,25.143571],[55.193475,25.143652]]]},"properties":{"name":"Cat Caf\u00e9"}},{"type":"Feature","geometry":{"type":"Polygon","coordinates":[[[55.205747,25.156996],[55.205638,25.15687],[55.20577,25.156778],[55.205878,25.156904],[55.205747,25.156996]]]},"properties":{"name":"Starbucks"}},{"type":"Feature","geometry":{"type":"Polygon","coordinates":[[[55.233387,25.183892],[55.233335,25.183823],[55.233429,25.183762],[55.233445,25.183783],[55.233433,25.183867],[55.233387,25.183892]]]},"properties":{"name":"Starbucks"}},{"type":"Feature","geometry":{"type":"Polygon","coordinates":[[[55.234843,25.180506],[55.234937,25.180448],[55.234995,25.180526],[55.234902,25.180584],[55.234843,25.180506]]]},"properties":{"name":"Starbucks"}},{"type":"Feature","geometry":{"type":"Polygon","coordinates":[[[55.221698,25.162537],[55.221783,25.162488],[55.22182,25.16254],[55.221785,25.16256],[55.221767,25.162535],[55.221716,25.162564],[55.221698,25.162537]]]},"properties":{"name":"Antar"}},{"type":"Feature","geometry":{"type":"Polygon","coordinates":[[[55.221196,25.115413],[55.221542,25.115183],[55.221505,25.115137],[55.22163,25.115054],[55.221758,25.115211],[55.221287,25.115524],[55.221196,25.115413]]]},"properties":{"name":"Traffic Cafe"}},{"type":"Feature","geometry":{"type":"Polygon","coordinates":[[[55.246707,25.197421],[55.246648,25.197332],[55.246669,25.19732],[55.246729,25.197409],[55.246707,25.197421]]]},"properties":{"name":"Costa"}},{"type":"Feature","geometry":{"type":"Polygon","coordinates":[[[55.253702,25.142584],[55.25395,25.142672],[55.254156,25.14224],[55.253922,25.142169],[55.253702,25.142584]]]},"properties":{"name":"AKG Cafe"}},{"type":"Feature","geometry":{"type":"Polygon","coordinates":[[[55.226123,25.140972],[55.226279,25.141127],[55.226557,25.140933],[55.226425,25.140752],[55.226123,25.140972]]]},"properties":{"name":"Subko Specialty Coffee Roasters and Bakehouse"}}]}