{"type":"FeatureCollection","features":[{"type":"Feature","geometry":{"type":"Point","coordinates":[55.184983,25.12997]},"properties":{"name":"DNA Health","amenity":"clinic"}},{"type":"Feature","geometry":{"type":"Point","coordinates":[55.253221,25.170503]},"properties":{"name":"\u0645\u0631\u0643\u0632 \u0627\u0644\u0642\u0648\u0632 \u0627\u0644\u0635\u062d\u064a","amenity":"clinic"}},{"type":"Feature","geometry":{"type":"Point","coordinates":[55.229848,25.173483]},"properties":{"name":"Dubai Homeopathy Health Centre","amenity":"clinic"}},{"type":"Feature","geometry":{"type":"Point","coordinates":[55.199785,25.134537]},"properties":{"name":"Get On Track","amenity":"clinic"}},{"type":"Feature","geometry":{"type":"Point","coordinates":[55.245096,25.195018]},"properties":{"name":"Demaline Cosmetic Kin and Laser Centre","amenity":"clinic","healthcare":"clinic"}},{"type":"Feature","geometry":{"type":"Point","coordinates":[55.246902,25.178712]},"properties":{"name":"\u0645\u0631\u0643\u0632 \u0645\u064a\u062f\u0643\u064a\u0631 \u0644\u0644\u0639\u064a\u0648\u0646","amenity":"clinic","healthcare":"clinic"}},{"type":"Feature","geometry":{"type":"Point","coordinates":[55.227912,25.112658]},"properties":{"name":"UAE Aikido","amenity":"clinic","healthcare":"clinic"}},{"type":"Feature","geometry":{"type":"Point","coordinates":[55.228655,25.155287]},"properties":{"name":"Prime Medical Centre","amenity":"clinic","healthcare":"clinic"}},{"type":"Feature","geometry":{"type":"Point","coordinates":[55.247801,25.148504]},"properties":{"name":"Aster Medical Center","amenity":"clinic"}},{"type":"Feature","geometry":{"type":"Point","coordinates":[55.253102,25.138896]},"properties":{"name":"Karama Medical Centre","amenity":"clinic"}},{"type":"Feature","geometry":{"type":"Point","coordinates":[55.222311,25.123498]},"properties":{"name":"Al Quoz Mall Medical Fitness Centre","amenity":"clinic","healthcare":"clinic"}},{"type":"Feature","geometry":{"type":"Point","coordinates":[55.223149,25.12266]},"properties":{"name":"Al Khail Medical Center","amenity":"clinic","healthcare":"clinic"}},{"type":"Feature","geometry":{"type":"Point","coordinates":[55.224855,25.181793]},"properties":{"name":"Lesprit Medical Clinic","amenity":"clinic"}},{"type":"Feature","geometry":{"type":"Point","coordinates":[55.239614,25.200131]},"properties":{"name":"The British","amenity":"clinic","healthcare":"clinic"}},{"type":"Feature","geometry":{"type":"Point","coordinates":[55.227646,25.184265]},"properties":{"name":"The Private Clinic","amenity":"clinic"}},{"type":"Feature","geometry":{"type":"Point","coordinates":[55.227803,25.184414]},"properties":{"name":"Dr. Leila Soudah Clinic","amenity":"clinic"}},{"type":"Feature","geometry":{"type":"Point","coordinates":[55.215527,25.168834]},"properties":{"name":"The Facial Clinic","amenity":"clinic"}},{"type":"Feature","geometry":{"type":"Point","coordinates":[55.213552,25.166146]},"properties":{"name":"Euro Med","amenity":"clinic","healthcare":"clinic"}},{"type":"Feature","geometry":{"type":"Point","coordinates":[55.205942,25.116406]},"properties":{"name":"Houston Clinic","amenity":"clinic","healthcare":"clinic"}},{"type":"Feature","geometry":{"type":"Point","coordinates":[55.205852,25.116303]},"properties":{"name":"Alnoor Polyclinic","amenity":"clinic","healthcare":"clinic"}},{"type":"Feature","geometry":{"type":"Point","coordinates":[55.205069,25.117074]},"properties":{"name":"Prestige","amenity":"clinic"}},{"type":"Feature","geometry":{"type":"Point","coordinates":[55.204775,25.117445]},"properties":{"name":"TruCare","amenity":"clinic"}},{"type":"Feature","geometry":{"type":"Point","coordinates":[55.20433,25.116847]},"properties":{"name":"Garden Green Therapy Centre","amenity":"clinic","healthcare":"clinic"}},{"type":"Feature","geometry":{"type":"Point","coordinates":[55.194208,25.11509]},"properties":{"name":"Medical Speialists Centre","amenity":"clinic","healthcare":"clinic"}},{"type":"Feature","geometry":{"type":"Point","coordinates":[55.230713,25.174395]},"properties":{"name":"Dubai Homeopathy Health Centre","amenity":"clinic"}},{"type":"Feature","geometry":{"type":"Point","coordinates":[55.221348,25.160984]},"properties":{"name":"Sansaya Clinic","amenity":"clinic"}},{"type":"Feature","geometry":{"type":"Point","coordinates":[55.219326,25.158488]},"properties":{"name":"Ulbe Care Medical Group","amenity":"clinic"}},{"type":"Feature","geometry":{"type":"Point","coordinates":[55.216664,25.155141]},"properties":{"name":"Noor Alwasl Clinic","amenity":"clinic"}},{"type":"Feature","geometry":{"type":"Point","coordinates":[55.197593,25.130586]},"properties":{"name":"Kids First Medical Centre","amenity":"clinic","healthcare":"clinic"}},{"type":"Feature","geometry":{"type":"Point","coordinates":[55.197506,25.130467]},"properties":{"name":"Family First Medical Centre","amenity":"clinic","healthcare":"clinic"}},{"type":"Feature","geometry":{"type":"Point","coordinates":[55.243198,25.151069]},"properties":{"name":"Khalidha Medical Centre","amenity":"clinic"}},{"type":"Feature","geometry":{"type":"Point","coordinates":[55.247394,25.154818]},"properties":{"name":"Sekher Medical Clinic","amenity":"clinic"}},{"type":"Feature","geometry":{"type":"Point","coordinates":[55.213682,25.151288]},"properties":{"name":"Dubai Cosmetic Surgery Clinic","amenity":"clinic","healthcare":"clinic"}},{"type":"Feature","geometry":{"type":"Point","coordinates":[55.212641,25.150023]},"properties":{"name":"Al Aliaa Polyclinic","amenity":"clinic"}},{"type":"Feature","geometry":{"type":"Point","coordinates":[55.211647,25.148742]},"properties":{"name":"Blue Tree Clinics","amenity":"clinic"}},{"type":"Feature","geometry":{"type":"Point","coordinates":[55.210958,25.147769]},"properties":{"name":"HealthBay Polyclinic","amenity":"clinic"}},{"type":"Feature","geometry":{"type":"Point","coordinates":[55.208019,25.144105]},"properties":{"name":"Lavie Clinic","amenity":"clinic","healthcare":"clinic"}},{"type":"Feature","geometry":{"type":"Point","coordinates":[55.20794,25.143991]},"properties":{"name":"Al Biraa Clinic","amenity":"clinic","healthcare":"clinic"}},{"type":"Feature","geometry":{"type":"Point","coordinates":[55.207876,25.143937]},"properties":{"name":"NLS New Life Style Clinic","amenity":"clinic","healthcare":"clinic"}},{"type":"Feature","geometry":{"type":"Point","coordinates":[55.207651,25.143608]},"properties":{"name":"Charme Polyclinic","amenity":"clinic","healthcare":"clinic"}},{"type":"Feature","geometry":{"type":"Point","coordinates":[55.207365,25.143222]},"properties":{"name":"\u0645\u0631\u0643\u0632 \u0637\u0628 \u0627\u0644\u0623\u0637\u0641\u0627\u0644 \u0648\u062c\u0631\u0627\u062d\u0629 \u0627\u0644\u0639\u0638\u0627\u0645","amenity":"clinic","healthcare":"clinic"}},{"type":"Feature","geometry":{"type":"Point","coordinates":[55.207417,25.143285]},"properties":{"name":"Dr. Joy Dental Clinic","amenity":"clinic","healthcare":"clinic"}},{"type":"Feature","geometry":{"type":"Point","coordinates":[55.206233,25.141769]},"properties":{"name":"Emirates Specialized Laboratory","amenity":"clinic","healthcare":"laboratory"}},{"type":"Feature","geometry":{"type":"Point","coordinates":[55.206026,25.141474]},"properties":{"name":"Royal Vision","amenity":"clinic","healthcare":"clinic"}},{"type":"Feature","geometry":{"type":"Point","coordinates":[55.248481,25.158038]},"properties":{"name":"Access Clinic","amenity":"clinic"}},{"type":"Feature","geometry":{"type":"Point","coordinates":[55.211972,25.150164]},"properties":{"name":"OmniCare","amenity":"clinic"}},{"type":"Feature","geometry":{"type":"Point","coordinates":[55.211826,25.149977]},"properties":{"name":"\u0627\u0644\u0642\u0635\u0631 \u0627\u0644\u0630\u0647\u0628\u064a","amenity":"clinic","healthcare":"clinic"}},{"type":"Feature","geometry":{"type":"Point","coordinates":[55.199947,25.143669]},"properties":{"name":"Gental Clinic","amenity":"clinic"}},{"type":"Feature","geometry":{"type":"Point","coordinates":[55.247137,25.179315]},"properties":{"name":"Orthopaedic Emergency","amenity":"clinic","healthcare":"clinic"}},{"type":"Feature","geometry":{"type":"Point","coordinates":[55.23583,25.19498]},"properties":{"name":"Eternal Poly Clinic","amenity":"clinic","healthcare":"clinic"}},{"type":"Feature","geometry":{"type":"Point","coordinates":[55.21042,25.162349]},"properties":{"name":"King's Collage Health Clinic","amenity":"clinic"}},{"type":"Feature","geometry":{"type":"Point","coordinates":[55.204302,25.111665]},"properties":{"name":"abood","amenity":"clinic"}},{"type":"Feature","geometry":{"type":"Point","coordinates":[55.249077,25.201057]},"properties":{"name":"The Healers\u2019 Clinic","amenity":"clinic","healthcare":"clinic"}},{"type":"Feature","geometry":{"type":"Point","coordinates":[55.213961,25.151094]},"properties":{"name":"MAXIM Hair Restoration","amenity":"clinic","healthcare":"clinic"}},{"type":"Feature","geometry":{"type":"Point","coordinates":[55.207729,25.143552]},"properties":{"name":"\u0645\u0631\u0643\u0632 \u0634\u0627\u0631\u0645 \u0644\u062c\u0631\u0627\u062d\u0629 \u0627\u0644\u064a\u0648\u0645 \u0627\u0644\u0648\u0627\u062d\u062f","amenity":"clinic","healthcare":"clinic"}},{"type":"Feature","geometry":{"type":"Point","coordinates":[55.200971,25.112763]},"properties":{"name":"Aster Clinic","amenity":"clinic"}},{"type":"Feature","geometry":{"type":"Point","coordinates":[55.211604,25.131692]},"properties":{"name":"Spanish Eye Clinic","amenity":"clinic","healthcare":"clinic"}},{"type":"Feature","geometry":{"type":"Point","coordinates":[55.21857,25.158645]},"properties":{"name":"Doctor Style Clinic","amenity":"clinic","healthcare":"clinic"}},{"type":"Feature","geometry":{"type":"Point","coordinates":[55.238813,25.198913]},"properties":{"name":"Aesrhetical Clinic","amenity":"clinic","healthcare":"clinic"}},{"type":"Feature","geometry":{"type":"Point","coordinates":[55.188454,25.138851]},"properties":{"amenity":"clinic","healthcare":"clinic"}},{"type":"Feature","geometry":{"type":"Point","coordinates":[55.248489,25.199963]},"properties":{"name":"Dermalase Clinic","amenity":"clinic","healthcare":"clinic"}},{"type":"Feature","geometry":{"type":"Point","coordinates":[55.213557,25.166099]},"properties":{"name":"Laser Skin Care Clinic Dubai","amenity":"clinic","healthcare":"clinic"}},{"type":"Feature","geometry":{"type":"Point","coordinates":[55.234055,25.17915]},"properties":{"name":"Bionix Clinic","amenity":"clinic","healthcare":"clinic"}},{"type":"Feature","geometry":{"type":"Point","coordinates":[55.268848,25.200312]},"properties":{"name":"\u0639\u064a\u0627\u062f\u0629 \u0628\u0627\u062f\u0631\u0627 \u0627\u0644\u0632\u0631\u0627\u0639\u064a\u0629 \u0627\u0644\u0634\u0639\u0631 \u062f\u0628\u064a","amenity":"clinic"}},{"type":"Feature","geometry":{"type":"Point","coordinates":[55.211806,25.131876]},"properties":{"name":"Dr Omar Al Khalili Clinic","amenity":"clinic","healthcare":"clinic"}},{"type":"Feature","geometry":{"type":"Polygon","coordinates":[[[55.24617,25.147428],[55.245901,25.147102],[55.245234,25.147551],[55.245502,25.147878],[55.24617,25.147428]],[[55.245748,25.147295],[55.2458,25.147261],[55.245968,25.147467],[55.245916,25.147501],[55.245748,25.147295]],[[55.245747,25.147611],[55.245582,25.147405],[55.245641,25.147366],[55.245807,25.147572],[55.245747,25.147611]],[[55.245588,25.147724],[55.245416,25.147509],[55.245472,25.147472],[55.245644,25.147687],[55.245588,25.147724]]]},"properties":{"name":"Aster Medical Center","amenity":"clinic"}},{"type":"Feature","geometry":{"type":"Polygon","coordinates":[[[55.237838,25.189624],[55.237824,25.189684],[55.237855,25.189722],[55.237931,25.189728],[55.237948,25.189707],[55.238003,25.189705],[55.23802,25.189738],[55.238108,25.189749],[55.238205,25.189682],[55.238288,25.189782],[55.238358,25.189791],[55.238376,25.189777],[55.238411,25.189775],[55.238422,25.189793],[55.238514,25.189809],[55.238545,25.189791],[55.23856,25.189712],[55.238597,25.189694],[55.238663,25.189699],[55.238704,25.189677],[55.238733,25.189482],[55.238714,25.189448],[55.238615,25.189438],[55.238597,25.189418],[55.238615,25.189339],[55.238587,25.189308],[55.238498,25.189297],[55.238465,25.189313],[55.23845,25.189399],[55.238436,25.189413],[55.238349,25.189392],[55.238308,25.189413],[55.238302,25.189487],[55.238263,25.189511],[55.238191,25.189497],[55.23816,25.189515],[55.238137,25.189599],[55.23816,25.189622],[55.238141,25.18964],[55.238123,25.189624],[55.23804,25.189615],[55.238009,25.189638],[55.237977,25.189638],[55.237962,25.18961],[55.237888,25.189601],[55.237838,25.189624]]]},"properties":{"name":"\u0639\u064a\u0627\u062f\u0629 \u0627\u0644\u0635\u0641\u0627 \u0644\u0644\u0623\u0645\u0631\u0627\u0636 \u0627\u0644\u062c\u0644\u062f\u064a\u0629","amenity":"clinic","healthcare":"clinic"}},{"type":"Feature","geometry":{"type":"Polygon","coordinates":[[[55.244642,25.192273],[55.244839,25.192548],[55.24454,25.192725],[55.244342,25.19245],[55.244642,25.192273]]]},"properties":{"name":"Bedaya Polyclinic","amenity":"clinic","healthcare":"clinic"}},{"type":"Feature","geometry":{"type":"Polygon","coordinates":[[[55.193932,25.143294],[55.194058,25.14331],[55.1941,25.143288],[55.193956,25.143116],[55.193847,25.143191],[55.193932,25.143294]]]},"properties":{"name":"Med Art Clinic Day Surgery Centre","amenity":"clinic","healthcare":"clinic"}},{"type":"Feature","geometry":{"type":"Polygon","coordinates":[[[55.207638,25.134149],[55.207786,25.134058],[55.207682,25.13392],[55.207534,25.134011],[55.207638,25.134149]]]},"properties":{"name":"Dr. Galedari","amenity":"clinic"}},{"type":"Feature","geometry":{"type":"Polygon","coordinates":[[[55.202426,25.136945],[55.202652,25.136796],[55.202321,25.136386],[55.202095,25.136535],[55.202125,25.136572],[55.202106,25.136584],[55.202155,25.136646],[55.202174,25.136633],[55.202191,25.136653],[55.20217,25.136667],[55.202207,25.136713],[55.202228,25.136699],[55.202289,25.136775],[55.202269,25.136788],[55.202302,25.136828],[55.202321,25.136815],[55.202341,25.13684],[55.202318,25.136855],[55.202369,25.136918],[55.202392,25.136903],[55.202426,25.136945]]]},"properties":{"name":"HealthBay","amenity":"clinic"}},{"type":"Feature","geometry":{"type":"Polygon","coordinates":[[[55.231083,25.190024],[55.23127,25.189899],[55.231403,25.190061],[55.231217,25.190186],[55.231083,25.190024]]]},"properties":{"name":"Medcare Fertility Centre","amenity":"clinic"}},{"type":"Feature","geometry":{"type":"Polygon","coordinates":[[[55.225527,25.182867],[55.225699,25.182756],[55.225739,25.182807],[55.225715,25.182822],[55.225742,25.182855],[55.225593,25.182952],[55.225527,25.182867]]]},"properties":{"name":"Clinica","amenity":"clinic"}},{"type":"Feature","geometry":{"type":"Polygon","coordinates":[[[55.19813,25.149245],[55.198037,25.149131],[55.198172,25.149041],[55.198265,25.149154],[55.19813,25.149245]]]},"properties":{"name":"Kind Care Medical Centre","amenity":"clinic","healthcare":"clinic"}},{"type":"Feature","geometry":{"type":"Polygon","coordinates":[[[55.213123,25.165753],[55.212981,25.165568],[55.213324,25.165351],[55.213466,25.165536],[55.213123,25.165753]]]},"properties":{"name":"Medgate Clinic","amenity":"clinic"}},{"type":"Feature","geometry":{"type":"Polygon","coordinates":[[[55.212228,25.164667],[55.212193,25.164622],[55.212244,25.164586],[55.212279,25.16463],[55.212228,25.164667]]]},"properties":{"name":"Medcare Medical Centre","amenity":"clinic"}},{"type":"Feature","geometry":{"type":"Polygon","coordinates":[[[55.24613,25.196784],[55.246005,25.196598],[55.246173,25.196505],[55.246298,25.196692],[55.24613,25.196784]]]},"properties":{"name":"\u0645\u0631\u0643\u0632 \u0625\u0646 \u0625\u0644 \u0641\u064a \u0627\u0644\u0637\u0628\u064a","amenity":"clinic","healthcare":"clinic"}},{"type":"Feature","geometry":{"type":"Polygon","coordinates":[[[55.214954,25.152911],[55.215082,25.153071],[55.215224,25.152979],[55.215096,25.152818],[55.214954,25.152911]]]},"properties":{"name":"dna Health","amenity":"clinic"}},{"type":"Feature","geometry":{"type":"Polygon","coordinates":[[[55.213921,25.151623],[55.213976,25.151693],[55.214131,25.151592],[55.214076,25.151523],[55.214038,25.151547],[55.213955,25.151601],[55.213921,25.151623]]]},"properties":{"name":"\u0645\u0631\u0643\u0632 \u0622\u064a \u0625\u0645 \u0633\u064a \u0627\u0644\u0637\u0628\u064a","amenity":"clinic","healthcare":"clinic"}},{"type":"Feature","geometry":{"type":"Polygon","coordinates":[[[55.21348,25.151028],[55.213518,25.151075],[55.21354,25.151103],[55.213696,25.151001],[55.213636,25.150926],[55.21348,25.151028]]]},"properties":{"name":"Dr. Hala Fadli Dermatology & Laser Clinic","amenity":"clinic"}},{"type":"Feature","geometry":{"type":"Polygon","coordinates":[[[55.207279,25.142839],[55.207099,25.142946],[55.207157,25.143025],[55.207337,25.142919],[55.207279,25.142839]]]},"properties":{"name":"\u0646\u0648\u0641\u0627","amenity":"clinic","healthcare":"clinic"}},{"type":"Feature","geometry":{"type":"Polygon","coordinates":[[[55.207244,25.142785],[55.207184,25.142709],[55.207005,25.142826],[55.207065,25.142901],[55.207244,25.142785]]]},"properties":{"name":"Aesthetics","amenity":"clinic","healthcare":"clinic"}},{"type":"Feature","geometry":{"type":"Polygon","coordinates":[[[55.206854,25.142329],[55.206712,25.142419],[55.20679,25.14252],[55.206932,25.142429],[55.206854,25.142329]]]},"properties":{"name":"Synergy Medical Centre","amenity":"clinic","healthcare":"clinic"}},{"type":"Feature","geometry":{"type":"Polygon","coordinates":[[[55.205233,25.140487],[55.205269,25.140533],[55.205245,25.140549],[55.205316,25.140639],[55.20534,25.140623],[55.205371,25.140663],[55.205483,25.14059],[55.205345,25.140414],[55.205233,25.140487]]]},"properties":{"name":"HealthBay Polyclinic","amenity":"clinic"}},{"type":"Feature","geometry":{"type":"Polygon","coordinates":[[[55.214892,25.153752],[55.214856,25.15371],[55.214811,25.153742],[55.214771,25.153695],[55.214618,25.153802],[55.214694,25.153891],[55.214892,25.153752]]]},"properties":{"name":"The Children's Medical Centre","amenity":"clinic","healthcare":"clinic"}},{"type":"Feature","geometry":{"type":"Polygon","coordinates":[[[55.210265,25.147934],[55.210141,25.148017],[55.210284,25.148192],[55.210408,25.14811],[55.210265,25.147934]]]},"properties":{"name":"\u0627\u0644\u0645\u0631\u0643\u0632 \u0627\u0644\u0637\u0628\u064a \u0627\u0644\u0625\u064a\u0637\u0627\u0644\u064a","amenity":"clinic","healthcare":"clinic"}},{"type":"Feature","geometry":{"type":"Polygon","coordinates":[[[55.210252,25.147845],[55.210176,25.147747],[55.210059,25.14782],[55.210135,25.147919],[55.210252,25.147845]]]},"properties":{"name":"Wellbeing Medical Centre","amenity":"clinic"}},{"type":"Feature","geometry":{"type":"Polygon","coordinates":[[[55.209117,25.14642],[55.209064,25.146352],[55.20891,25.14645],[55.208963,25.146517],[55.209117,25.14642]]]},"properties":{"name":"\u0639\u064a\u0627\u062f\u0629 \u0643\u0648\u0646\u0641\u064a\u062f\u0646\u0633 \u0641\u064a\u0631\u0633\u062a","amenity":"clinic","healthcare":"clinic"}},{"type":"Feature","geometry":{"type":"Polygon","coordinates":[[[55.203558,25.141297],[55.203716,25.141184],[55.20362,25.141074],[55.203598,25.14109],[55.203584,25.141074],[55.203546,25.1411],[55.203554,25.141109],[55.203491,25.141155],[55.203519,25.141188],[55.203499,25.141202],[55.203514,25.141219],[55.203499,25.141229],[55.203558,25.141297]]]},"properties":{"name":"Emirates European Medical Centre","amenity":"clinic"}},{"type":"Feature","geometry":{"type":"Polygon","coordinates":[[[55.196855,25.135146],[55.197038,25.13503],[55.196905,25.134858],[55.196722,25.134973],[55.196855,25.135146]]]},"properties":{"name":"Novomed","amenity":"clinic"}},{"type":"Feature","geometry":{"type":"Polygon","coordinates":[[[55.195772,25.145405],[55.195916,25.145302],[55.195803,25.145172],[55.195764,25.1452],[55.195776,25.145214],[55.195727,25.145249],[55.195774,25.145304],[55.195719,25.145343],[55.195772,25.145405]]]},"properties":{"name":"Blue Tree Clinics","amenity":"clinic"}},{"type":"Feature","geometry":{"type":"Polygon","coordinates":[[[55.195039,25.144452],[55.195112,25.144537],[55.195083,25.144557],[55.19512,25.144602],[55.195264,25.1445],[55.195154,25.144372],[55.195039,25.144452]]]},"properties":{"name":"Med Art Clinic","amenity":"clinic"}},{"type":"Feature","geometry":{"type":"Polygon","coordinates":[[[55.235565,25.194623],[55.235717,25.194528],[55.235566,25.194332],[55.235414,25.194427],[55.235565,25.194623]]]},"properties":{"name":"Spine Surgery","amenity":"clinic","healthcare":"clinic"}},{"type":"Feature","geometry":{"type":"Polygon","coordinates":[[[55.235711,25.194816],[55.235576,25.194634],[55.235733,25.194539],[55.235867,25.194721],[55.235711,25.194816]]]},"properties":{"name":"Al Taie Centre","amenity":"clinic","healthcare":"clinic"}},{"type":"Feature","geometry":{"type":"Polygon","coordinates":[[[55.234365,25.165515],[55.234417,25.165571],[55.234436,25.165556],[55.234496,25.165621],[55.234565,25.165568],[55.234554,25.165556],[55.234621,25.165505],[55.23452,25.165396],[55.234365,25.165515]]]},"properties":{"name":"American Aesthetic Medical Centre","amenity":"clinic","healthcare":"clinic"}},{"type":"Feature","geometry":{"type":"Polygon","coordinates":[[[55.212953,25.150375],[55.212814,25.150192],[55.212951,25.150106],[55.21309,25.150289],[55.212953,25.150375]]]},"properties":{"name":"Northwest Clinic","amenity":"clinic","healthcare":"clinic"}},{"type":"Feature","geometry":{"type":"Polygon","coordinates":[[[55.196212,25.127583],[55.196463,25.127902],[55.197039,25.127531],[55.196789,25.127212],[55.196212,25.127583]]]},"properties":{"name":"Gargash Hospital","amenity":"clinic"}},{"type":"Feature","geometry":{"type":"Polygon","coordinates":[[[55.227144,25.161354],[55.227481,25.161133],[55.227404,25.161038],[55.227067,25.161258],[55.227144,25.161354]]]},"properties":{"name":"Mamlakat Al Jamal","amenity":"clinic","healthcare":"clinic"}}]}