{"type":"FeatureCollection","features":[{"type":"Feature","geometry":{"type":"Point","coordinates":[55.227795,25.156199]},"properties":{}},{"type":"Feature","geometry":{"type":"Point","coordinates":[55.257253,25.12841]},"properties":{"name":"mv 46711"}},{"type":"Feature","geometry":{"type":"Point","coordinates":[55.208821,25.160898]},"properties":{}},{"type":"Feature","geometry":{"type":"Point","coordinates":[55.209291,25.165556]},"properties":{}},{"type":"Feature","geometry":{"type":"Point","coordinates":[55.226196,25.14208]},"properties":{}},{"type":"Feature","geometry":{"type":"Point","coordinates":[55.241129,25.187824]},"properties":{}},{"type":"Feature","geometry":{"type":"Point","coordinates":[55.185415,25.133612]},"properties":{}}]}