{"type":"FeatureCollection","features":[{"type":"Feature","geometry":{"type":"Point","coordinates":[55.235658,25.182068]},"properties":{"name":"Samaa Medical Centre","amenity":"hospital"}},{"type":"Feature","geometry":{"type":"Point","coordinates":[55.247307,25.179174]},"properties":{"name":"Medcare Orthopaedics & Spine Hospital","amenity":"hospital","healthcare":"hospital"}},{"type":"Feature","geometry":{"type":"Point","coordinates":[55.237213,25.196768]},"properties":{"name":"Emirate Hospital","amenity":"hospital","healthcare":"hospital"}},{"type":"Feature","geometry":{"type":"Point","coordinates":[55.213666,25.167267]},"properties":{"name":"Canada DCuan Medical center","amenity":"hospital"}},{"type":"Feature","geometry":{"type":"Point","coordinates":[55.211259,25.148344]},"properties":{"name":"Osteopathy Health Centre","amenity":"hospital","healthcare":"hospital"}},{"type":"Feature","geometry":{"type":"Point","coordinates":[55.218666,25.157806]},"properties":{"name":"Bella Roma Specialty Hospital","amenity":"hospital","healthcare":"hospital"}},{"type":"Feature","geometry":{"type":"Point","coordinates":[55.214126,25.152814]},"properties":{"name":"breath & health alternative medical centre","amenity":"hospital","healthcare":"hospital"}},{"type":"Feature","geometry":{"type":"Point","coordinates":[55.203251,25.137896]},"properties":{"name":"FMC medical centre","amenity":"hospital","healthcare":"hospital"}},{"type":"Feature","geometry":{"type":"Point","coordinates":[55.207794,25.143935]},"properties":{"name":"Alma Polyclinic","amenity":"hospital","healthcare":"hospital"}},{"type":"Feature","geometry":{"type":"Point","coordinates":[55.259655,25.184371]},"properties":{"name":"Nexx Home Healthcare Services","amenity":"hospital","healthcare":"hospital"}},{"type":"Feature","geometry":{"type":"Point","coordinates":[55.191849,25.140443]},"properties":{"name":"Getchecked Clinic","amenity":"hospital","healthcare":"hospital"}},{"type":"Feature","geometry":{"type":"Point","coordinates":[55.21535,25.153674]},"properties":{"name":"Perfect Doctors Clinic","amenity":"hospital","healthcare":"hospital"}},{"type":"Feature","geometry":{"type":"Polygon","coordinates":[[[55.199734,25.110649],[55.200261,25.111011],[55.200481,25.111132],[55.201111,25.111399],[55.201479,25.110518],[55.20165,25.110136],[55.201731,25.110069],[55.201709,25.110054],[55.201774,25.109962],[55.200985,25.109347],[55.20088,25.109299],[55.200797,25.109264],[55.200748,25.109275],[55.200699,25.109307],[55.200655,25.109432],[55.200479,25.109749],[55.200462,25.109781],[55.199734,25.110649]]]},"properties":{"name":"Al Noor Training Centre for Persons with Disabilities","amenity":"hospital","healthcare":"hospital"}},{"type":"Feature","geometry":{"type":"Polygon","coordinates":[[[55.237304,25.197166],[55.237618,25.197576],[55.238132,25.197254],[55.237818,25.196843],[55.237552,25.19701],[55.237304,25.197166]]]},"properties":{"name":"\u0645\u0633\u062a\u0634\u0641\u0649 \u0627\u0644\u062c\u0631\u0627\u062d\u0629 \u0627\u0644\u0639\u0635\u0628\u064a\u0629 \u0648\u0627\u0644\u0639\u0645\u0648\u062f \u0627\u0644\u0641\u0642\u0631\u064a","amenity":"hospital","healthcare":"hospital"}},{"type":"Feature","geometry":{"type":"Polygon","coordinates":[[[55.203748,25.140224],[55.203918,25.140113],[55.203874,25.140058],[55.203798,25.140107],[55.203713,25.139999],[55.203803,25.139941],[55.203663,25.139765],[55.203478,25.139885],[55.203748,25.140224]]]},"properties":{"name":"Quttainah Specialized Hospital","amenity":"hospital","healthcare":"hospital"}},{"type":"Feature","geometry":{"type":"Polygon","coordinates":[[[55.203463,25.139567],[55.20364,25.139452],[55.20358,25.139376],[55.203403,25.139491],[55.203463,25.139567]]]},"properties":{"name":"Standard Medical Clinic","amenity":"hospital"}},{"type":"Feature","geometry":{"type":"Polygon","coordinates":[[[55.2556,25.11246],[55.255627,25.112791],[55.255463,25.112967],[55.255299,25.113153],[55.255118,25.113361],[55.254687,25.11339],[55.254361,25.113209],[55.253924,25.112999],[55.253487,25.112823],[55.25405,25.111972],[55.254182,25.11204],[55.254457,25.111626],[55.254728,25.111802],[55.255041,25.112022],[55.255335,25.112248],[55.2556,25.11246]]]},"properties":{"name":"Kings Hospital","amenity":"hospital","healthcare":"hospital"}},{"type":"Feature","geometry":{"type":"Polygon","coordinates":[[[55.201025,25.153048],[55.201225,25.153273],[55.201561,25.15303],[55.201618,25.152987],[55.201451,25.152803],[55.201418,25.152763],[55.201025,25.153048]]]},"properties":{"name":"Dubai London Clinic & Specialty Hospital","amenity":"hospital"}},{"type":"Feature","geometry":{"type":"Polygon","coordinates":[[[55.242372,25.183197],[55.242194,25.183325],[55.24203,25.183436],[55.242393,25.183868],[55.242412,25.183855],[55.24255,25.183761],[55.243016,25.183433],[55.243353,25.183202],[55.24337,25.183122],[55.243075,25.182765],[55.243005,25.182748],[55.24267,25.182988],[55.242372,25.183197]]]},"properties":{"name":"MedCare Hospital","amenity":"hospital"}}]}