{"type":"FeatureCollection","features":[{"type":"Feature","geometry":{"type":"Point","coordinates":[55.215727,25.151237]},"properties":{"religion":"muslim"}},{"type":"Feature","geometry":{"type":"Point","coordinates":[55.234088,25.181854]},"properties":{"religion":"muslim"}},{"type":"Feature","geometry":{"type":"Point","coordinates":[55.22843,25.181361]},"properties":{"religion":"muslim"}},{"type":"Feature","geometry":{"type":"Point","coordinates":[55.251008,25.173981]},"properties":{"religion":"muslim"}},{"type":"Feature","geometry":{"type":"Point","coordinates":[55.211015,25.165334]},"properties":{"religion":"muslim"}},{"type":"Feature","geometry":{"type":"Point","coordinates":[55.271459,25.161057]},"properties":{"religion":"muslim"}},{"type":"Feature","geometry":{"type":"Point","coordinates":[55.249561,25.151076]},"properties":{"name":"abdillah kutait masjid","religion":"muslim"}},{"type":"Feature","geometry":{"type":"Point","coordinates":[55.255567,25.144931]},"properties":{"name":"Masjid Aysha","religion":"muslim"}},{"type":"Feature","geometry":{"type":"Point","coordinates":[55.256981,25.15402]},"properties":{"religion":"muslim"}},{"type":"Feature","geometry":{"type":"Point","coordinates":[55.244591,25.171137]},"properties":{"religion":"muslim"}},{"type":"Feature","geometry":{"type":"Point","coordinates":[55.208673,25.112328]},"properties":{"religion":"muslim"}},{"type":"Feature","geometry":{"type":"Point","coordinates":[55.204607,25.118311]},"properties":{"religion":"muslim"}},{"type":"Feature","geometry":{"type":"Point","coordinates":[55.244764,25.14324]},"properties":{"religion":"muslim"}},{"type":"Feature","geometry":{"type":"Point","coordinates":[55.229453,25.159761]},"properties":{"religion":"muslim"}},{"type":"Feature","geometry":{"type":"Point","coordinates":[55.239232,25.179902]},"properties":{"religion":"muslim"}},{"type":"Feature","geometry":{"type":"Polygon","coordinates":[[[55.260206,25.193904],[55.259928,25.193858],[55.259958,25.193718],[55.260238,25.193768],[55.260206,25.193904]]]},"properties":{"name":"\u0645\u0633\u062c\u062f \u0627\u0644\u0635\u0641\u0627","religion":"muslim"}},{"type":"Feature","geometry":{"type":"Polygon","coordinates":[[[55.188234,25.11099],[55.188148,25.111412],[55.187989,25.111386],[55.188006,25.111302],[55.187851,25.111276],[55.187899,25.111038],[55.188066,25.111065],[55.188087,25.110965],[55.188234,25.11099]]]},"properties":{"religion":"muslim"}},{"type":"Feature","geometry":{"type":"Polygon","coordinates":[[[55.220243,25.176364],[55.220219,25.176471],[55.220252,25.176477],[55.22024,25.176532],[55.220288,25.176541],[55.220278,25.176584],[55.220472,25.176619],[55.220483,25.17657],[55.220553,25.176582],[55.220563,25.17654],[55.220613,25.176549],[55.22064,25.17643],[55.220623,25.176427],[55.220647,25.176322],[55.220487,25.176292],[55.220484,25.17631],[55.220345,25.176284],[55.220337,25.17632],[55.220291,25.176312],[55.220278,25.17637],[55.220243,25.176364]]]},"properties":{"religion":"muslim"}},{"type":"Feature","geometry":{"type":"Polygon","coordinates":[[[55.199718,25.151176],[55.199692,25.151291],[55.199746,25.15138],[55.199852,25.151399],[55.199838,25.151468],[55.199918,25.151482],[55.199939,25.15142],[55.200052,25.151353],[55.200072,25.151228],[55.199986,25.15114],[55.199808,25.151112],[55.199718,25.151176]]]},"properties":{"religion":"muslim"}},{"type":"Feature","geometry":{"type":"Polygon","coordinates":[[[55.20262,25.15309],[55.202598,25.153205],[55.202759,25.153231],[55.202781,25.153116],[55.20262,25.15309]]]},"properties":{"religion":"muslim"}},{"type":"Feature","geometry":{"type":"Polygon","coordinates":[[[55.194543,25.145048],[55.194534,25.145086],[55.194489,25.145077],[55.194476,25.145131],[55.194444,25.145125],[55.194417,25.145235],[55.19445,25.145241],[55.194436,25.145299],[55.194488,25.14531],[55.194478,25.145351],[55.194618,25.145379],[55.194612,25.145401],[55.19466,25.14541],[55.194656,25.145427],[55.194702,25.145436],[55.194707,25.145419],[55.194743,25.145426],[55.19475,25.145395],[55.194771,25.145399],[55.19479,25.145317],[55.194814,25.145322],[55.194845,25.145197],[55.194792,25.145186],[55.194801,25.145149],[55.194727,25.145135],[55.194738,25.145087],[55.194543,25.145048]]]},"properties":{"religion":"muslim"}},{"type":"Feature","geometry":{"type":"Polygon","coordinates":[[[55.239857,25.189076],[55.239479,25.188569],[55.240129,25.188213],[55.240414,25.188695],[55.240256,25.188803],[55.239857,25.189076]]]},"properties":{"name":"Al Safa Mosque","religion":"muslim"}},{"type":"Feature","geometry":{"type":"Polygon","coordinates":[[[55.239682,25.188725],[55.239741,25.188479],[55.239944,25.188519],[55.239949,25.188498],[55.24014,25.188536],[55.240116,25.188636],[55.240155,25.188644],[55.240135,25.188729],[55.240101,25.188722],[55.240076,25.188825],[55.240011,25.188812],[55.240005,25.188837],[55.239923,25.18882],[55.239934,25.188775],[55.239682,25.188725]]]},"properties":{"religion":"muslim"}},{"type":"Feature","geometry":{"type":"Polygon","coordinates":[[[55.233246,25.191188],[55.233225,25.19131],[55.233108,25.191294],[55.23312,25.191222],[55.232941,25.191197],[55.232976,25.190993],[55.233233,25.191029],[55.233229,25.191049],[55.233323,25.191063],[55.2333,25.191196],[55.233246,25.191188]]]},"properties":{"religion":"muslim"}},{"type":"Feature","geometry":{"type":"Polygon","coordinates":[[[55.270349,25.151365],[55.271066,25.150842],[55.270606,25.150326],[55.26989,25.15085],[55.270349,25.151365]]]},"properties":{"name":"\u0645\u0633\u062c\u062f \u062e\u062f\u064a\u062c\u0629 \u0627\u0644\u0643\u0628\u0631\u0649","religion":"muslim"}},{"type":"Feature","geometry":{"type":"Polygon","coordinates":[[[55.198573,25.112513],[55.198605,25.112311],[55.198857,25.112344],[55.198825,25.112545],[55.198573,25.112513]]]},"properties":{"religion":"muslim"}},{"type":"Feature","geometry":{"type":"Polygon","coordinates":[[[55.260336,25.199088],[55.260418,25.199101],[55.260451,25.199106],[55.260588,25.199128],[55.260598,25.199078],[55.260674,25.19909],[55.260667,25.199126],[55.260725,25.19911],[55.260771,25.199204],[55.260713,25.199397],[55.260681,25.199392],[55.260674,25.199428],[55.260597,25.199416],[55.260589,25.199457],[55.260518,25.199446],[55.26053,25.199383],[55.260287,25.199345],[55.260325,25.199146],[55.260331,25.199118],[55.260336,25.199088]]]},"properties":{"name":"Al Qasimi Mosque","religion":"muslim"}},{"type":"Feature","geometry":{"type":"Polygon","coordinates":[[[55.222899,25.173139],[55.223146,25.173155],[55.223156,25.173026],[55.222909,25.17301],[55.222899,25.173139]]]},"properties":{"religion":"muslim"}},{"type":"Feature","geometry":{"type":"Polygon","coordinates":[[[55.199678,25.137636],[55.199691,25.137579],[55.199667,25.137575],[55.199681,25.137511],[55.199708,25.137516],[55.199722,25.137452],[55.199761,25.137459],[55.199773,25.137407],[55.19992,25.137434],[55.199903,25.137513],[55.199941,25.13752],[55.199915,25.13764],[55.199874,25.137633],[55.199866,25.13767],[55.199678,25.137636]]]},"properties":{"religion":"muslim"}},{"type":"Feature","geometry":{"type":"Polygon","coordinates":[[[55.248822,25.188892],[55.248734,25.188871],[55.24874,25.188849],[55.248724,25.188845],[55.24873,25.188825],[55.248744,25.188828],[55.248749,25.188813],[55.248839,25.188834],[55.248822,25.188892]]]},"properties":{"religion":"muslim"}},{"type":"Feature","geometry":{"type":"Polygon","coordinates":[[[55.25144,25.192671],[55.251418,25.192744],[55.251509,25.192767],[55.251531,25.192694],[55.25144,25.192671]]]},"properties":{"religion":"muslim"}},{"type":"Feature","geometry":{"type":"Polygon","coordinates":[[[55.24987,25.192196],[55.249926,25.191971],[55.249991,25.191984],[55.25,25.191945],[55.250102,25.191966],[55.250093,25.192002],[55.250142,25.192012],[55.250151,25.191977],[55.25023,25.191994],[55.25015,25.192311],[55.250075,25.192295],[55.250083,25.192263],[55.250048,25.192256],[55.250053,25.192234],[55.24987,25.192196]]]},"properties":{"religion":"muslim"}},{"type":"Feature","geometry":{"type":"Polygon","coordinates":[[[55.197401,25.137678],[55.197383,25.137804],[55.197496,25.137819],[55.197523,25.137705],[55.19766,25.137626],[55.197687,25.137528],[55.197601,25.137386],[55.19761,25.137297],[55.197503,25.137278],[55.197486,25.13737],[55.197338,25.137459],[55.197312,25.137566],[55.197401,25.137678]]]},"properties":{"religion":"muslim"}},{"type":"Feature","geometry":{"type":"Polygon","coordinates":[[[55.235614,25.127462],[55.235647,25.127467],[55.235659,25.127403],[55.235626,25.127398],[55.235629,25.127387],[55.235605,25.127383],[55.235609,25.127364],[55.235588,25.127361],[55.235593,25.127339],[55.235518,25.127326],[55.235513,25.127348],[55.235488,25.127344],[55.235484,25.127363],[55.235467,25.12736],[55.235447,25.127456],[55.235464,25.127459],[55.235461,25.127477],[55.235486,25.127481],[55.235483,25.127496],[55.235558,25.127509],[55.235561,25.127493],[55.235581,25.127497],[55.235585,25.127479],[55.235609,25.127483],[55.235614,25.127462]]]},"properties":{"religion":"muslim"}},{"type":"Feature","geometry":{"type":"Polygon","coordinates":[[[55.198264,25.129092],[55.198258,25.129092],[55.198252,25.129096],[55.198248,25.129101],[55.198247,25.129107],[55.198249,25.129113],[55.198253,25.129118],[55.198258,25.129121],[55.198265,25.129122],[55.198271,25.12912],[55.198276,25.129117],[55.19828,25.129112],[55.198281,25.129106],[55.198279,25.1291],[55.198276,25.129096],[55.198271,25.129093],[55.19828,25.129095],[55.198309,25.128975],[55.198298,25.128973],[55.198309,25.12893],[55.198244,25.128917],[55.198234,25.128961],[55.198152,25.128945],[55.198124,25.129064],[55.198264,25.129092]]]},"properties":{"name":"jibreel","religion":"muslim"}},{"type":"Feature","geometry":{"type":"Polygon","coordinates":[[[55.208813,25.131325],[55.208999,25.131346],[55.209006,25.131295],[55.209034,25.131298],[55.209041,25.131246],[55.209013,25.131243],[55.209024,25.131162],[55.208891,25.131146],[55.208887,25.131173],[55.208835,25.131167],[55.208827,25.131221],[55.208804,25.131219],[55.208796,25.13127],[55.20882,25.131273],[55.208813,25.131325]]]},"properties":{"religion":"muslim"}},{"type":"Feature","geometry":{"type":"Polygon","coordinates":[[[55.224317,25.137551],[55.224485,25.137573],[55.224491,25.137539],[55.224572,25.137549],[55.224566,25.137583],[55.224691,25.137599],[55.224725,25.13738],[55.22467,25.137373],[55.224601,25.137364],[55.224596,25.137398],[55.224515,25.137388],[55.224521,25.137354],[55.224352,25.137332],[55.224317,25.137551]]]},"properties":{"religion":"muslim"}},{"type":"Feature","geometry":{"type":"Polygon","coordinates":[[[55.224032,25.18104],[55.224071,25.180909],[55.224207,25.180942],[55.224168,25.181073],[55.224032,25.18104]]]},"properties":{"religion":"muslim"}},{"type":"Feature","geometry":{"type":"Polygon","coordinates":[[[55.228562,25.185401],[55.228417,25.185375],[55.228452,25.185182],[55.22865,25.185202],[55.22874,25.185316],[55.228562,25.185401]]]},"properties":{"religion":"muslim"}},{"type":"Feature","geometry":{"type":"Polygon","coordinates":[[[55.210769,25.16277],[55.210786,25.162608],[55.210888,25.162617],[55.210905,25.162619],[55.210901,25.162655],[55.210944,25.162659],[55.210936,25.162739],[55.210898,25.162735],[55.210894,25.162781],[55.210769,25.16277]]]},"properties":{"name":"\u0645\u0633\u062c\u062f \u0623\u062d\u0645\u062f \u0627\u0644\u0637\u0627\u064a\u0631","religion":"muslim"}},{"type":"Feature","geometry":{"type":"Polygon","coordinates":[[[55.221552,25.162706],[55.221728,25.162595],[55.221818,25.16261],[55.221906,25.162745],[55.221846,25.162855],[55.221715,25.162943],[55.221629,25.162932],[55.221546,25.162777],[55.221552,25.162706]]]},"properties":{"religion":"muslim"}},{"type":"Feature","geometry":{"type":"Polygon","coordinates":[[[55.231855,25.175175],[55.231886,25.175028],[55.231967,25.175042],[55.231981,25.174977],[55.232034,25.174986],[55.232019,25.175056],[55.232062,25.175063],[55.232032,25.175206],[55.231855,25.175175]]]},"properties":{"name":"\u0645\u0633\u062c\u062f \u0639\u0627\u0626\u0634\u0647","religion":"muslim"}},{"type":"Feature","geometry":{"type":"Polygon","coordinates":[[[55.184229,25.124019],[55.184289,25.123814],[55.184531,25.123871],[55.184548,25.123812],[55.184625,25.123831],[55.184607,25.123892],[55.184715,25.123918],[55.184655,25.124121],[55.184229,25.124019]]]},"properties":{"religion":"muslim"}},{"type":"Feature","geometry":{"type":"Polygon","coordinates":[[[55.172999,25.113076],[55.173014,25.113026],[55.172975,25.113018],[55.173035,25.112803],[55.1731,25.112818],[55.17311,25.11278],[55.173225,25.112807],[55.173214,25.112847],[55.17327,25.11286],[55.173294,25.112867],[55.173262,25.112934],[55.173263,25.112934],[55.173315,25.112946],[55.173305,25.11298],[55.173261,25.113137],[55.172999,25.113076]]]},"properties":{"religion":"muslim"}},{"type":"Feature","geometry":{"type":"Polygon","coordinates":[[[55.232726,25.171694],[55.232754,25.171518],[55.232698,25.171511],[55.232711,25.171429],[55.232774,25.171437],[55.232794,25.171307],[55.232843,25.171313],[55.232849,25.171276],[55.23312,25.171311],[55.23311,25.171376],[55.233187,25.171386],[55.233182,25.171423],[55.233247,25.171432],[55.233207,25.171691],[55.233086,25.171675],[55.233081,25.171703],[55.233014,25.171694],[55.233009,25.17173],[55.232726,25.171694]]]},"properties":{"name":"Al Farooq Omar Bin Al Khattab","religion":"muslim"}},{"type":"Feature","geometry":{"type":"Polygon","coordinates":[[[55.23391,25.167421],[55.233918,25.167394],[55.23393,25.167397],[55.233934,25.167386],[55.233922,25.167383],[55.23393,25.167355],[55.233941,25.167357],[55.233943,25.167349],[55.233932,25.167347],[55.233926,25.167339],[55.233923,25.167329],[55.233928,25.16732],[55.233936,25.167315],[55.233945,25.167314],[55.233953,25.167316],[55.233954,25.16731],[55.233943,25.167307],[55.233951,25.167278],[55.23396,25.16728],[55.233961,25.167277],[55.233952,25.167275],[55.233959,25.16725],[55.233967,25.167251],[55.233969,25.167244],[55.233979,25.167246],[55.233981,25.167238],[55.234005,25.167243],[55.234003,25.167252],[55.23402,25.167255],[55.234022,25.167248],[55.234069,25.167258],[55.234086,25.167192],[55.234119,25.167199],[55.234121,25.167189],[55.234139,25.167192],[55.234137,25.167201],[55.234164,25.167207],[55.234167,25.167198],[55.234179,25.167201],[55.234175,25.167214],[55.234199,25.16722],[55.234168,25.167332],[55.234173,25.167346],[55.234173,25.167361],[55.234168,25.167377],[55.234159,25.167391],[55.234152,25.167398],[55.23414,25.167438],[55.234101,25.167429],[55.234101,25.167477],[55.234084,25.167473],[55.234081,25.167483],[55.234061,25.167478],[55.234064,25.167468],[55.234049,25.167465],[55.234046,25.167473],[55.234023,25.167467],[55.234026,25.167459],[55.234009,25.167455],[55.234006,25.167463],[55.233985,25.167458],[55.233988,25.167449],[55.233971,25.167445],[55.233968,25.167455],[55.233944,25.167449],[55.233947,25.167441],[55.233919,25.167434],[55.233922,25.167424],[55.23391,25.167421]]]},"properties":{"religion":"muslim"}},{"type":"Feature","geometry":{"type":"Polygon","coordinates":[[[55.227995,25.175503],[55.228023,25.175382],[55.228241,25.175422],[55.228218,25.175526],[55.228139,25.175581],[55.228076,25.175576],[55.228052,25.175552],[55.228061,25.175515],[55.227995,25.175503]]]},"properties":{"religion":"muslim"}},{"type":"Feature","geometry":{"type":"Polygon","coordinates":[[[55.202574,25.127473],[55.202677,25.127487],[55.202711,25.127282],[55.202608,25.127268],[55.202604,25.127292],[55.202533,25.127282],[55.202508,25.127433],[55.202579,25.127442],[55.202574,25.127473]]]},"properties":{"religion":"muslim"}},{"type":"Feature","geometry":{"type":"Polygon","coordinates":[[[55.250178,25.19962],[55.250216,25.199438],[55.249934,25.19939],[55.249921,25.199452],[55.249905,25.19945],[55.249899,25.199481],[55.24991,25.199483],[55.249891,25.19957],[55.250178,25.19962]]]},"properties":{"religion":"muslim"}},{"type":"Feature","geometry":{"type":"Polygon","coordinates":[[[55.227452,25.16645],[55.227699,25.166486],[55.22773,25.166306],[55.227483,25.166271],[55.227452,25.16645]]]},"properties":{"religion":"muslim"}},{"type":"Feature","geometry":{"type":"Polygon","coordinates":[[[55.270209,25.150914],[55.270253,25.150733],[55.270416,25.150637],[55.270603,25.150675],[55.270756,25.150878],[55.270747,25.150961],[55.270646,25.150951],[55.27052,25.151099],[55.270315,25.151062],[55.270209,25.150914]]]},"properties":{"name":"\u0645\u0633\u062c\u062f \u062e\u062f\u064a\u062c\u0629 \u0627\u0644\u0643\u0628\u0631\u0649","religion":"muslim"}},{"type":"Feature","geometry":{"type":"Polygon","coordinates":[[[55.213963,25.13555],[55.214301,25.135617],[55.214362,25.135358],[55.214216,25.13533],[55.214229,25.135274],[55.21407,25.135243],[55.214057,25.135298],[55.214024,25.135292],[55.213963,25.13555]]]},"properties":{"religion":"muslim"}},{"type":"Feature","geometry":{"type":"Polygon","coordinates":[[[55.258394,25.1374],[55.25825,25.137371],[55.258171,25.137694],[55.258437,25.137748],[55.258459,25.137661],[55.258509,25.137671],[55.258536,25.137561],[55.258454,25.137545],[55.258474,25.137464],[55.258383,25.137446],[55.258394,25.1374]]]},"properties":{"religion":"muslim"}},{"type":"Feature","geometry":{"type":"Polygon","coordinates":[[[55.232172,25.19233],[55.232205,25.192164],[55.232085,25.192144],[55.232051,25.192311],[55.232172,25.19233]]]},"properties":{"religion":"muslim"}},{"type":"Feature","geometry":{"type":"Polygon","coordinates":[[[55.251362,25.18882],[55.251371,25.18872],[55.251313,25.188715],[55.251308,25.188764],[55.251292,25.18877],[55.251304,25.188784],[55.251299,25.188816],[55.251362,25.18882]]]},"properties":{"religion":"muslim"}},{"type":"Feature","geometry":{"type":"Polygon","coordinates":[[[55.193848,25.112806],[55.193885,25.112811],[55.193874,25.112869],[55.193917,25.112876],[55.193912,25.1129],[55.194048,25.112922],[55.19404,25.112959],[55.194088,25.112967],[55.194084,25.112986],[55.194128,25.112993],[55.194132,25.112976],[55.194176,25.112983],[55.194227,25.112722],[55.194138,25.112707],[55.194145,25.11267],[55.194108,25.112664],[55.194113,25.112637],[55.193976,25.112615],[55.193963,25.11268],[55.193914,25.112672],[55.193908,25.1127],[55.19387,25.112694],[55.193848,25.112806]]]},"properties":{"name":"Fatima Abdullah Mohammad Roshid Mosque","religion":"muslim"}},{"type":"Feature","geometry":{"type":"Polygon","coordinates":[[[55.204496,25.118383],[55.204653,25.1184],[55.204673,25.118256],[55.204516,25.118238],[55.204496,25.118383]]]},"properties":{"religion":"muslim"}},{"type":"Feature","geometry":{"type":"Polygon","coordinates":[[[55.249172,25.142465],[55.249534,25.142532],[55.249584,25.14232],[55.24954,25.142308],[55.249565,25.142191],[55.249454,25.142172],[55.249383,25.142225],[55.249283,25.142211],[55.249206,25.142299],[55.249172,25.142465]]]},"properties":{"name":"Al Khail Gate Mosque","religion":"muslim"}},{"type":"Feature","geometry":{"type":"Polygon","coordinates":[[[55.251055,25.129769],[55.251144,25.129709],[55.251377,25.129994],[55.251288,25.130054],[55.251055,25.129769]]]},"properties":{"name":"Al Qouz Mini Mosque","religion":"muslim"}},{"type":"Feature","geometry":{"type":"Polygon","coordinates":[[[55.244545,25.141571],[55.244664,25.141488],[55.244602,25.141414],[55.244482,25.141497],[55.244545,25.141571]]]},"properties":{"name":"Avis Mosque","religion":"muslim"}},{"type":"Feature","geometry":{"type":"Polygon","coordinates":[[[55.271408,25.161048],[55.271395,25.161111],[55.271421,25.161115],[55.271412,25.161163],[55.27138,25.161158],[55.271377,25.161175],[55.271414,25.161181],[55.2714,25.161252],[55.271362,25.161247],[55.271353,25.161294],[55.271213,25.161272],[55.271223,25.161219],[55.271215,25.161217],[55.271227,25.161153],[55.271253,25.161157],[55.271261,25.161114],[55.271309,25.161121],[55.271325,25.161035],[55.271408,25.161048]]]},"properties":{"religion":"muslim"}},{"type":"Feature","geometry":{"type":"Polygon","coordinates":[[[55.236748,25.164257],[55.236559,25.163978],[55.236864,25.163763],[55.236985,25.163919],[55.236969,25.163953],[55.237069,25.163965],[55.237041,25.164119],[55.236938,25.164101],[55.236929,25.164153],[55.236748,25.164257]]]},"properties":{"religion":"muslim"}},{"type":"Feature","geometry":{"type":"Polygon","coordinates":[[[55.22244,25.154672],[55.222875,25.154742],[55.222927,25.154477],[55.222492,25.154408],[55.22244,25.154672]]]},"properties":{"religion":"muslim"}},{"type":"Feature","geometry":{"type":"Polygon","coordinates":[[[55.215252,25.148051],[55.215242,25.148112],[55.215383,25.148131],[55.215433,25.147828],[55.215232,25.1478],[55.215192,25.148042],[55.215252,25.148051]]]},"properties":{"religion":"muslim"}},{"type":"Feature","geometry":{"type":"Polygon","coordinates":[[[55.205714,25.122301],[55.205812,25.122315],[55.20583,25.122214],[55.205733,25.122199],[55.205714,25.122301]]]},"properties":{"religion":"muslim"}},{"type":"Feature","geometry":{"type":"Polygon","coordinates":[[[55.229395,25.159729],[55.229504,25.159741],[55.229497,25.159788],[55.229602,25.1598],[55.229613,25.159718],[55.229659,25.159723],[55.229669,25.159652],[55.229679,25.15958],[55.229419,25.159551],[55.229395,25.159729]]]},"properties":{"name":"Mohammad Khamis Bin Hendi Almheiri Mosque","religion":"muslim"}},{"type":"Feature","geometry":{"type":"Polygon","coordinates":[[[55.225195,25.159109],[55.225309,25.159128],[55.225364,25.159089],[55.225373,25.159043],[55.225401,25.158905],[55.225408,25.15887],[55.225332,25.158857],[55.22532,25.158916],[55.225236,25.158902],[55.225195,25.159109]]]},"properties":{"name":"Jummah Mosque","religion":"muslim"}},{"type":"Feature","geometry":{"type":"Polygon","coordinates":[[[55.252134,25.142965],[55.252156,25.142948],[55.252177,25.142971],[55.252223,25.142935],[55.252235,25.142947],[55.252293,25.1429],[55.252282,25.142889],[55.252332,25.14285],[55.252321,25.142838],[55.252352,25.142814],[55.252047,25.142495],[55.25183,25.142665],[55.251936,25.142777],[55.251966,25.142753],[55.252049,25.14284],[55.252019,25.142864],[55.2521,25.142948],[55.25211,25.14294],[55.252134,25.142965]]]},"properties":{"name":"Al Khail Mosque at Phase 1","religion":"muslim"}},{"type":"Feature","geometry":{"type":"Polygon","coordinates":[[[55.242636,25.197048],[55.242633,25.197109],[55.242703,25.197112],[55.242706,25.197052],[55.242636,25.197048]]]},"properties":{"religion":"muslim"}}]}