{"type":"FeatureCollection","features":[{"type":"Feature","geometry":{"type":"Point","coordinates":[55.239007,25.188395]},"properties":{}},{"type":"Feature","geometry":{"type":"Point","coordinates":[55.241003,25.18916]},"properties":{}},{"type":"Feature","geometry":{"type":"Point","coordinates":[55.256727,25.185957]},"properties":{"name":"Executive Towers parking - West","parking_type":"surface"}},{"type":"Feature","geometry":{"type":"Point","coordinates":[55.174597,25.117095]},"properties":{"parking_type":"surface"}},{"type":"Feature","geometry":{"type":"Point","coordinates":[55.174844,25.117339]},"properties":{"parking_type":"surface"}},{"type":"Feature","geometry":{"type":"Point","coordinates":[55.1741,25.117042]},"properties":{"parking_type":"surface"}},{"type":"Feature","geometry":{"type":"Point","coordinates":[55.195595,25.11579]},"properties":{"parking_type":"underground"}},{"type":"Feature","geometry":{"type":"Point","coordinates":[55.19497,25.115399]},"properties":{"parking_type":"underground"}},{"type":"Feature","geometry":{"type":"Point","coordinates":[55.197859,25.137295]},"properties":{}},{"type":"Feature","geometry":{"type":"Point","coordinates":[55.197779,25.137775]},"properties":{}},{"type":"Feature","geometry":{"type":"Point","coordinates":[55.233306,25.154729]},"properties":{}},{"type":"Feature","geometry":{"type":"Point","coordinates":[55.262371,25.188035]},"properties":{"parking_type":"underground"}},{"type":"Feature","geometry":{"type":"Point","coordinates":[55.187779,25.137176]},"properties":{"parking_type":"underground"}},{"type":"Feature","geometry":{"type":"Point","coordinates":[55.263764,25.189849]},"properties":{}},{"type":"Feature","geometry":{"type":"Point","coordinates":[55.264823,25.191341]},"properties":{}},{"type":"Feature","geometry":{"type":"Point","coordinates":[55.252558,25.198408]},"properties":{}},{"type":"Feature","geometry":{"type":"Point","coordinates":[55.237104,25.191081]},"properties":{}},{"type":"Feature","geometry":{"type":"Point","coordinates":[55.231964,25.175439]},"properties":{}},{"type":"Feature","geometry":{"type":"Point","coordinates":[55.231755,25.175165]},"properties":{}},{"type":"Feature","geometry":{"type":"Point","coordinates":[55.213531,25.152416]},"properties":{}},{"type":"Feature","geometry":{"type":"Point","coordinates":[55.224598,25.143978]},"properties":{}},{"type":"Feature","geometry":{"type":"Point","coordinates":[55.221477,25.140076]},"properties":{}},{"type":"Feature","geometry":{"type":"Point","coordinates":[55.223452,25.142532]},"properties":{}},{"type":"Feature","geometry":{"type":"Point","coordinates":[55.218012,25.135036]},"properties":{}},{"type":"Feature","geometry":{"type":"Point","coordinates":[55.214956,25.131245]},"properties":{}},{"type":"Feature","geometry":{"type":"Point","coordinates":[55.214398,25.130535]},"properties":{}},{"type":"Feature","geometry":{"type":"Point","coordinates":[55.203396,25.11724]},"properties":{"parking_type":"multi-storey"}},{"type":"Feature","geometry":{"type":"Point","coordinates":[55.235455,25.199504]},"properties":{"parking_type":"surface"}},{"type":"Feature","geometry":{"type":"Point","coordinates":[55.243137,25.191647]},"properties":{}},{"type":"Feature","geometry":{"type":"Point","coordinates":[55.203565,25.144957]},"properties":{}},{"type":"Feature","geometry":{"type":"Point","coordinates":[55.229161,25.154379]},"properties":{}},{"type":"Feature","geometry":{"type":"Point","coordinates":[55.244749,25.192908]},"properties":{"parking_type":"street_side"}},{"type":"Feature","geometry":{"type":"Point","coordinates":[55.271183,25.197082]},"properties":{"parking_type":"underground"}},{"type":"Feature","geometry":{"type":"Point","coordinates":[55.192429,25.112583]},"properties":{"name":"Darb Alsalam"}},{"type":"Feature","geometry":{"type":"Point","coordinates":[55.263828,25.187907]},"properties":{"parking_type":"street_side"}},{"type":"Feature","geometry":{"type":"Polygon","coordinates":[[[55.217099,25.166241],[55.217177,25.166241],[55.217292,25.166192],[55.218359,25.165486],[55.21841,25.165379],[55.218376,25.165287],[55.217429,25.164066],[55.217368,25.164048],[55.217277,25.1641],[55.216069,25.164922],[55.217099,25.166241]],[[55.216763,25.164563],[55.21696,25.164434],[55.217583,25.164569],[55.217655,25.164588],[55.217732,25.164723],[55.217593,25.165296],[55.217671,25.165422],[55.217393,25.165609],[55.216709,25.165465],[55.216614,25.165281],[55.216763,25.164563]]]},"properties":{}},{"type":"Feature","geometry":{"type":"Polygon","coordinates":[[[55.227749,25.169303],[55.228815,25.168596],[55.228632,25.16837],[55.227566,25.169077],[55.227749,25.169303]]]},"properties":{"parking_type":"surface"}},{"type":"Feature","geometry":{"type":"Polygon","coordinates":[[[55.209806,25.136412],[55.212564,25.134604],[55.212435,25.134432],[55.209597,25.136168],[55.209806,25.136412]]]},"properties":{}},{"type":"Feature","geometry":{"type":"Polygon","coordinates":[[[55.224288,25.147215],[55.224325,25.1473],[55.224665,25.1474],[55.225132,25.14707],[55.224859,25.146759],[55.224295,25.147104],[55.224288,25.147215]]]},"properties":{"name":"hangry hanger"}},{"type":"Feature","geometry":{"type":"Polygon","coordinates":[[[55.217289,25.137136],[55.217106,25.136929],[55.218226,25.136112],[55.21847,25.136396],[55.217289,25.137136]]]},"properties":{}},{"type":"Feature","geometry":{"type":"Polygon","coordinates":[[[55.228887,25.18138],[55.228609,25.181013],[55.229529,25.180443],[55.229807,25.18081],[55.228887,25.18138]]]},"properties":{}},{"type":"Feature","geometry":{"type":"Polygon","coordinates":[[[55.19967,25.117093],[55.199943,25.117118],[55.200215,25.117142],[55.200223,25.117143],[55.200229,25.117143],[55.200789,25.117194],[55.200772,25.117357],[55.200795,25.117359],[55.20084,25.117363],[55.200838,25.117385],[55.200822,25.117535],[55.200821,25.117544],[55.201065,25.117854],[55.201104,25.117897],[55.201158,25.117925],[55.201349,25.117942],[55.20135,25.117923],[55.201387,25.117926],[55.201388,25.117909],[55.201417,25.117912],[55.201426,25.117913],[55.201434,25.117914],[55.201441,25.117914],[55.201447,25.117915],[55.201503,25.11792],[55.201502,25.117937],[55.20154,25.117941],[55.201538,25.117956],[55.202739,25.118044],[55.202742,25.118028],[55.202788,25.118032],[55.202788,25.118023],[55.202834,25.118028],[55.202838,25.118029],[55.202846,25.118029],[55.202865,25.118031],[55.202875,25.118032],[55.202891,25.118033],[55.20289,25.118041],[55.202925,25.118043],[55.202923,25.118058],[55.203156,25.118072],[55.203165,25.118073],[55.203212,25.118076],[55.203216,25.118073],[55.203252,25.118045],[55.203311,25.118005],[55.203382,25.117359],[55.203386,25.117328],[55.203396,25.11724],[55.203403,25.117182],[55.203043,25.116548],[55.203023,25.116544],[55.202945,25.116537],[55.202667,25.116511],[55.200555,25.116316],[55.200412,25.116304],[55.200317,25.116294],[55.200196,25.116286],[55.199324,25.116221],[55.198327,25.116128],[55.198327,25.116147],[55.198324,25.116224],[55.198322,25.116272],[55.198321,25.11629],[55.198319,25.116349],[55.198317,25.11641],[55.198313,25.116509],[55.198312,25.11654],[55.198161,25.116752],[55.198232,25.116805],[55.198746,25.117186],[55.198933,25.117325],[55.199153,25.117345],[55.199158,25.117345],[55.199163,25.117346],[55.19917,25.117346],[55.199579,25.117383],[55.199587,25.117315],[55.199596,25.117249],[55.199652,25.117255],[55.199653,25.117252],[55.19967,25.117093]]]},"properties":{"parking_type":"multi-storey"}},{"type":"Feature","geometry":{"type":"Polygon","coordinates":[[[55.258559,25.192599],[55.258973,25.192287],[55.258566,25.191834],[55.258989,25.191517],[55.258921,25.191451],[55.258798,25.191414],[55.258702,25.191423],[55.25859,25.19147],[55.258115,25.191853],[55.25808,25.191983],[55.258129,25.192137],[55.258559,25.192599]]]},"properties":{"parking_type":"surface"}},{"type":"Feature","geometry":{"type":"Polygon","coordinates":[[[55.258581,25.192624],[55.259708,25.193827],[55.260111,25.193535],[55.259004,25.192317],[55.258581,25.192624]]]},"properties":{"parking_type":"surface"}},{"type":"Feature","geometry":{"type":"Polygon","coordinates":[[[55.260594,25.193231],[55.260953,25.193616],[55.260479,25.193975],[55.260126,25.193598],[55.260594,25.193231]]]},"properties":{"parking_type":"surface"}},{"type":"Feature","geometry":{"type":"Polygon","coordinates":[[[55.261361,25.194865],[55.260962,25.195154],[55.260159,25.194263],[55.260542,25.193958],[55.261361,25.194865]]]},"properties":{"parking_type":"surface"}},{"type":"Feature","geometry":{"type":"Polygon","coordinates":[[[55.195366,25.125029],[55.195095,25.12706],[55.195277,25.12716],[55.195747,25.126838],[55.195874,25.126401],[55.19609,25.126156],[55.196094,25.125692],[55.19548,25.125006],[55.195366,25.125029]]]},"properties":{}},{"type":"Feature","geometry":{"type":"Polygon","coordinates":[[[55.189475,25.126349],[55.18968,25.124945],[55.190083,25.124993],[55.189878,25.126397],[55.189475,25.126349]]]},"properties":{}},{"type":"Feature","geometry":{"type":"Polygon","coordinates":[[[55.185401,25.130052],[55.18527,25.130153],[55.185585,25.130481],[55.185711,25.130382],[55.185401,25.130052]]]},"properties":{"parking_type":"surface"}},{"type":"Feature","geometry":{"type":"Polygon","coordinates":[[[55.183539,25.129385],[55.183511,25.129408],[55.183563,25.129462],[55.183701,25.12935],[55.183653,25.129297],[55.183539,25.129385]]]},"properties":{"parking_type":"surface"}},{"type":"Feature","geometry":{"type":"Polygon","coordinates":[[[55.186214,25.131163],[55.186591,25.131516],[55.186655,25.13146],[55.186721,25.131402],[55.186344,25.131049],[55.186284,25.131102],[55.186214,25.131163]]]},"properties":{"parking_type":"surface"}},{"type":"Feature","geometry":{"type":"Polygon","coordinates":[[[55.219504,25.140517],[55.219105,25.139945],[55.219034,25.139982],[55.218881,25.139741],[55.218953,25.139704],[55.218905,25.139629],[55.219086,25.139496],[55.219816,25.140412],[55.219634,25.140536],[55.219559,25.140486],[55.219504,25.140517]]]},"properties":{"parking_type":"surface"}},{"type":"Feature","geometry":{"type":"Polygon","coordinates":[[[55.271274,25.200881],[55.271002,25.200414],[55.271034,25.200338],[55.271403,25.200205],[55.272204,25.199916],[55.272419,25.199986],[55.272538,25.200188],[55.27241,25.200246],[55.272311,25.200072],[55.271605,25.200404],[55.27175,25.200657],[55.271274,25.200881]]]},"properties":{"parking_type":"surface"}},{"type":"Feature","geometry":{"type":"Polygon","coordinates":[[[55.190201,25.137788],[55.190014,25.137565],[55.189832,25.137352],[55.189883,25.13732],[55.189866,25.1373],[55.189954,25.137248],[55.189967,25.137263],[55.190004,25.137242],[55.190369,25.137668],[55.190201,25.137788]]]},"properties":{}},{"type":"Feature","geometry":{"type":"Polygon","coordinates":[[[55.189227,25.124342],[55.189313,25.123708],[55.190285,25.123834],[55.190383,25.123899],[55.190315,25.124445],[55.189227,25.124342]]]},"properties":{}},{"type":"Feature","geometry":{"type":"Polygon","coordinates":[[[55.19258,25.121894],[55.192782,25.121741],[55.19274,25.121726],[55.192786,25.121626],[55.192784,25.121585],[55.192487,25.121779],[55.1925,25.121869],[55.19258,25.121894]]]},"properties":{"parking_type":"surface"}},{"type":"Feature","geometry":{"type":"Polygon","coordinates":[[[55.249233,25.142894],[55.249274,25.142865],[55.248881,25.14238],[55.248829,25.142405],[55.249233,25.142894]]]},"properties":{"parking_type":"surface"}},{"type":"Feature","geometry":{"type":"Polygon","coordinates":[[[55.248753,25.142275],[55.248791,25.142248],[55.248312,25.141666],[55.248276,25.141685],[55.248753,25.142275]]]},"properties":{"parking_type":"surface"}},{"type":"Feature","geometry":{"type":"Polygon","coordinates":[[[55.248904,25.142173],[55.248935,25.142208],[55.249374,25.141924],[55.249344,25.141883],[55.248904,25.142173]]]},"properties":{"parking_type":"surface"}},{"type":"Feature","geometry":{"type":"Polygon","coordinates":[[[55.252143,25.142474],[55.252411,25.142294],[55.252658,25.142581],[55.252534,25.142661],[55.252398,25.142748],[55.252143,25.142474]]]},"properties":{"parking_type":"surface"}},{"type":"Feature","geometry":{"type":"Polygon","coordinates":[[[55.245873,25.148226],[55.245986,25.148348],[55.24629,25.148142],[55.246369,25.148044],[55.246413,25.147914],[55.24643,25.147774],[55.246431,25.147696],[55.246425,25.147622],[55.246262,25.147625],[55.246269,25.147719],[55.246258,25.147823],[55.246247,25.1479],[55.246228,25.147988],[55.245873,25.148226]]]},"properties":{}},{"type":"Feature","geometry":{"type":"Polygon","coordinates":[[[55.245247,25.149402],[55.245318,25.149487],[55.245228,25.149548],[55.245251,25.149576],[55.24664,25.148637],[55.246546,25.148523],[55.245247,25.149402]]]},"properties":{"parking_type":"surface"}},{"type":"Feature","geometry":{"type":"Polygon","coordinates":[[[55.238687,25.188131],[55.238337,25.187638],[55.238653,25.187454],[55.239004,25.187947],[55.238687,25.188131]]]},"properties":{"parking_type":"surface"}},{"type":"Feature","geometry":{"type":"Polygon","coordinates":[[[55.237916,25.186982],[55.237932,25.186908],[55.238582,25.186532],[55.238665,25.186547],[55.239005,25.187025],[55.238986,25.187104],[55.238339,25.187481],[55.238258,25.187466],[55.237916,25.186982]]]},"properties":{"parking_type":"surface"}},{"type":"Feature","geometry":{"type":"Polygon","coordinates":[[[55.240583,25.169088],[55.240869,25.168845],[55.241294,25.168526],[55.241484,25.168383],[55.24164,25.168391],[55.241702,25.168467],[55.241719,25.168516],[55.241113,25.16897],[55.240744,25.169245],[55.240651,25.169312],[55.240574,25.169319],[55.240529,25.169237],[55.240537,25.16915],[55.240583,25.169088]]]},"properties":{"parking_type":"surface"}},{"type":"Feature","geometry":{"type":"Polygon","coordinates":[[[55.251762,25.140958],[55.251837,25.140895],[55.252373,25.141069],[55.252421,25.141128],[55.252185,25.141477],[55.251762,25.140958]]]},"properties":{}},{"type":"Feature","geometry":{"type":"Polygon","coordinates":[[[55.255854,25.175564],[55.255863,25.175451],[55.256084,25.175295],[55.256102,25.175387],[55.255854,25.175564]]]},"properties":{"parking_type":"surface"}},{"type":"Feature","geometry":{"type":"Polygon","coordinates":[[[55.250986,25.173612],[55.251365,25.174004],[55.251479,25.173914],[55.251345,25.173775],[55.251311,25.173801],[55.251273,25.173762],[55.25131,25.173733],[55.251264,25.173686],[55.251234,25.173709],[55.251195,25.173669],[55.251225,25.173644],[55.251104,25.173519],[55.250986,25.173612]]]},"properties":{}},{"type":"Feature","geometry":{"type":"Polygon","coordinates":[[[55.20534,25.124234],[55.20504,25.123848],[55.20464,25.123288],[55.20527,25.122854],[55.205626,25.123312],[55.205276,25.123534],[55.205661,25.12403],[55.20534,25.124234]]]},"properties":{"name":"Visitors Parking for RTA and Traffic Police Al Barsha","parking_type":"surface"}},{"type":"Feature","geometry":{"type":"Polygon","coordinates":[[[55.205825,25.152665],[55.206271,25.153173],[55.206414,25.153076],[55.206424,25.153021],[55.206416,25.152977],[55.2061,25.1526],[55.206028,25.152596],[55.20596,25.152545],[55.205866,25.152605],[55.205866,25.15263],[55.205825,25.152665]]]},"properties":{}},{"type":"Feature","geometry":{"type":"Polygon","coordinates":[[[55.209268,25.164499],[55.210091,25.165529],[55.209743,25.165755],[55.209087,25.164928],[55.209119,25.164908],[55.208907,25.164643],[55.208977,25.164597],[55.209114,25.164508],[55.20917,25.164471],[55.20922,25.164438],[55.209268,25.164499]]]},"properties":{}},{"type":"Feature","geometry":{"type":"Polygon","coordinates":[[[55.257544,25.154352],[55.257501,25.153652],[55.257818,25.153636],[55.25786,25.154336],[55.257544,25.154352]]]},"properties":{"parking_type":"surface"}},{"type":"Feature","geometry":{"type":"Polygon","coordinates":[[[55.238678,25.200694],[55.238742,25.200699],[55.238833,25.200471],[55.238989,25.200379],[55.238645,25.199961],[55.238597,25.200214],[55.238464,25.200211],[55.238431,25.200374],[55.23857,25.200539],[55.238678,25.200694]]]},"properties":{}},{"type":"Feature","geometry":{"type":"Polygon","coordinates":[[[55.196637,25.115695],[55.197094,25.115139],[55.197446,25.115377],[55.196989,25.115933],[55.196637,25.115695]]]},"properties":{"parking_type":"surface"}},{"type":"Feature","geometry":{"type":"Polygon","coordinates":[[[55.194128,25.113049],[55.194347,25.112786],[55.194459,25.112765],[55.194656,25.112886],[55.194351,25.113262],[55.19414,25.113104],[55.194128,25.113049]]]},"properties":{"parking_type":"surface"}},{"type":"Feature","geometry":{"type":"Polygon","coordinates":[[[55.19512,25.1127],[55.195586,25.112151],[55.195917,25.112381],[55.195451,25.11293],[55.19512,25.1127]]]},"properties":{"parking_type":"surface"}},{"type":"Feature","geometry":{"type":"Polygon","coordinates":[[[55.193912,25.111491],[55.193774,25.111395],[55.194637,25.110379],[55.194774,25.110475],[55.193912,25.111491]]]},"properties":{}},{"type":"Feature","geometry":{"type":"Polygon","coordinates":[[[55.194299,25.112472],[55.195424,25.111104],[55.19563,25.111255],[55.194486,25.11259],[55.194318,25.112605],[55.194299,25.112472]]]},"properties":{"parking_type":"surface"}},{"type":"Feature","geometry":{"type":"Polygon","coordinates":[[[55.191518,25.113999],[55.192243,25.11317],[55.192392,25.113226],[55.192443,25.113325],[55.192454,25.113641],[55.191911,25.114243],[55.191878,25.114254],[55.191822,25.114273],[55.191693,25.11424],[55.19153,25.114132],[55.191518,25.113999]]]},"properties":{"parking_type":"surface"}},{"type":"Feature","geometry":{"type":"Polygon","coordinates":[[[55.19301,25.115212],[55.193154,25.115323],[55.19334,25.115458],[55.194132,25.114494],[55.194045,25.114451],[55.193922,25.114438],[55.19364,25.114432],[55.193194,25.114982],[55.19301,25.115212]]]},"properties":{"parking_type":"surface"}},{"type":"Feature","geometry":{"type":"Polygon","coordinates":[[[55.193002,25.113447],[55.192987,25.113367],[55.193002,25.113272],[55.193069,25.113143],[55.193486,25.112644],[55.193534,25.112673],[55.193582,25.112702],[55.193195,25.113184],[55.193137,25.113316],[55.193137,25.113433],[55.193002,25.113447]]]},"properties":{"parking_type":"surface"}},{"type":"Feature","geometry":{"type":"Polygon","coordinates":[[[55.208101,25.113217],[55.208252,25.113108],[55.207985,25.112825],[55.207173,25.113471],[55.207287,25.113612],[55.207967,25.113084],[55.208101,25.113217]]]},"properties":{"parking_type":"surface"}},{"type":"Feature","geometry":{"type":"Polygon","coordinates":[[[55.206446,25.114513],[55.206206,25.114251],[55.206732,25.113798],[55.206868,25.113937],[55.206521,25.114218],[55.206446,25.114513]]]},"properties":{"parking_type":"surface"}},{"type":"Feature","geometry":{"type":"Polygon","coordinates":[[[55.208576,25.117028],[55.207481,25.115796],[55.207709,25.11563],[55.208804,25.116862],[55.208576,25.117028]]]},"properties":{"parking_type":"surface"}},{"type":"Feature","geometry":{"type":"Polygon","coordinates":[[[55.271435,25.163582],[55.271397,25.16359],[55.270924,25.164055],[55.271083,25.164182],[55.271594,25.163704],[55.271435,25.163582]]]},"properties":{"parking_type":"surface"}},{"type":"Feature","geometry":{"type":"Polygon","coordinates":[[[55.204883,25.122816],[55.204619,25.122443],[55.20496,25.122212],[55.205237,25.122561],[55.204883,25.122816]]]},"properties":{"parking_type":"surface"}},{"type":"Feature","geometry":{"type":"Polygon","coordinates":[[[55.196212,25.126825],[55.196094,25.126707],[55.196661,25.126307],[55.196767,25.126434],[55.196212,25.126825]]]},"properties":{}},{"type":"Feature","geometry":{"type":"Polygon","coordinates":[[[55.197044,25.126251],[55.196923,25.126119],[55.19742,25.125774],[55.197534,25.125911],[55.197044,25.126251]]]},"properties":{}},{"type":"Feature","geometry":{"type":"Polygon","coordinates":[[[55.204699,25.121746],[55.204997,25.122096],[55.205363,25.121853],[55.205054,25.121481],[55.204699,25.121746]]]},"properties":{"parking_type":"surface"}},{"type":"Feature","geometry":{"type":"Polygon","coordinates":[[[55.193525,25.112239],[55.193495,25.112275],[55.192941,25.111896],[55.192971,25.111859],[55.193525,25.112239]]]},"properties":{"parking_type":"lane"}},{"type":"Feature","geometry":{"type":"Polygon","coordinates":[[[55.271172,25.18744],[55.27142,25.187288],[55.271158,25.186938],[55.27091,25.18709],[55.271172,25.18744]]]},"properties":{"parking_type":"surface"}},{"type":"Feature","geometry":{"type":"Polygon","coordinates":[[[55.223197,25.146218],[55.223197,25.146414],[55.223406,25.14657],[55.223808,25.146305],[55.223516,25.145973],[55.223218,25.146181],[55.223197,25.146218]]]},"properties":{"parking_type":"surface"}},{"type":"Feature","geometry":{"type":"Polygon","coordinates":[[[55.238924,25.17973],[55.238762,25.179495],[55.239231,25.17923],[55.239394,25.179464],[55.238924,25.17973]]]},"properties":{"parking_type":"surface"}},{"type":"Feature","geometry":{"type":"Polygon","coordinates":[[[55.229566,25.156736],[55.229765,25.15699],[55.230369,25.156602],[55.230176,25.156327],[55.229566,25.156736]]]},"properties":{"parking_type":"surface"}},{"type":"Feature","geometry":{"type":"Polygon","coordinates":[[[55.222755,25.14494],[55.222996,25.14479],[55.223273,25.145155],[55.223031,25.145305],[55.222755,25.14494]]]},"properties":{"parking_type":"surface"}},{"type":"Feature","geometry":{"type":"Polygon","coordinates":[[[55.265247,25.191993],[55.265166,25.191921],[55.265297,25.1919],[55.26555,25.191849],[55.265659,25.191835],[55.265724,25.191838],[55.265775,25.191864],[55.265814,25.191914],[55.265882,25.192184],[55.26589,25.192607],[55.265523,25.192323],[55.265365,25.192133],[55.265247,25.191993]]]},"properties":{"name":"Executive Towers parking - East","parking_type":"surface"}},{"type":"Feature","geometry":{"type":"Polygon","coordinates":[[[55.227496,25.157117],[55.22809,25.158019],[55.228439,25.157831],[55.227845,25.156928],[55.227496,25.157117]]]},"properties":{"parking_type":"surface"}},{"type":"Feature","geometry":{"type":"Polygon","coordinates":[[[55.262382,25.199623],[55.262752,25.199348],[55.263021,25.199697],[55.262618,25.199921],[55.262382,25.199623]]]},"properties":{"parking_type":"surface"}},{"type":"Feature","geometry":{"type":"Polygon","coordinates":[[[55.265696,25.199972],[55.264581,25.198611],[55.264326,25.198783],[55.26544,25.200143],[55.265696,25.199972]]]},"properties":{}},{"type":"Feature","geometry":{"type":"Polygon","coordinates":[[[55.263834,25.1995],[55.263914,25.19945],[55.263835,25.199345],[55.264171,25.199137],[55.264139,25.199095],[55.263724,25.199354],[55.263834,25.1995]]]},"properties":{}},{"type":"Feature","geometry":{"type":"Polygon","coordinates":[[[55.250127,25.1488],[55.250583,25.149055],[55.250881,25.14845],[55.250502,25.148237],[55.250127,25.1488]]]},"properties":{"name":"zaabeel office staff car parking"}},{"type":"Feature","geometry":{"type":"Polygon","coordinates":[[[55.264372,25.191047],[55.263524,25.190141],[55.263539,25.190058],[55.263577,25.190005],[55.263732,25.190014],[55.264252,25.190166],[55.264709,25.190348],[55.264643,25.190688],[55.264527,25.19097],[55.264446,25.191026],[55.264372,25.191047]]]},"properties":{"parking_type":"surface"}},{"type":"Feature","geometry":{"type":"Polygon","coordinates":[[[55.266746,25.193451],[55.266699,25.193462],[55.266644,25.193457],[55.266528,25.193356],[55.266518,25.193306],[55.266524,25.193264],[55.26766,25.192411],[55.267816,25.192519],[55.26773,25.192805],[55.266746,25.193451]]]},"properties":{"parking_type":"surface"}},{"type":"Feature","geometry":{"type":"Polygon","coordinates":[[[55.194558,25.13536],[55.195232,25.134909],[55.195064,25.134704],[55.194391,25.135154],[55.194558,25.13536]]]},"properties":{}},{"type":"Feature","geometry":{"type":"Polygon","coordinates":[[[55.221776,25.1232],[55.221666,25.123064],[55.223571,25.121808],[55.22368,25.121944],[55.221776,25.1232]]]},"properties":{}},{"type":"Feature","geometry":{"type":"Polygon","coordinates":[[[55.216512,25.134676],[55.216216,25.134243],[55.2166,25.134027],[55.216897,25.134461],[55.216512,25.134676]]]},"properties":{}},{"type":"Feature","geometry":{"type":"Polygon","coordinates":[[[55.206629,25.137414],[55.207092,25.138016],[55.208084,25.137391],[55.207613,25.136779],[55.207515,25.136841],[55.207915,25.137324],[55.207136,25.137814],[55.206769,25.137326],[55.206629,25.137414]]]},"properties":{}},{"type":"Feature","geometry":{"type":"Polygon","coordinates":[[[55.233091,25.129247],[55.232391,25.129147],[55.232311,25.12903],[55.23288,25.128652],[55.232465,25.128132],[55.232709,25.127957],[55.233193,25.12856],[55.232999,25.128681],[55.233325,25.129105],[55.233091,25.129247]]]},"properties":{"parking_type":"surface"}},{"type":"Feature","geometry":{"type":"Polygon","coordinates":[[[55.234783,25.125745],[55.235245,25.126322],[55.235316,25.126274],[55.23486,25.1257],[55.234783,25.125745]]]},"properties":{"parking_type":"surface"}},{"type":"Feature","geometry":{"type":"Polygon","coordinates":[[[55.236372,25.127108],[55.237743,25.126199],[55.237808,25.126273],[55.236435,25.127174],[55.236372,25.127108]]]},"properties":{"parking_type":"surface"}},{"type":"Feature","geometry":{"type":"Polygon","coordinates":[[[55.250207,25.136298],[55.250329,25.136218],[55.251005,25.137055],[55.250884,25.137136],[55.250207,25.136298]]]},"properties":{"parking_type":"surface"}},{"type":"Feature","geometry":{"type":"Polygon","coordinates":[[[55.233975,25.162447],[55.233936,25.162475],[55.234491,25.163069],[55.234661,25.163213],[55.234677,25.163193],[55.233975,25.162447]]]},"properties":{"parking_type":"surface"}},{"type":"Feature","geometry":{"type":"Polygon","coordinates":[[[55.234626,25.162962],[55.234661,25.162942],[55.235041,25.163259],[55.235249,25.163511],[55.235177,25.163543],[55.234967,25.163285],[55.234626,25.162962]]]},"properties":{"parking_type":"surface"}},{"type":"Feature","geometry":{"type":"Polygon","coordinates":[[[55.218506,25.119673],[55.219456,25.120849],[55.219563,25.120779],[55.218613,25.119603],[55.218506,25.119673]]]},"properties":{"parking_type":"surface"}},{"type":"Feature","geometry":{"type":"Polygon","coordinates":[[[55.210794,25.122866],[55.210857,25.122948],[55.211677,25.12243],[55.211626,25.122363],[55.211585,25.122366],[55.210794,25.122866]]]},"properties":{"parking_type":"surface"}},{"type":"Feature","geometry":{"type":"Polygon","coordinates":[[[55.212108,25.121651],[55.212097,25.121553],[55.212088,25.121447],[55.212093,25.121275],[55.212117,25.121009],[55.212131,25.120849],[55.212148,25.1207],[55.212168,25.120549],[55.212186,25.120437],[55.21226,25.120447],[55.21222,25.120713],[55.212201,25.120865],[55.212186,25.121027],[55.21216,25.121279],[55.212153,25.121453],[55.212163,25.121574],[55.212171,25.121645],[55.212108,25.121651]]]},"properties":{"parking_type":"surface"}},{"type":"Feature","geometry":{"type":"Polygon","coordinates":[[[55.237899,25.175889],[55.238777,25.175382],[55.238884,25.175533],[55.238284,25.17588],[55.238245,25.175825],[55.237967,25.175985],[55.237899,25.175889]]]},"properties":{"parking_type":"surface"}},{"type":"Feature","geometry":{"type":"Polygon","coordinates":[[[55.237966,25.175791],[55.237932,25.175745],[55.238676,25.175305],[55.238709,25.175352],[55.237966,25.175791]]]},"properties":{"parking_type":"surface"}},{"type":"Feature","geometry":{"type":"Polygon","coordinates":[[[55.233479,25.173005],[55.233528,25.172977],[55.23294,25.172141],[55.232892,25.172169],[55.233479,25.173005]]]},"properties":{"parking_type":"surface"}},{"type":"Feature","geometry":{"type":"Polygon","coordinates":[[[55.252148,25.198795],[55.252029,25.198615],[55.252316,25.198458],[55.252436,25.198639],[55.252148,25.198795]]]},"properties":{"parking_type":"surface"}},{"type":"Feature","geometry":{"type":"Polygon","coordinates":[[[55.250225,25.200101],[55.250031,25.199818],[55.250582,25.199509],[55.250776,25.199793],[55.250225,25.200101]]]},"properties":{"parking_type":"surface"}},{"type":"Feature","geometry":{"type":"Polygon","coordinates":[[[55.260236,25.197716],[55.260465,25.197548],[55.260578,25.197676],[55.260647,25.197625],[55.260811,25.197809],[55.260546,25.198002],[55.260507,25.197958],[55.260474,25.197982],[55.260236,25.197716]]]},"properties":{"parking_type":"surface"}},{"type":"Feature","geometry":{"type":"Polygon","coordinates":[[[55.251678,25.198991],[55.251614,25.198899],[55.251821,25.19878],[55.251886,25.198872],[55.251678,25.198991]]]},"properties":{"parking_type":"surface"}},{"type":"Feature","geometry":{"type":"Polygon","coordinates":[[[55.251302,25.191595],[55.251233,25.191482],[55.252142,25.190927],[55.252235,25.191053],[55.251302,25.191595]]]},"properties":{"parking_type":"surface"}},{"type":"Feature","geometry":{"type":"Polygon","coordinates":[[[55.250685,25.191853],[55.250663,25.191822],[55.250641,25.191834],[55.2506,25.191776],[55.250627,25.19176],[55.250607,25.191732],[55.250952,25.191535],[55.251035,25.191653],[55.250685,25.191853]]]},"properties":{"parking_type":"surface"}},{"type":"Feature","geometry":{"type":"Polygon","coordinates":[[[55.249491,25.199881],[55.249427,25.199883],[55.248955,25.199192],[55.249014,25.199191],[55.249013,25.199133],[55.249179,25.199046],[55.249198,25.199077],[55.249258,25.199077],[55.249421,25.19929],[55.249353,25.199282],[55.249498,25.199503],[55.249561,25.19951],[55.249737,25.199755],[55.249669,25.199753],[55.249667,25.199779],[55.249688,25.199809],[55.249536,25.199896],[55.249491,25.199881]]]},"properties":{"name":"Box Park Meraas","parking_type":"surface"}},{"type":"Feature","geometry":{"type":"Polygon","coordinates":[[[55.254979,25.193703],[55.255011,25.193731],[55.255358,25.193534],[55.255335,25.1935],[55.255379,25.193476],[55.255247,25.193285],[55.255198,25.193313],[55.255165,25.193265],[55.253053,25.194461],[55.253258,25.194757],[55.253594,25.194567],[55.25356,25.194516],[55.253735,25.194417],[55.253774,25.194452],[55.254869,25.193838],[55.254832,25.193785],[55.254979,25.193703]]]},"properties":{"parking_type":"surface"}},{"type":"Feature","geometry":{"type":"Polygon","coordinates":[[[55.252761,25.194235],[55.252829,25.194244],[55.253,25.194507],[55.252968,25.194524],[55.252986,25.194638],[55.252942,25.194675],[55.252912,25.194645],[55.252889,25.194698],[55.252855,25.194732],[55.252805,25.194727],[55.252558,25.194401],[55.252608,25.194397],[55.252582,25.194333],[55.252627,25.194295],[55.252677,25.194304],[55.25269,25.194247],[55.252761,25.194235]]]},"properties":{"parking_type":"surface"}},{"type":"Feature","geometry":{"type":"Polygon","coordinates":[[[55.223351,25.183259],[55.223562,25.183126],[55.224271,25.184047],[55.22433,25.18401],[55.225539,25.185578],[55.225489,25.18561],[55.225524,25.185655],[55.225299,25.185797],[55.225266,25.185754],[55.225222,25.185782],[55.223744,25.183865],[55.223788,25.183837],[55.22365,25.183659],[55.223614,25.183681],[55.223341,25.183326],[55.223382,25.1833],[55.223357,25.183268],[55.223351,25.183259]]]},"properties":{"parking_type":"surface"}},{"type":"Feature","geometry":{"type":"Polygon","coordinates":[[[55.204255,25.131128],[55.203759,25.130487],[55.203423,25.1307],[55.203503,25.130803],[55.203604,25.130741],[55.204016,25.131276],[55.204255,25.131128]]]},"properties":{}},{"type":"Feature","geometry":{"type":"Polygon","coordinates":[[[55.204832,25.131318],[55.20463,25.131451],[55.203788,25.130451],[55.204031,25.130295],[55.204832,25.131318]]]},"properties":{}},{"type":"Feature","geometry":{"type":"Polygon","coordinates":[[[55.197863,25.12954],[55.198215,25.12931],[55.197994,25.129033],[55.197642,25.129263],[55.197863,25.12954]]]},"properties":{}},{"type":"Feature","geometry":{"type":"Polygon","coordinates":[[[55.198986,25.152446],[55.199246,25.152766],[55.199527,25.15312],[55.199955,25.152839],[55.199709,25.152533],[55.19947,25.152691],[55.199174,25.152322],[55.198986,25.152446]]]},"properties":{"parking_type":"surface"}},{"type":"Feature","geometry":{"type":"Polygon","coordinates":[[[55.24267,25.182988],[55.243016,25.183433],[55.243353,25.183202],[55.24337,25.183122],[55.243075,25.182765],[55.243005,25.182748],[55.24267,25.182988]]]},"properties":{"parking_type":"surface"}},{"type":"Feature","geometry":{"type":"Polygon","coordinates":[[[55.267689,25.197944],[55.268017,25.197733],[55.267851,25.197524],[55.267524,25.197735],[55.267689,25.197944]]]},"properties":{"parking_type":"multi-storey"}},{"type":"Feature","geometry":{"type":"Polygon","coordinates":[[[55.25439,25.162493],[55.254859,25.162135],[55.254777,25.162047],[55.254552,25.162027],[55.254203,25.162293],[55.25439,25.162493]]]},"properties":{}},{"type":"Feature","geometry":{"type":"Polygon","coordinates":[[[55.231756,25.19259],[55.231627,25.192412],[55.231932,25.19223],[55.232062,25.192408],[55.231756,25.19259]]]},"properties":{}},{"type":"Feature","geometry":{"type":"Polygon","coordinates":[[[55.23189,25.192776],[55.232423,25.192448],[55.232306,25.192286],[55.231774,25.192599],[55.23189,25.192776]]]},"properties":{}},{"type":"Feature","geometry":{"type":"Polygon","coordinates":[[[55.263005,25.168807],[55.262956,25.168842],[55.263588,25.169479],[55.263961,25.169532],[55.265003,25.168742],[55.264947,25.168687],[55.264798,25.168803],[55.264727,25.168859],[55.264569,25.168981],[55.263935,25.169474],[55.26359,25.169435],[55.263005,25.168807]]]},"properties":{}},{"type":"Feature","geometry":{"type":"Polygon","coordinates":[[[55.265039,25.168782],[55.263977,25.169592],[55.263617,25.16956],[55.263608,25.169621],[55.264007,25.169653],[55.265091,25.16884],[55.265039,25.168782]]]},"properties":{}},{"type":"Feature","geometry":{"type":"Polygon","coordinates":[[[55.235259,25.176991],[55.235155,25.176837],[55.235378,25.176698],[55.235561,25.176641],[55.235661,25.176752],[55.235259,25.176991]]]},"properties":{"parking_type":"surface"}},{"type":"Feature","geometry":{"type":"Polygon","coordinates":[[[55.237388,25.163209],[55.23728,25.163073],[55.238482,25.162287],[55.23859,25.162422],[55.237388,25.163209]]]},"properties":{}},{"type":"Feature","geometry":{"type":"Polygon","coordinates":[[[55.240566,25.161697],[55.241164,25.161954],[55.241223,25.161842],[55.240625,25.161586],[55.240566,25.161697]]]},"properties":{}},{"type":"Feature","geometry":{"type":"Polygon","coordinates":[[[55.23051,25.158186],[55.230842,25.158279],[55.230865,25.158211],[55.230533,25.158118],[55.23051,25.158186]]]},"properties":{}},{"type":"Feature","geometry":{"type":"Polygon","coordinates":[[[55.249139,25.110669],[55.249879,25.110928],[55.249659,25.111445],[55.248918,25.111186],[55.249139,25.110669]]]},"properties":{"parking_type":"surface"}},{"type":"Feature","geometry":{"type":"Polygon","coordinates":[[[55.268092,25.190253],[55.26799,25.190633],[55.267378,25.191102],[55.266726,25.190433],[55.265785,25.189399],[55.265962,25.189246],[55.267156,25.189731],[55.267805,25.190006],[55.268017,25.190122],[55.268092,25.190253]]]},"properties":{"parking_type":"surface"}},{"type":"Feature","geometry":{"type":"Polygon","coordinates":[[[55.252981,25.141588],[55.253215,25.141684],[55.253275,25.141564],[55.25304,25.141469],[55.252981,25.141588]]]},"properties":{}},{"type":"Feature","geometry":{"type":"Polygon","coordinates":[[[55.250514,25.141788],[55.250465,25.141786],[55.250421,25.141754],[55.25016,25.1414],[55.250722,25.141015],[55.251036,25.140815],[55.251162,25.141016],[55.250983,25.141148],[55.250892,25.14122],[55.251065,25.141427],[55.250514,25.141788]]]},"properties":{}},{"type":"Feature","geometry":{"type":"Polygon","coordinates":[[[55.253694,25.13815],[55.253619,25.138123],[55.25346,25.138208],[55.252983,25.138613],[55.251167,25.139785],[55.25121,25.139855],[55.252386,25.139068],[55.252576,25.138974],[55.252728,25.138926],[55.253102,25.138619],[55.253694,25.13815]]]},"properties":{}},{"type":"Feature","geometry":{"type":"Polygon","coordinates":[[[55.252115,25.141728],[55.252119,25.141806],[55.251722,25.142117],[55.251659,25.142045],[55.252115,25.141728]]]},"properties":{}},{"type":"Feature","geometry":{"type":"Polygon","coordinates":[[[55.251588,25.142095],[55.251656,25.14218],[55.251279,25.142454],[55.251217,25.142361],[55.251588,25.142095]]]},"properties":{}},{"type":"Feature","geometry":{"type":"Polygon","coordinates":[[[55.251144,25.142147],[55.251865,25.141669],[55.251625,25.141363],[55.250896,25.141849],[55.251144,25.142147]]]},"properties":{}},{"type":"Feature","geometry":{"type":"Polygon","coordinates":[[[55.252603,25.13898],[55.252881,25.138854],[55.253156,25.139154],[55.253979,25.138602],[55.254093,25.138647],[55.25417,25.13873],[55.254104,25.1388],[55.253784,25.13907],[55.253619,25.139252],[55.25347,25.139485],[55.253079,25.140246],[55.252986,25.140232],[55.253049,25.140072],[55.253364,25.139476],[55.252895,25.139293],[55.252603,25.13898]]]},"properties":{}},{"type":"Feature","geometry":{"type":"Polygon","coordinates":[[[55.253312,25.185167],[55.2534,25.185162],[55.25402,25.184719],[55.253186,25.18384],[55.252518,25.184313],[55.253197,25.185096],[55.253312,25.185167]]]},"properties":{}},{"type":"Feature","geometry":{"type":"Polygon","coordinates":[[[55.226857,25.151589],[55.227758,25.151026],[55.227586,25.1508],[55.226684,25.151363],[55.226857,25.151589]]]},"properties":{"parking_type":"surface"}},{"type":"Feature","geometry":{"type":"Polygon","coordinates":[[[55.194889,25.117161],[55.195166,25.116828],[55.194933,25.116668],[55.194705,25.116951],[55.194706,25.117037],[55.194889,25.117161]]]},"properties":{"parking_type":"surface"}},{"type":"Feature","geometry":{"type":"Polygon","coordinates":[[[55.194937,25.116639],[55.195369,25.116937],[55.195642,25.116613],[55.19521,25.116314],[55.194937,25.116639]]]},"properties":{"parking_type":"surface"}},{"type":"Feature","geometry":{"type":"Polygon","coordinates":[[[55.203473,25.115911],[55.203233,25.115482],[55.203461,25.115371],[55.203735,25.115787],[55.203473,25.115911]]]},"properties":{}},{"type":"Feature","geometry":{"type":"Polygon","coordinates":[[[55.206806,25.117141],[55.207871,25.116423],[55.207171,25.115573],[55.207085,25.115607],[55.207063,25.115869],[55.20702,25.116095],[55.206967,25.116219],[55.206841,25.116435],[55.206715,25.1166],[55.20653,25.116758],[55.206806,25.117141]]]},"properties":{}},{"type":"Feature","geometry":{"type":"Polygon","coordinates":[[[55.239608,25.160985],[55.239813,25.160851],[55.239413,25.160349],[55.239207,25.160482],[55.239608,25.160985]]]},"properties":{"name":"358A","parking_type":"surface"}},{"type":"Feature","geometry":{"type":"Polygon","coordinates":[[[55.236305,25.164591],[55.236609,25.164373],[55.236391,25.164151],[55.236397,25.164044],[55.236819,25.163725],[55.236953,25.163729],[55.237228,25.163993],[55.237361,25.163887],[55.237171,25.16365],[55.236808,25.163615],[55.236301,25.163988],[55.23623,25.164498],[55.236305,25.164591]]]},"properties":{}},{"type":"Feature","geometry":{"type":"Polygon","coordinates":[[[55.201451,25.152803],[55.201618,25.152987],[55.201561,25.15303],[55.201393,25.152846],[55.201451,25.152803]]]},"properties":{}},{"type":"Feature","geometry":{"type":"Polygon","coordinates":[[[55.255834,25.145487],[55.255877,25.145394],[55.256034,25.145424],[55.256008,25.145509],[55.255834,25.145487]]]},"properties":{}},{"type":"Feature","geometry":{"type":"Polygon","coordinates":[[[55.255095,25.145215],[55.255132,25.145141],[55.255467,25.144468],[55.25552,25.14449],[55.255621,25.144474],[55.255627,25.144404],[55.256124,25.144487],[55.256106,25.144556],[55.255922,25.144523],[55.255861,25.144766],[55.25543,25.14469],[55.255273,25.14502],[55.255401,25.14507],[55.255571,25.145101],[55.255716,25.145136],[55.255658,25.145298],[55.255861,25.145359],[55.255792,25.145492],[55.255095,25.145215]]]},"properties":{}},{"type":"Feature","geometry":{"type":"Polygon","coordinates":[[[55.231388,25.158671],[55.231956,25.159365],[55.231601,25.159607],[55.231173,25.159128],[55.231156,25.15882],[55.231388,25.158671]]]},"properties":{"parking_type":"surface"}},{"type":"Feature","geometry":{"type":"Polygon","coordinates":[[[55.208473,25.123065],[55.20842,25.123097],[55.208057,25.122648],[55.208126,25.122646],[55.208473,25.123065]]]},"properties":{}},{"type":"Feature","geometry":{"type":"Polygon","coordinates":[[[55.20867,25.123321],[55.208887,25.123585],[55.208853,25.123614],[55.208636,25.123346],[55.20867,25.123321]]]},"properties":{}},{"type":"Feature","geometry":{"type":"Polygon","coordinates":[[[55.207341,25.122447],[55.208045,25.123325],[55.20809,25.123287],[55.207408,25.122414],[55.207341,25.122447]]]},"properties":{}},{"type":"Feature","geometry":{"type":"Polygon","coordinates":[[[55.20777,25.122219],[55.207729,25.122247],[55.207598,25.12208],[55.207643,25.122063],[55.20777,25.122219]]]},"properties":{}},{"type":"Feature","geometry":{"type":"Polygon","coordinates":[[[55.208452,25.123754],[55.208404,25.123788],[55.208226,25.123567],[55.208277,25.123535],[55.208452,25.123754]]]},"properties":{}},{"type":"Feature","geometry":{"type":"Polygon","coordinates":[[[55.20993,25.125645],[55.209872,25.125652],[55.208999,25.124562],[55.209054,25.124556],[55.20993,25.125645]]]},"properties":{}},{"type":"Feature","geometry":{"type":"Polygon","coordinates":[[[55.206055,25.120966],[55.205796,25.120936],[55.205812,25.120816],[55.206079,25.120843],[55.206055,25.120966]]]},"properties":{}},{"type":"Feature","geometry":{"type":"Polygon","coordinates":[[[55.206866,25.121907],[55.206584,25.121561],[55.206647,25.12156],[55.206924,25.121903],[55.206866,25.121907]]]},"properties":{}},{"type":"Feature","geometry":{"type":"Polygon","coordinates":[[[55.198772,25.12575],[55.198751,25.125705],[55.198161,25.126108],[55.198165,25.126158],[55.198772,25.12575]]]},"properties":{}},{"type":"Feature","geometry":{"type":"Polygon","coordinates":[[[55.198931,25.125654],[55.199929,25.124948],[55.199913,25.124904],[55.198911,25.125595],[55.198931,25.125654]]]},"properties":{}},{"type":"Feature","geometry":{"type":"Polygon","coordinates":[[[55.21054,25.166186],[55.21143,25.167293],[55.211507,25.167253],[55.212177,25.168215],[55.211894,25.168322],[55.210285,25.16637],[55.21054,25.166186]]]},"properties":{}},{"type":"Feature","geometry":{"type":"Polygon","coordinates":[[[55.191705,25.142407],[55.192063,25.142356],[55.192004,25.142046],[55.191923,25.141776],[55.191851,25.141641],[55.191775,25.141668],[55.191693,25.141699],[55.191663,25.141631],[55.191556,25.141668],[55.191479,25.141693],[55.19157,25.14192],[55.19161,25.142022],[55.191674,25.142226],[55.191686,25.142297],[55.191705,25.142407]]]},"properties":{"name":"Mouratoglou Tennis Centre","parking_type":"multi-storey"}},{"type":"Feature","geometry":{"type":"Polygon","coordinates":[[[55.191221,25.141787],[55.191361,25.141735],[55.191531,25.142059],[55.191603,25.142426],[55.191403,25.142452],[55.191344,25.142105],[55.191221,25.141787]]]},"properties":{"parking_type":"multi-storey"}},{"type":"Feature","geometry":{"type":"Polygon","coordinates":[[[55.258388,25.186633],[55.258932,25.186253],[55.25931,25.186696],[55.258765,25.187076],[55.258388,25.186633]]]},"properties":{"parking_type":"surface"}},{"type":"Feature","geometry":{"type":"Polygon","coordinates":[[[55.221987,25.162826],[55.22212,25.163011],[55.221889,25.163168],[55.221784,25.163028],[55.221618,25.163135],[55.221585,25.163091],[55.221987,25.162826]]]},"properties":{}},{"type":"Feature","geometry":{"type":"Polygon","coordinates":[[[55.197051,25.131252],[55.197199,25.131156],[55.196953,25.130842],[55.196805,25.130938],[55.197051,25.131252]]]},"properties":{}},{"type":"Feature","geometry":{"type":"Polygon","coordinates":[[[55.179718,25.112829],[55.179854,25.112963],[55.180502,25.112441],[55.180366,25.112293],[55.180313,25.112333],[55.180259,25.112384],[55.179718,25.112829]]]},"properties":{"parking_type":"street_side"}},{"type":"Feature","geometry":{"type":"Polygon","coordinates":[[[55.184225,25.113993],[55.183586,25.11354],[55.18365,25.113482],[55.183692,25.113442],[55.183747,25.11339],[55.183781,25.113373],[55.183821,25.113365],[55.183852,25.113361],[55.183897,25.113365],[55.18397,25.113401],[55.184024,25.113437],[55.184209,25.113561],[55.184264,25.113611],[55.1843,25.113671],[55.184311,25.113738],[55.184277,25.113887],[55.184225,25.113993]]]},"properties":{}},{"type":"Feature","geometry":{"type":"Polygon","coordinates":[[[55.249662,25.188191],[55.249414,25.187849],[55.249878,25.187574],[55.250141,25.187936],[55.249662,25.188191]]]},"properties":{"parking_type":"surface"}},{"type":"Feature","geometry":{"type":"Polygon","coordinates":[[[55.252555,25.190878],[55.252509,25.19091],[55.252458,25.190865],[55.252389,25.190896],[55.252326,25.190823],[55.252383,25.190783],[55.252351,25.190733],[55.253511,25.189931],[55.253566,25.189983],[55.253621,25.189943],[55.253669,25.189991],[55.253614,25.19003],[55.253637,25.190081],[55.253573,25.190129],[55.253538,25.190097],[55.253507,25.190116],[55.2535,25.190172],[55.253509,25.190182],[55.253417,25.190258],[55.253412,25.190295],[55.253192,25.190444],[55.253175,25.190425],[55.253113,25.190473],[55.253138,25.190508],[55.252708,25.190803],[55.252672,25.190773],[55.252646,25.190796],[55.252577,25.190819],[55.252531,25.190838],[55.252555,25.190878]]]},"properties":{"parking_type":"surface"}},{"type":"Feature","geometry":{"type":"Polygon","coordinates":[[[55.221738,25.156591],[55.22189,25.156497],[55.221685,25.156224],[55.22163,25.156258],[55.221498,25.156081],[55.221488,25.15605],[55.221421,25.155956],[55.221372,25.155927],[55.221348,25.155894],[55.22139,25.155868],[55.221317,25.155604],[55.221131,25.155355],[55.220858,25.155467],[55.220948,25.155586],[55.221002,25.155553],[55.221127,25.15572],[55.221094,25.155741],[55.221491,25.156269],[55.221542,25.156237],[55.221612,25.15633],[55.221564,25.15636],[55.221738,25.156591]]]},"properties":{"parking_type":"surface"}},{"type":"Feature","geometry":{"type":"Polygon","coordinates":[[[55.23379,25.177795],[55.233679,25.177858],[55.233355,25.17739],[55.233467,25.177326],[55.23379,25.177795]]]},"properties":{"parking_type":"surface"}},{"type":"Feature","geometry":{"type":"Polygon","coordinates":[[[55.220576,25.178354],[55.220927,25.178808],[55.220503,25.179105],[55.219989,25.178403],[55.220159,25.178285],[55.220335,25.178507],[55.220576,25.178354]]]},"properties":{}},{"type":"Feature","geometry":{"type":"Polygon","coordinates":[[[55.231092,25.192962],[55.230595,25.192653],[55.230343,25.192326],[55.230351,25.192166],[55.230502,25.192063],[55.231173,25.192919],[55.231092,25.192962]]]},"properties":{}},{"type":"Feature","geometry":{"type":"Polygon","coordinates":[[[55.209796,25.165654],[55.209018,25.164717],[55.209218,25.164578],[55.209529,25.164922],[55.209497,25.164945],[55.209783,25.165296],[55.209705,25.165346],[55.209895,25.165586],[55.209796,25.165654]]]},"properties":{}},{"type":"Feature","geometry":{"type":"Polygon","coordinates":[[[55.258811,25.187073],[55.25906,25.18736],[55.259128,25.187433],[55.259705,25.18701],[55.259397,25.186657],[55.258811,25.187073]]]},"properties":{"parking_type":"surface"}},{"type":"Feature","geometry":{"type":"Polygon","coordinates":[[[55.234397,25.197634],[55.234412,25.197574],[55.234434,25.19753],[55.234522,25.197356],[55.234559,25.197309],[55.234504,25.197297],[55.234395,25.197516],[55.234374,25.19757],[55.234359,25.197631],[55.234397,25.197634]]]},"properties":{"parking_type":"surface"}},{"type":"Feature","geometry":{"type":"Polygon","coordinates":[[[55.237906,25.197917],[55.237693,25.197639],[55.23816,25.197343],[55.238284,25.197509],[55.23804,25.19767],[55.23813,25.197784],[55.237906,25.197917]]]},"properties":{}},{"type":"Feature","geometry":{"type":"Polygon","coordinates":[[[55.214977,25.146675],[55.217023,25.145348],[55.216876,25.145162],[55.21483,25.146489],[55.214977,25.146675]]]},"properties":{}},{"type":"Feature","geometry":{"type":"Polygon","coordinates":[[[55.215649,25.148372],[55.215972,25.148156],[55.215883,25.148046],[55.215624,25.148211],[55.215666,25.148266],[55.215592,25.148312],[55.215649,25.148372]]]},"properties":{}},{"type":"Feature","geometry":{"type":"Polygon","coordinates":[[[55.250992,25.153752],[55.251398,25.153445],[55.251791,25.153871],[55.251385,25.154177],[55.250992,25.153752]]]},"properties":{}},{"type":"Feature","geometry":{"type":"Polygon","coordinates":[[[55.24999,25.152309],[55.250261,25.152468],[55.249597,25.15335],[55.24937,25.153221],[55.24937,25.153185],[55.249386,25.153147],[55.24999,25.152309]]]},"properties":{}},{"type":"Feature","geometry":{"type":"Polygon","coordinates":[[[55.215914,25.173135],[55.216075,25.173036],[55.215955,25.172876],[55.215794,25.172975],[55.215914,25.173135]]]},"properties":{}},{"type":"Feature","geometry":{"type":"Polygon","coordinates":[[[55.22533,25.159797],[55.225644,25.16018],[55.225869,25.160029],[55.225555,25.159646],[55.22533,25.159797]]]},"properties":{}},{"type":"Feature","geometry":{"type":"Polygon","coordinates":[[[55.225929,25.158121],[55.226028,25.158245],[55.224952,25.158946],[55.225253,25.159324],[55.225124,25.159408],[55.224802,25.159003],[55.224828,25.15884],[55.225929,25.158121]]]},"properties":{"parking_type":"surface"}},{"type":"Feature","geometry":{"type":"Polygon","coordinates":[[[55.229462,25.16],[55.229893,25.159718],[55.230535,25.16054],[55.230543,25.160611],[55.230499,25.160688],[55.230224,25.160848],[55.230106,25.160851],[55.230008,25.160759],[55.229556,25.160172],[55.229462,25.16]]]},"properties":{"parking_type":"surface"}},{"type":"Feature","geometry":{"type":"Polygon","coordinates":[[[55.233136,25.164126],[55.233522,25.164532],[55.23361,25.164464],[55.233595,25.164254],[55.23333,25.163975],[55.233136,25.164126]]]},"properties":{"parking_type":"surface"}},{"type":"Feature","geometry":{"type":"Polygon","coordinates":[[[55.227992,25.184801],[55.228051,25.184874],[55.228391,25.184664],[55.228336,25.18459],[55.227992,25.184801]]]},"properties":{"parking_type":"surface"}},{"type":"Feature","geometry":{"type":"Polygon","coordinates":[[[55.228232,25.184776],[55.228393,25.184681],[55.228438,25.184736],[55.228251,25.184853],[55.228201,25.184793],[55.228232,25.184776]]]},"properties":{"parking_type":"sheds"}},{"type":"Feature","geometry":{"type":"Polygon","coordinates":[[[55.235407,25.194896],[55.235242,25.194999],[55.235017,25.194698],[55.235197,25.194596],[55.235349,25.194803],[55.235407,25.194896]]]},"properties":{"parking_type":"surface"}},{"type":"Feature","geometry":{"type":"Polygon","coordinates":[[[55.243978,25.18353],[55.244097,25.183589],[55.244872,25.183048],[55.246035,25.182277],[55.246049,25.182133],[55.245982,25.181972],[55.244324,25.180145],[55.24417,25.180117],[55.242318,25.181372],[55.242323,25.181535],[55.243978,25.18353]]]},"properties":{"parking_type":"surface"}},{"type":"Feature","geometry":{"type":"Polygon","coordinates":[[[55.246395,25.19205],[55.246389,25.192084],[55.245362,25.192678],[55.245339,25.192657],[55.246395,25.19205]]]},"properties":{"parking_type":"street_side"}},{"type":"Feature","geometry":{"type":"Polygon","coordinates":[[[55.244811,25.192992],[55.24481,25.192993],[55.24476,25.193024],[55.244711,25.193054],[55.244673,25.193078],[55.244658,25.193078],[55.244619,25.193077],[55.244644,25.193062],[55.244695,25.193032],[55.244743,25.193002],[55.244794,25.192971],[55.244816,25.19296],[55.244811,25.192992]]]},"properties":{"parking_type":"street_side"}},{"type":"Feature","geometry":{"type":"Polygon","coordinates":[[[55.246129,25.194438],[55.24614,25.19441],[55.245889,25.194045],[55.245866,25.19406],[55.246129,25.194438]]]},"properties":{"parking_type":"street_side"}},{"type":"Feature","geometry":{"type":"Polygon","coordinates":[[[55.191715,25.144187],[55.19246,25.145065],[55.192096,25.145314],[55.191123,25.144233],[55.191316,25.144122],[55.191485,25.144137],[55.191581,25.14416],[55.191664,25.14416],[55.191715,25.144187]]]},"properties":{"parking_type":"surface"}},{"type":"Feature","geometry":{"type":"Polygon","coordinates":[[[55.196926,25.151131],[55.19701,25.151069],[55.196941,25.150999],[55.197103,25.150899],[55.197244,25.151051],[55.197264,25.151073],[55.197416,25.150958],[55.197707,25.151284],[55.197307,25.151552],[55.197251,25.151504],[55.19717,25.151405],[55.197057,25.15129],[55.196926,25.151131]]]},"properties":{"parking_type":"surface"}},{"type":"Feature","geometry":{"type":"Polygon","coordinates":[[[55.196963,25.151859],[55.197508,25.151485],[55.197542,25.151564],[55.19734,25.151826],[55.196963,25.151859]]]},"properties":{"parking_type":"surface"}},{"type":"Feature","geometry":{"type":"Polygon","coordinates":[[[55.265418,25.185657],[55.265546,25.185795],[55.265744,25.185641],[55.265619,25.185516],[55.265418,25.185657]]]},"properties":{}},{"type":"Feature","geometry":{"type":"Polygon","coordinates":[[[55.266078,25.201094],[55.266503,25.200838],[55.265919,25.200082],[55.265584,25.200281],[55.265552,25.20037],[55.266078,25.201094]]]},"properties":{"parking_type":"surface"}}]}