{"type":"FeatureCollection","features":[{"type":"Feature","geometry":{"type":"Point","coordinates":[55.185557,25.132627]},"properties":{"leisure":"park"}},{"type":"Feature","geometry":{"type":"Point","coordinates":[55.204043,25.157792]},"properties":{"name":"...","leisure":"park"}},{"type":"Feature","geometry":{"type":"Polygon","coordinates":[[[55.21593,25.154201],[55.216368,25.153922],[55.216497,25.154093],[55.216248,25.154248],[55.21593,25.154201]]]},"properties":{"leisure":"park"}},{"type":"Feature","geometry":{"type":"Polygon","coordinates":[[[55.195962,25.14876],[55.196629,25.148279],[55.195919,25.147454],[55.196514,25.147039],[55.195922,25.146353],[55.195822,25.14635],[55.194668,25.147171],[55.194671,25.147241],[55.195962,25.14876]]]},"properties":{"name":"\u062d\u062f\u064a\u0642\u0629 \u0623\u0645 \u0633\u0642\u064a\u0645","leisure":"park"}},{"type":"Feature","geometry":{"type":"Polygon","coordinates":[[[55.209579,25.136322],[55.209528,25.136571],[55.209281,25.136672],[55.209266,25.136677],[55.209248,25.136681],[55.209218,25.136679],[55.209195,25.136668],[55.209127,25.136585],[55.209579,25.136322]]]},"properties":{"leisure":"park"}},{"type":"Feature","geometry":{"type":"Polygon","coordinates":[[[55.221804,25.154844],[55.2211,25.155306],[55.221851,25.156271],[55.221916,25.156353],[55.222051,25.156526],[55.222777,25.156025],[55.222077,25.155181],[55.221804,25.154844]]]},"properties":{"name":"\u062d\u062f\u064a\u0642\u0629 \u0627\u0644\u0635\u0641\u0627 2","leisure":"park"}},{"type":"Feature","geometry":{"type":"Polygon","coordinates":[[[55.17584,25.122622],[55.175904,25.122566],[55.175346,25.122],[55.175333,25.121954],[55.175341,25.121852],[55.176406,25.120999],[55.176432,25.121033],[55.176497,25.12099],[55.176406,25.120888],[55.175271,25.121799],[55.175247,25.121842],[55.17526,25.121876],[55.17526,25.12193],[55.175247,25.121966],[55.175252,25.122024],[55.17584,25.122622]]]},"properties":{"leisure":"park"}},{"type":"Feature","geometry":{"type":"Polygon","coordinates":[[[55.173793,25.122165],[55.174047,25.122347],[55.174111,25.122374],[55.174182,25.122393],[55.174257,25.122398],[55.174326,25.122391],[55.174399,25.122374],[55.174458,25.122342],[55.174877,25.122012],[55.174925,25.121959],[55.174903,25.121927],[55.174903,25.121893],[55.174912,25.121859],[55.174928,25.121833],[55.17492,25.121803],[55.174906,25.121772],[55.174348,25.121184],[55.174281,25.121138],[55.174219,25.121119],[55.174139,25.121111],[55.17408,25.121128],[55.174034,25.121162],[55.17383,25.121352],[55.17389,25.121412],[55.173812,25.121478],[55.173758,25.121424],[55.17371,25.121424],[55.173375,25.121704],[55.173364,25.121743],[55.17338,25.121762],[55.173401,25.121796],[55.173401,25.121849],[55.173388,25.121881],[55.173399,25.121917],[55.173508,25.121971],[55.173544,25.121925],[55.173833,25.122109],[55.173793,25.122165]]]},"properties":{"leisure":"park"}},{"type":"Feature","geometry":{"type":"Polygon","coordinates":[[[55.174375,25.123056],[55.17442,25.123024],[55.174408,25.123016],[55.174399,25.123006],[55.174391,25.122995],[55.174387,25.122982],[55.174385,25.122969],[55.174387,25.122955],[55.174391,25.122943],[55.174399,25.122931],[55.174408,25.122922],[55.17442,25.122914],[55.174434,25.122908],[55.174448,25.122906],[55.174463,25.122906],[55.174477,25.122908],[55.17449,25.122914],[55.174502,25.122922],[55.174512,25.122931],[55.174519,25.122943],[55.174524,25.122955],[55.174526,25.122969],[55.174524,25.122982],[55.174519,25.122995],[55.174512,25.123006],[55.174502,25.123016],[55.17449,25.123024],[55.174477,25.123029],[55.174509,25.123156],[55.174582,25.123093],[55.174782,25.123296],[55.17471,25.123358],[55.174701,25.123399],[55.174751,25.123438],[55.174812,25.123457],[55.174889,25.123459],[55.174962,25.123462],[55.175035,25.12345],[55.175083,25.12343],[55.175177,25.123387],[55.175737,25.122942],[55.175681,25.122889],[55.175663,25.122864],[55.175649,25.12285],[55.175639,25.122835],[55.175633,25.122817],[55.175631,25.122799],[55.175633,25.12278],[55.175639,25.122763],[55.175649,25.122747],[55.175663,25.122733],[55.17575,25.122671],[55.175182,25.122066],[55.175137,25.122049],[55.175094,25.122056],[55.175043,25.122056],[55.174989,25.122039],[55.174941,25.122056],[55.17441,25.122481],[55.174386,25.12251],[55.174372,25.122546],[55.174375,25.122588],[55.174391,25.122634],[55.174394,25.12267],[55.174391,25.122716],[55.174367,25.12277],[55.174338,25.122813],[55.174303,25.122852],[55.174289,25.122894],[55.174284,25.122925],[55.174297,25.122954],[55.174321,25.122996],[55.174342,25.123022],[55.174375,25.123056]]]},"properties":{"leisure":"park"}},{"type":"Feature","geometry":{"type":"Polygon","coordinates":[[[55.174225,25.121029],[55.174279,25.12098],[55.174329,25.12098],[55.174369,25.121002],[55.174413,25.121041],[55.174992,25.121619],[55.175035,25.121658],[55.175172,25.12166],[55.176218,25.12082],[55.176191,25.120786],[55.176253,25.120742],[55.176338,25.120827],[55.175233,25.121728],[55.17518,25.121748],[55.17514,25.12174],[55.175094,25.121733],[55.175046,25.121738],[55.175005,25.121743],[55.174968,25.121721],[55.174375,25.121109],[55.174327,25.12107],[55.174279,25.12105],[55.174225,25.121029]]]},"properties":{"leisure":"park"}},{"type":"Feature","geometry":{"type":"Polygon","coordinates":[[[55.176883,25.121833],[55.176676,25.121614],[55.176934,25.121427],[55.177116,25.121595],[55.177122,25.121653],[55.177103,25.121679],[55.176883,25.121833]]]},"properties":{"leisure":"park"}},{"type":"Feature","geometry":{"type":"Polygon","coordinates":[[[55.174506,25.123725],[55.174501,25.123725],[55.174495,25.123724],[55.174489,25.12372],[55.174486,25.123715],[55.174485,25.12371],[55.174486,25.123707],[55.174488,25.123702],[55.174492,25.123699],[55.174495,25.123697],[55.174501,25.123696],[55.174506,25.123696],[55.174509,25.123697],[55.174514,25.123701],[55.174517,25.123705],[55.174518,25.123712],[55.174516,25.123717],[55.174513,25.123721],[55.174506,25.123725]]]},"properties":{"leisure":"park"}},{"type":"Feature","geometry":{"type":"Polygon","coordinates":[[[55.172632,25.122037],[55.174472,25.12396],[55.174517,25.123931],[55.174675,25.123829],[55.174654,25.123783],[55.174546,25.1238],[55.174469,25.1238],[55.174413,25.123766],[55.174344,25.123693],[55.174335,25.123672],[55.174334,25.123651],[55.174335,25.123631],[55.174338,25.12362],[55.174342,25.123611],[55.174347,25.123602],[55.174315,25.123622],[55.174337,25.123564],[55.174289,25.123549],[55.174254,25.123515],[55.174238,25.123476],[55.174249,25.123457],[55.174203,25.123324],[55.174219,25.123297],[55.174198,25.123243],[55.174265,25.123227],[55.174262,25.123195],[55.174222,25.123209],[55.174005,25.123382],[55.173919,25.123285],[55.174203,25.123066],[55.174225,25.123044],[55.174238,25.12302],[55.174206,25.122952],[55.174209,25.122879],[55.17423,25.122826],[55.17428,25.122767],[55.174304,25.122731],[55.174311,25.12269],[55.174311,25.122634],[55.174289,25.122585],[55.174254,25.122537],[55.174206,25.12251],[55.174147,25.122491],[55.174104,25.122491],[55.174059,25.122493],[55.174016,25.12251],[55.173959,25.122544],[55.173914,25.122575],[55.173863,25.122602],[55.173804,25.122607],[55.173739,25.122578],[55.173707,25.122534],[55.173683,25.122588],[55.17364,25.122639],[55.173576,25.122668],[55.173506,25.122673],[55.173428,25.122646],[55.173385,25.1226],[55.173364,25.122549],[55.173353,25.122505],[55.17335,25.122437],[55.173176,25.122279],[55.173109,25.122241],[55.173039,25.12217],[55.173026,25.122085],[55.172924,25.122034],[55.172801,25.122119],[55.172771,25.122087],[55.172916,25.121971],[55.173147,25.121842],[55.173184,25.121755],[55.173294,25.121672],[55.173377,25.121597],[55.173326,25.121551],[55.173568,25.121359],[55.173544,25.12133],[55.173479,25.121352],[55.173455,25.121393],[55.173393,25.121427],[55.173364,25.121456],[55.17335,25.121485],[55.173313,25.121492],[55.173272,25.121509],[55.17323,25.121536],[55.173195,25.12158],[55.173165,25.121614],[55.172959,25.121772],[55.172943,25.121803],[55.172728,25.121955],[55.172632,25.122037]]]},"properties":{"leisure":"park"}},{"type":"Feature","geometry":{"type":"Polygon","coordinates":[[[55.173975,25.121111],[55.173935,25.121043],[55.173938,25.121002],[55.175354,25.119865],[55.175389,25.119916],[55.175276,25.119999],[55.175311,25.120103],[55.17511,25.120205],[55.174944,25.120332],[55.174903,25.120278],[55.174834,25.120327],[55.174823,25.12031],[55.17474,25.120378],[55.174759,25.120402],[55.174694,25.120463],[55.174684,25.120555],[55.174075,25.121053],[55.174026,25.121077],[55.173975,25.121111]]]},"properties":{"leisure":"park"}},{"type":"Feature","geometry":{"type":"Polygon","coordinates":[[[55.173595,25.120966],[55.173557,25.120934],[55.173576,25.120919],[55.173552,25.12089],[55.173584,25.120854],[55.173613,25.120805],[55.173635,25.120745],[55.173648,25.120696],[55.173643,25.120628],[55.173605,25.12055],[55.173552,25.12047],[55.173511,25.120417],[55.173498,25.120363],[55.173517,25.120312],[55.17357,25.120252],[55.173669,25.120098],[55.173704,25.120038],[55.173723,25.119963],[55.173745,25.11989],[55.17379,25.119822],[55.173868,25.119744],[55.173935,25.119683],[55.174198,25.119581],[55.174289,25.119557],[55.174354,25.119562],[55.174378,25.119606],[55.174434,25.119739],[55.17453,25.119928],[55.174595,25.120064],[55.174597,25.120105],[55.174587,25.120144],[55.174568,25.120181],[55.174539,25.120218],[55.174179,25.120494],[55.174091,25.120475],[55.174117,25.120426],[55.17405,25.12031],[55.173903,25.120269],[55.173782,25.120334],[55.173742,25.12045],[55.173798,25.120565],[55.173932,25.120608],[55.174053,25.120552],[55.174069,25.120513],[55.174139,25.120531],[55.173595,25.120966]]]},"properties":{"leisure":"park"}},{"type":"Feature","geometry":{"type":"Polygon","coordinates":[[[55.173273,25.120397],[55.173192,25.120305],[55.173222,25.120247],[55.173267,25.12021],[55.173329,25.120176],[55.173385,25.120145],[55.173444,25.120149],[55.173485,25.120181],[55.173468,25.120244],[55.173439,25.12029],[55.17339,25.120334],[55.173345,25.120371],[55.173273,25.120397]]]},"properties":{"leisure":"park"}},{"type":"Feature","geometry":{"type":"Polygon","coordinates":[[[55.172787,25.120334],[55.17272,25.120256],[55.172503,25.120429],[55.172476,25.120477],[55.172481,25.120521],[55.172551,25.120596],[55.172642,25.120689],[55.172706,25.120749],[55.172808,25.120824],[55.172924,25.120895],[55.173058,25.120982],[55.173257,25.121114],[55.173302,25.121147],[55.173342,25.121167],[55.173388,25.121152],[55.173576,25.120983],[55.173533,25.120953],[55.173415,25.121053],[55.173324,25.120961],[55.173348,25.120944],[55.173286,25.120878],[55.173251,25.120846],[55.173283,25.120812],[55.173219,25.120747],[55.173143,25.120681],[55.173098,25.120679],[55.173089,25.120783],[55.172947,25.120777],[55.172955,25.120671],[55.172924,25.120669],[55.172927,25.120635],[55.172879,25.120589],[55.172839,25.120622],[55.172857,25.120642],[55.172795,25.120694],[55.172591,25.12049],[55.172787,25.120334]]]},"properties":{"leisure":"park"}},{"type":"Feature","geometry":{"type":"Polygon","coordinates":[[[55.173243,25.12047],[55.173294,25.12047],[55.173342,25.120461],[55.173391,25.120427],[55.173425,25.120416],[55.17346,25.120439],[55.173538,25.120567],[55.173581,25.120633],[55.173589,25.120701],[55.17356,25.120776],[55.173525,25.120827],[55.173468,25.120834],[55.17342,25.120776],[55.173455,25.120754],[55.173388,25.120688],[55.173412,25.120667],[55.173383,25.120638],[55.173356,25.120657],[55.173206,25.120507],[55.173243,25.12047]]]},"properties":{"leisure":"park"}},{"type":"Feature","geometry":{"type":"Polygon","coordinates":[[[55.17242,25.121995],[55.172392,25.121966],[55.171234,25.120762],[55.17141,25.120626],[55.172117,25.120082],[55.174211,25.118424],[55.174774,25.119011],[55.174742,25.119038],[55.174759,25.119055],[55.174791,25.119069],[55.174684,25.119149],[55.174657,25.119205],[55.174603,25.11927],[55.174528,25.119341],[55.174437,25.119411],[55.174375,25.119443],[55.174313,25.119455],[55.17427,25.11945],[55.174238,25.119426],[55.174211,25.119358],[55.174203,25.119287],[55.174217,25.119224],[55.174238,25.119156],[55.174273,25.119093],[55.174297,25.119056],[55.174592,25.118831],[55.174396,25.118629],[55.174292,25.118712],[55.174396,25.118813],[55.174413,25.118836],[55.174418,25.118865],[55.174407,25.118886],[55.174356,25.118931],[55.17426,25.119003],[55.174228,25.119035],[55.174193,25.119083],[55.174174,25.119137],[55.174147,25.119214],[55.174139,25.11929],[55.174144,25.119343],[55.174155,25.119411],[55.174163,25.119445],[55.174158,25.119491],[55.174134,25.119526],[55.17409,25.119537],[55.173989,25.119572],[55.173911,25.119606],[55.173868,25.11964],[55.173806,25.119683],[55.173686,25.119834],[55.173608,25.119948],[55.173557,25.119989],[55.173455,25.12004],[55.173316,25.120094],[55.173213,25.120154],[55.173149,25.120208],[55.173114,25.120276],[55.173106,25.120329],[55.17305,25.120358],[55.173007,25.12031],[55.17294,25.120254],[55.172841,25.120317],[55.172757,25.120237],[55.1729,25.120111],[55.172862,25.120072],[55.17243,25.120436],[55.172404,25.120477],[55.172406,25.120518],[55.172682,25.120795],[55.172763,25.120863],[55.172913,25.120963],[55.173074,25.12106],[55.173203,25.121143],[55.173262,25.121182],[55.173267,25.121225],[55.173248,25.121269],[55.173098,25.121403],[55.17301,25.121485],[55.172873,25.121653],[55.172731,25.121784],[55.172674,25.121837],[55.172602,25.121835],[55.17242,25.121995]]]},"properties":{"leisure":"park"}},{"type":"Feature","geometry":{"type":"Polygon","coordinates":[[[55.174643,25.120026],[55.174472,25.119659],[55.174445,25.119581],[55.174447,25.119528],[55.174496,25.119467],[55.174549,25.119436],[55.174595,25.11939],[55.174638,25.11934],[55.174726,25.119249],[55.174831,25.119127],[55.174819,25.119159],[55.174859,25.11916],[55.174921,25.119151],[55.175321,25.119569],[55.175227,25.119664],[55.175244,25.119611],[55.174981,25.119834],[55.175005,25.119855],[55.174785,25.120021],[55.17474,25.120045],[55.174697,25.12005],[55.174665,25.120043],[55.174643,25.120026]]]},"properties":{"leisure":"park"}},{"type":"Feature","geometry":{"type":"Polygon","coordinates":[[[55.255313,25.168653],[55.255674,25.16838],[55.255792,25.168288],[55.255913,25.168195],[55.256363,25.167855],[55.257282,25.168852],[55.256737,25.169263],[55.256229,25.169647],[55.255313,25.168653]]]},"properties":{"name":"\u062d\u062f\u064a\u0642\u0629 \u0627\u0644\u0642\u0648\u0632 1","leisure":"park"}},{"type":"Feature","geometry":{"type":"Polygon","coordinates":[[[55.245384,25.167975],[55.245784,25.16842],[55.246814,25.167668],[55.246353,25.167195],[55.245384,25.167975]]]},"properties":{"name":"\u062d\u062f\u064a\u0642\u0629 \u0627\u0644\u0642\u0648\u0632 3","leisure":"park"}},{"type":"Feature","geometry":{"type":"Polygon","coordinates":[[[55.251417,25.172453],[55.25142,25.172542],[55.251943,25.173105],[55.252015,25.173112],[55.252615,25.172653],[55.25262,25.172562],[55.252092,25.172],[55.252021,25.171985],[55.251417,25.172453]]]},"properties":{"name":"\u062d\u062f\u064a\u0642\u0629 \u0627\u0644\u0642\u0648\u0632 2","leisure":"park"}},{"type":"Feature","geometry":{"type":"Polygon","coordinates":[[[55.266967,25.166532],[55.26699,25.166541],[55.267014,25.166549],[55.267038,25.166555],[55.267063,25.166559],[55.267088,25.166561],[55.26748,25.166581],[55.267735,25.166592],[55.267904,25.166595],[55.268045,25.166592],[55.268128,25.166584],[55.268196,25.166566],[55.268262,25.166545],[55.268427,25.166393],[55.268498,25.166306],[55.268533,25.166222],[55.268552,25.166119],[55.268535,25.165893],[55.268534,25.165818],[55.268522,25.165758],[55.2685,25.165696],[55.268382,25.165548],[55.268197,25.165378],[55.26771,25.164931],[55.267785,25.164435],[55.267826,25.164358],[55.267884,25.164279],[55.267947,25.164214],[55.268032,25.164154],[55.268121,25.1641],[55.268226,25.164047],[55.268417,25.163971],[55.268525,25.163919],[55.268641,25.163848],[55.268794,25.163703],[55.268923,25.163561],[55.26899,25.163438],[55.26904,25.163296],[55.269049,25.163194],[55.269045,25.163092],[55.268998,25.162851],[55.270174,25.163932],[55.270212,25.163973],[55.270225,25.163994],[55.270232,25.164017],[55.27024,25.164045],[55.270244,25.164071],[55.270254,25.164101],[55.270271,25.164128],[55.270296,25.164159],[55.270333,25.164176],[55.270363,25.164189],[55.270394,25.164196],[55.270424,25.164203],[55.27046,25.164216],[55.270498,25.164236],[55.27053,25.164257],[55.270726,25.164436],[55.271005,25.16419],[55.270855,25.164056],[55.271377,25.163592],[55.27202,25.163017],[55.271819,25.162836],[55.271827,25.1627],[55.27046,25.162467],[55.269405,25.162299],[55.268257,25.160949],[55.268021,25.16091],[55.268023,25.161036],[55.264032,25.163908],[55.264485,25.164477],[55.264984,25.16503],[55.265545,25.165622],[55.265875,25.165918],[55.266217,25.166144],[55.266697,25.166453],[55.266733,25.166472],[55.266772,25.166484],[55.266813,25.166489],[55.266866,25.166497],[55.266918,25.166511],[55.266967,25.166532]]]},"properties":{"name":"\u062d\u062f\u064a\u0642\u0629 \u0628\u062d\u064a\u0631\u0629 \u0627\u0644\u0642\u0648\u0632","leisure":"park"}},{"type":"Feature","geometry":{"type":"Polygon","coordinates":[[[55.172187,25.114036],[55.171174,25.112988],[55.171178,25.112899],[55.171763,25.11243],[55.171846,25.112434],[55.172885,25.11351],[55.172879,25.113615],[55.172302,25.114042],[55.172187,25.114036]]]},"properties":{"name":"Al Sufouh Park","leisure":"park"}},{"type":"Feature","geometry":{"type":"Polygon","coordinates":[[[55.260929,25.198638],[55.260534,25.198078],[55.260887,25.197818],[55.261358,25.198344],[55.260929,25.198638]]]},"properties":{"name":"Al Wasl Park 2","leisure":"park"}},{"type":"Feature","geometry":{"type":"Polygon","coordinates":[[[55.267966,25.191968],[55.264432,25.188248],[55.264456,25.188223],[55.264486,25.188212],[55.264602,25.188285],[55.2649,25.188473],[55.265234,25.188689],[55.265727,25.188955],[55.266024,25.189108],[55.266307,25.189242],[55.266601,25.189363],[55.266794,25.189443],[55.266967,25.189511],[55.267389,25.189674],[55.267691,25.18979],[55.267851,25.189873],[55.268145,25.190033],[55.268586,25.190304],[55.268514,25.190383],[55.268121,25.190125],[55.268092,25.190253],[55.26799,25.190633],[55.267964,25.190987],[55.268375,25.191224],[55.268546,25.190985],[55.268657,25.191046],[55.268679,25.191059],[55.26849,25.191329],[55.268224,25.191739],[55.268184,25.19179],[55.268147,25.19183],[55.267966,25.191968]]]},"properties":{"name":"Bay Avenue Park","leisure":"park"}},{"type":"Feature","geometry":{"type":"Polygon","coordinates":[[[55.200152,25.138278],[55.200623,25.137959],[55.200511,25.137821],[55.200296,25.137555],[55.199821,25.13787],[55.200039,25.138139],[55.200152,25.138278]]]},"properties":{"leisure":"park"}},{"type":"Feature","geometry":{"type":"Polygon","coordinates":[[[55.236782,25.179591],[55.236826,25.179514],[55.237283,25.179247],[55.238232,25.180636],[55.237743,25.180917],[55.237678,25.180883],[55.236782,25.179591]]]},"properties":{"leisure":"park"}},{"type":"Feature","geometry":{"type":"Polygon","coordinates":[[[55.219768,25.161445],[55.219971,25.161715],[55.21903,25.162317],[55.218807,25.162067],[55.219387,25.1617],[55.219598,25.16156],[55.219768,25.161445]]]},"properties":{"name":"Khaja Park","leisure":"park"}},{"type":"Feature","geometry":{"type":"Polygon","coordinates":[[[55.212877,25.134478],[55.212896,25.134472],[55.21291,25.134467],[55.212924,25.134461],[55.213034,25.134391],[55.213126,25.134328],[55.213218,25.134262],[55.213296,25.134197],[55.213352,25.134138],[55.213386,25.134071],[55.213406,25.134015],[55.213417,25.133954],[55.213419,25.133886],[55.213408,25.133818],[55.21338,25.133762],[55.213337,25.133814],[55.213259,25.133894],[55.213171,25.133969],[55.212749,25.134243],[55.21273,25.134261],[55.212721,25.134278],[55.212716,25.134302],[55.21272,25.134326],[55.212728,25.134344],[55.212742,25.134362],[55.212817,25.134452],[55.212832,25.134468],[55.212844,25.134477],[55.212862,25.13448],[55.212877,25.134478]]]},"properties":{"leisure":"park"}},{"type":"Feature","geometry":{"type":"Polygon","coordinates":[[[55.208196,25.131856],[55.208838,25.131534],[55.208377,25.130945],[55.207724,25.131363],[55.208196,25.131856]]]},"properties":{"leisure":"park"}},{"type":"Feature","geometry":{"type":"Polygon","coordinates":[[[55.240876,25.187561],[55.241461,25.188384],[55.242305,25.187848],[55.242472,25.188094],[55.242701,25.188576],[55.243101,25.188165],[55.243489,25.187938],[55.243947,25.187726],[55.244464,25.187511],[55.245045,25.187209],[55.245436,25.186907],[55.245753,25.186595],[55.246326,25.18606],[55.246647,25.185784],[55.246889,25.185576],[55.247163,25.185353],[55.247499,25.185099],[55.247856,25.184889],[55.248181,25.184741],[55.248315,25.184685],[55.248459,25.184636],[55.249026,25.184491],[55.249317,25.18445],[55.249777,25.184384],[55.250075,25.184334],[55.25001,25.184255],[55.250081,25.184024],[55.250186,25.183811],[55.2502,25.183784],[55.250367,25.183446],[55.249702,25.182878],[55.24938,25.182592],[55.249058,25.182307],[55.247824,25.182804],[55.24772,25.182554],[55.247495,25.182446],[55.24726,25.182697],[55.247077,25.182962],[55.246968,25.183153],[55.24691,25.18326],[55.246826,25.183325],[55.246692,25.183413],[55.246518,25.18348],[55.246364,25.183499],[55.246169,25.183439],[55.245963,25.18338],[55.245876,25.183376],[55.245783,25.183427],[55.245734,25.183476],[55.245674,25.183507],[55.245597,25.183517],[55.24534,25.183504],[55.24519,25.183496],[55.243982,25.184292],[55.241915,25.18581],[55.241292,25.186303],[55.240797,25.186918],[55.240726,25.187258],[55.240876,25.187561]]]},"properties":{"name":"\u062d\u062f\u064a\u0642\u0629 \u0627\u0644\u0635\u0641\u0627","leisure":"park"}},{"type":"Feature","geometry":{"type":"Polygon","coordinates":[[[55.181897,25.117463],[55.181607,25.11768],[55.181503,25.117589],[55.181548,25.117544],[55.181708,25.117547],[55.181723,25.11736],[55.181698,25.11736],[55.1817,25.11733],[55.181603,25.117225],[55.181575,25.117223],[55.181575,25.117201],[55.181337,25.117196],[55.181331,25.117158],[55.181479,25.117018],[55.181502,25.117036],[55.181702,25.116887],[55.181728,25.116928],[55.18179,25.116955],[55.181865,25.116955],[55.182152,25.117272],[55.181897,25.117463]]]},"properties":{"leisure":"park"}},{"type":"Feature","geometry":{"type":"Polygon","coordinates":[[[55.182906,25.116868],[55.182795,25.116956],[55.182628,25.116953],[55.182364,25.116682],[55.181794,25.116094],[55.18201,25.115936],[55.18159,25.115496],[55.182194,25.115034],[55.182416,25.115261],[55.18252,25.11518],[55.183549,25.116214],[55.183209,25.116488],[55.183289,25.11656],[55.182906,25.116868]]]},"properties":{"leisure":"park"}},{"type":"Feature","geometry":{"type":"Polygon","coordinates":[[[55.181144,25.117602],[55.181068,25.117698],[55.181,25.117728],[55.180892,25.11761],[55.180892,25.117544],[55.180846,25.117482],[55.1808,25.117455],[55.180732,25.117445],[55.180746,25.117494],[55.18071,25.117517],[55.180689,25.117551],[55.180687,25.117583],[55.180696,25.117602],[55.180662,25.117627],[55.180634,25.117599],[55.180597,25.117628],[55.180546,25.117575],[55.18053,25.117531],[55.180526,25.117482],[55.180534,25.11743],[55.180545,25.117403],[55.180584,25.117359],[55.180666,25.117289],[55.180709,25.117272],[55.180761,25.117247],[55.180848,25.117243],[55.180929,25.117328],[55.181004,25.117414],[55.181143,25.117581],[55.181144,25.117602]]]},"properties":{"leisure":"park"}},{"type":"Feature","geometry":{"type":"Polygon","coordinates":[[[55.262703,25.166683],[55.262963,25.166967],[55.262278,25.167481],[55.261976,25.167151],[55.262607,25.166678],[55.262648,25.166724],[55.262703,25.166683]]]},"properties":{"leisure":"park"}},{"type":"Feature","geometry":{"type":"Polygon","coordinates":[[[55.266397,25.187875],[55.266123,25.187703],[55.265892,25.188641],[55.26588,25.188738],[55.266151,25.188893],[55.266397,25.187875]]]},"properties":{"name":"Action Hub","leisure":"park"}},{"type":"Feature","geometry":{"type":"Polygon","coordinates":[[[55.26626,25.187293],[55.266501,25.187448],[55.266692,25.186693],[55.266779,25.186398],[55.266476,25.18633],[55.26626,25.187293]]]},"properties":{"name":"Action Hub","leisure":"park"}},{"type":"Feature","geometry":{"type":"Polygon","coordinates":[[[55.271238,25.181686],[55.271138,25.181597],[55.27103,25.18151],[55.270553,25.181892],[55.270885,25.182209],[55.271359,25.181827],[55.271238,25.181686]]]},"properties":{"leisure":"park"}},{"type":"Feature","geometry":{"type":"Polygon","coordinates":[[[55.250495,25.140807],[55.250206,25.140997],[55.249986,25.14072],[55.250273,25.140526],[55.250281,25.140521],[55.25019,25.140385],[55.251948,25.139361],[55.252603,25.13898],[55.25266,25.139046],[55.252883,25.139305],[55.252911,25.139337],[55.25249,25.140098],[55.251971,25.139909],[55.251837,25.140249],[55.251681,25.140608],[55.25135,25.140752],[55.251154,25.14049],[55.251123,25.140453],[55.250495,25.140807]]]},"properties":{"name":"Al Khail Gate Park","leisure":"park"}},{"type":"Feature","geometry":{"type":"Polygon","coordinates":[[[55.252536,25.142773],[55.252421,25.142856],[55.252382,25.142808],[55.252393,25.142759],[55.252461,25.142706],[55.252501,25.142712],[55.252534,25.142661],[55.252658,25.142581],[55.252694,25.142643],[55.25268,25.142701],[55.252648,25.142685],[55.252575,25.142741],[55.252536,25.142773]]]},"properties":{"name":"Parklet","leisure":"park"}},{"type":"Feature","geometry":{"type":"Polygon","coordinates":[[[55.253243,25.142422],[55.253218,25.142395],[55.253137,25.142358],[55.253058,25.142338],[55.253056,25.142321],[55.253033,25.142385],[55.253209,25.142473],[55.253243,25.142422]]]},"properties":{"name":"parklet","leisure":"park"}},{"type":"Feature","geometry":{"type":"Polygon","coordinates":[[[55.252877,25.142382],[55.252952,25.142274],[55.25288,25.142229],[55.252816,25.142228],[55.252742,25.142162],[55.252685,25.142139],[55.252629,25.142264],[55.252691,25.142297],[55.252689,25.142332],[55.252729,25.142346],[55.252739,25.142327],[55.252764,25.142337],[55.252748,25.142357],[55.252854,25.142403],[55.252877,25.142382]]]},"properties":{"name":"Parklet","leisure":"park"}},{"type":"Feature","geometry":{"type":"Polygon","coordinates":[[[55.252596,25.142193],[55.252662,25.142116],[55.25268,25.142064],[55.252737,25.141968],[55.252707,25.141938],[55.252522,25.142087],[55.252534,25.142135],[55.252596,25.142193]]]},"properties":{"name":"Parklet","leisure":"park"}},{"type":"Feature","geometry":{"type":"Polygon","coordinates":[[[55.253269,25.141914],[55.253281,25.14188],[55.253249,25.141865],[55.253252,25.141825],[55.253281,25.141765],[55.253652,25.141958],[55.253593,25.142035],[55.253564,25.142016],[55.253541,25.142062],[55.253519,25.142061],[55.25351,25.142034],[55.253435,25.141983],[55.25337,25.141966],[55.253269,25.141914]]]},"properties":{"name":"Backyard Park","leisure":"park"}},{"type":"Feature","geometry":{"type":"Polygon","coordinates":[[[55.253961,25.142158],[55.253869,25.142125],[55.2539,25.142037],[55.254343,25.142125],[55.254321,25.142221],[55.254252,25.142246],[55.254156,25.14224],[55.254153,25.142206],[55.254047,25.142181],[55.253961,25.142158]]]},"properties":{"name":"Backyard Park","leisure":"park"}},{"type":"Feature","geometry":{"type":"Polygon","coordinates":[[[55.253931,25.141818],[55.253944,25.141785],[55.254064,25.1418],[55.254094,25.141727],[55.253832,25.141625],[55.253767,25.141751],[55.253931,25.141818]]]},"properties":{"name":"small park","leisure":"park"}},{"type":"Feature","geometry":{"type":"Polygon","coordinates":[[[55.255092,25.142318],[55.254942,25.142277],[55.255251,25.141711],[55.255165,25.141685],[55.255621,25.140761],[55.255722,25.140824],[55.255352,25.141578],[55.255092,25.142318]]]},"properties":{"name":"Al Khail gate Phase 1 Park","leisure":"park"}},{"type":"Feature","geometry":{"type":"Polygon","coordinates":[[[55.253969,25.140491],[55.254189,25.140549],[55.254305,25.140372],[55.254044,25.140222],[55.253951,25.140321],[55.25402,25.140387],[55.253969,25.140491]]]},"properties":{"name":"Bakcyard Park","leisure":"park"}},{"type":"Feature","geometry":{"type":"Polygon","coordinates":[[[55.253941,25.140323],[55.253985,25.140247],[55.25372,25.140104],[55.253659,25.140247],[55.253724,25.140289],[55.253736,25.140275],[55.253789,25.140288],[55.253803,25.140276],[55.253876,25.140305],[55.253864,25.14032],[55.253886,25.140329],[55.253898,25.140312],[55.253941,25.140323]]]},"properties":{"name":"parklet","leisure":"park"}},{"type":"Feature","geometry":{"type":"Polygon","coordinates":[[[55.253476,25.141482],[55.25354,25.141385],[55.253256,25.141282],[55.253226,25.141268],[55.253395,25.140887],[55.253301,25.140865],[55.253079,25.141346],[55.253476,25.141482]]]},"properties":{"name":"L Parklet","leisure":"park"}},{"type":"Feature","geometry":{"type":"Polygon","coordinates":[[[55.253991,25.139171],[55.254066,25.13924],[55.254379,25.138983],[55.254286,25.13888],[55.254232,25.13886],[55.25419,25.138849],[55.253903,25.139088],[55.253991,25.139171]]]},"properties":{"name":"WestZone Mall Park","leisure":"park"}},{"type":"Feature","geometry":{"type":"Polygon","coordinates":[[[55.255017,25.140777],[55.254887,25.140749],[55.254919,25.14067],[55.254962,25.14061],[55.255012,25.140555],[55.255059,25.140489],[55.255145,25.140426],[55.255185,25.140346],[55.255229,25.140315],[55.255282,25.140308],[55.255457,25.140363],[55.255451,25.14038],[55.255762,25.140536],[55.255705,25.140622],[55.255468,25.140544],[55.255362,25.140544],[55.255265,25.14059],[55.255017,25.140777]]]},"properties":{"name":"parklet","leisure":"park"}},{"type":"Feature","geometry":{"type":"Polygon","coordinates":[[[55.25078,25.130996],[55.25101,25.130889],[55.251279,25.130911],[55.25168,25.130644],[55.251758,25.130427],[55.251927,25.130609],[55.25119,25.131084],[55.250985,25.131084],[55.25078,25.130996]]]},"properties":{"name":"enoc park","leisure":"park"}},{"type":"Feature","geometry":{"type":"Polygon","coordinates":[[[55.251488,25.130596],[55.25146,25.130564],[55.251556,25.1305],[55.251297,25.130195],[55.251352,25.130168],[55.251609,25.130482],[55.251598,25.13053],[55.251488,25.130596]]]},"properties":{"name":"Enoc Park","leisure":"park"}},{"type":"Feature","geometry":{"type":"Polygon","coordinates":[[[55.25124,25.130711],[55.25126,25.130742],[55.251133,25.130836],[55.250855,25.1305],[55.250895,25.130468],[55.251136,25.130767],[55.25124,25.130711]]]},"properties":{"name":"enoc Park","leisure":"park"}},{"type":"Feature","geometry":{"type":"Polygon","coordinates":[[[55.249191,25.110479],[55.248795,25.111325],[55.248688,25.111287],[55.248557,25.111346],[55.248261,25.111422],[55.248007,25.111438],[55.24773,25.111417],[55.247459,25.111364],[55.247268,25.111295],[55.24714,25.111227],[55.246751,25.111022],[55.245001,25.109022],[55.244587,25.108561],[55.244463,25.108511],[55.24602,25.107941],[55.246562,25.108568],[55.247162,25.109144],[55.247557,25.109524],[55.248013,25.109849],[55.248522,25.110214],[55.248613,25.110279],[55.249191,25.110479]]]},"properties":{"name":"Dubai Hills Park","leisure":"park"}},{"type":"Feature","geometry":{"type":"Polygon","coordinates":[[[55.18155,25.120256],[55.181652,25.120178],[55.180559,25.119063],[55.180277,25.11895],[55.179384,25.117996],[55.178791,25.11738],[55.178136,25.116829],[55.17794,25.116631],[55.177075,25.1157],[55.177007,25.115726],[55.176923,25.115687],[55.176491,25.115219],[55.176454,25.115246],[55.178285,25.117102],[55.178362,25.117195],[55.178863,25.117728],[55.179698,25.118585],[55.180271,25.119177],[55.180399,25.119082],[55.180989,25.119694],[55.181396,25.12012],[55.18155,25.120256]]]},"properties":{"leisure":"park"}},{"type":"Feature","geometry":{"type":"Polygon","coordinates":[[[55.253103,25.143094],[55.253352,25.142994],[55.25342,25.143426],[55.253103,25.143094]]]},"properties":{"name":"Triangular Park","leisure":"park"}},{"type":"Feature","geometry":{"type":"Polygon","coordinates":[[[55.271355,25.177938],[55.271824,25.177581],[55.271488,25.177239],[55.271482,25.177157],[55.271913,25.176926],[55.272476,25.177135],[55.272496,25.177146],[55.272735,25.177284],[55.272803,25.177332],[55.273172,25.177646],[55.273509,25.178],[55.27376,25.178377],[55.273529,25.17856],[55.274,25.179084],[55.274028,25.179115],[55.273838,25.179259],[55.273343,25.178711],[55.273048,25.178947],[55.27272,25.178607],[55.272764,25.178578],[55.272434,25.178223],[55.272129,25.1779],[55.27167,25.178248],[55.271514,25.178085],[55.271355,25.177938]]]},"properties":{"name":"Bayside Park 4","leisure":"park"}},{"type":"Feature","geometry":{"type":"Polygon","coordinates":[[[55.268746,25.179893],[55.269047,25.179295],[55.269775,25.179499],[55.270654,25.179845],[55.271356,25.180242],[55.271493,25.18016],[55.271711,25.179997],[55.271057,25.17932],[55.270733,25.178965],[55.271183,25.17863],[55.271022,25.178456],[55.270915,25.178339],[55.270413,25.178715],[55.270048,25.178322],[55.270033,25.178272],[55.269721,25.178295],[55.269741,25.178926],[55.269098,25.178943],[55.26906,25.177773],[55.268845,25.177781],[55.268432,25.177799],[55.268363,25.177848],[55.267931,25.178547],[55.267877,25.178571],[55.267545,25.178474],[55.267128,25.178377],[55.266306,25.178931],[55.266096,25.179112],[55.266005,25.17919],[55.266028,25.179285],[55.266519,25.179197],[55.267213,25.179115],[55.267845,25.179106],[55.267821,25.179294],[55.267821,25.179525],[55.267847,25.179732],[55.267886,25.17993],[55.268175,25.179942],[55.268432,25.179984],[55.268681,25.180033],[55.268746,25.179893]]]},"properties":{"name":"Bayside Park 2","leisure":"park"}},{"type":"Feature","geometry":{"type":"Polygon","coordinates":[[[55.26189,25.187244],[55.26217,25.187028],[55.262059,25.186851],[55.261942,25.186669],[55.261837,25.186495],[55.261757,25.186345],[55.26166,25.186159],[55.261573,25.186001],[55.261492,25.185835],[55.261404,25.18561],[55.261324,25.18539],[55.261274,25.185264],[55.26088,25.185416],[55.260781,25.185454],[55.260709,25.185483],[55.260425,25.185596],[55.260461,25.185648],[55.26189,25.187244]]]},"properties":{"name":"Bayside Park 1","leisure":"park"}},{"type":"Feature","geometry":{"type":"Polygon","coordinates":[[[55.259883,25.183698],[55.260241,25.18354],[55.26016,25.183713],[55.26009,25.183746],[55.259951,25.183714],[55.259883,25.183698]]]},"properties":{"name":"Family Hub","leisure":"park"}}]}