{"type":"FeatureCollection","features":[{"type":"Feature","geometry":{"type":"Point","coordinates":[55.20893,25.116596]},"properties":{"leisure":"playground"}},{"type":"Feature","geometry":{"type":"Point","coordinates":[55.270362,25.163512]},"properties":{"leisure":"playground"}},{"type":"Feature","geometry":{"type":"Point","coordinates":[55.270638,25.163684]},"properties":{"leisure":"playground"}},{"type":"Feature","geometry":{"type":"Point","coordinates":[55.266811,25.165911]},"properties":{"leisure":"playground"}},{"type":"Feature","geometry":{"type":"Point","coordinates":[55.245835,25.145601]},"properties":{"leisure":"playground"}},{"type":"Feature","geometry":{"type":"Point","coordinates":[55.223303,25.15926]},"properties":{"leisure":"playground"}},{"type":"Feature","geometry":{"type":"Point","coordinates":[55.243625,25.187483]},"properties":{"leisure":"playground"}},{"type":"Feature","geometry":{"type":"Point","coordinates":[55.246977,25.196805]},"properties":{"leisure":"playground"}},{"type":"Feature","geometry":{"type":"Point","coordinates":[55.245995,25.195189]},"properties":{"leisure":"playground"}},{"type":"Feature","geometry":{"type":"Point","coordinates":[55.2467,25.183533]},"properties":{"leisure":"playground"}},{"type":"Feature","geometry":{"type":"Point","coordinates":[55.244898,25.184991]},"properties":{"leisure":"playground"}},{"type":"Feature","geometry":{"type":"Point","coordinates":[55.23837,25.16263]},"properties":{"name":"Ready Set Go","leisure":"playground"}},{"type":"Feature","geometry":{"type":"Point","coordinates":[55.260669,25.185659]},"properties":{"leisure":"playground"}},{"type":"Feature","geometry":{"type":"Point","coordinates":[55.259987,25.183693]},"properties":{"leisure":"playground"}},{"type":"Feature","geometry":{"type":"Point","coordinates":[55.266306,25.18389]},"properties":{"leisure":"playground"}},{"type":"Feature","geometry":{"type":"Point","coordinates":[55.268083,25.185682]},"properties":{"leisure":"playground"}},{"type":"Feature","geometry":{"type":"Point","coordinates":[55.265353,25.188946]},"properties":{"leisure":"playground"}},{"type":"Feature","geometry":{"type":"Point","coordinates":[55.270817,25.179589]},"properties":{"leisure":"playground"}},{"type":"Feature","geometry":{"type":"Point","coordinates":[55.266762,25.178978]},"properties":{"leisure":"playground"}},{"type":"Feature","geometry":{"type":"Polygon","coordinates":[[[55.190473,25.14257],[55.190612,25.142688],[55.190833,25.14252],[55.190764,25.142364],[55.190672,25.142226],[55.1905,25.142368],[55.190385,25.142522],[55.190473,25.14257]]]},"properties":{"name":"Sinbad's Kids Club","leisure":"playground"}},{"type":"Feature","geometry":{"type":"Polygon","coordinates":[[[55.200039,25.138139],[55.200087,25.138109],[55.200353,25.137931],[55.200511,25.137821],[55.200623,25.137959],[55.200152,25.138278],[55.200039,25.138139]]]},"properties":{"leisure":"playground"}},{"type":"Feature","geometry":{"type":"Polygon","coordinates":[[[55.249515,25.148135],[55.249574,25.148217],[55.249708,25.148118],[55.249642,25.14804],[55.249515,25.148135]]]},"properties":{"leisure":"playground"}},{"type":"Feature","geometry":{"type":"Polygon","coordinates":[[[55.19568,25.147688],[55.195852,25.147914],[55.196002,25.14797],[55.196093,25.148023],[55.196139,25.148116],[55.196093,25.148218],[55.196037,25.148261],[55.195937,25.148269],[55.195862,25.148244],[55.195744,25.148155],[55.195755,25.148035],[55.195696,25.147941],[55.19531,25.147462],[55.19531,25.147293],[55.195355,25.147166],[55.195642,25.146943],[55.195648,25.146856],[55.195726,25.146778],[55.195817,25.146761],[55.195924,25.146783],[55.195964,25.146863],[55.195932,25.146979],[55.195884,25.14704],[55.195811,25.147043],[55.195718,25.147038],[55.195479,25.147215],[55.195439,25.147346],[55.195468,25.147438],[55.19568,25.147688]]]},"properties":{"leisure":"playground"}},{"type":"Feature","geometry":{"type":"Polygon","coordinates":[[[55.251032,25.143891],[55.251147,25.143934],[55.251084,25.144072],[55.251001,25.144164],[55.250922,25.144135],[55.251032,25.143891]]]},"properties":{"name":"Animal Fun Playground","leisure":"playground"}},{"type":"Feature","geometry":{"type":"Polygon","coordinates":[[[55.251686,25.143473],[55.2516,25.143374],[55.251871,25.143186],[55.251929,25.143292],[55.251861,25.143349],[55.251798,25.143315],[55.25171,25.14341],[55.251686,25.143473]]]},"properties":{"name":"Kids Playground","leisure":"playground"}},{"type":"Feature","geometry":{"type":"Polygon","coordinates":[[[55.253679,25.142005],[55.253731,25.142024],[55.253793,25.14206],[55.253841,25.142085],[55.253931,25.141818],[55.253767,25.141751],[55.253648,25.141986],[55.253679,25.142005]]]},"properties":{"name":"kids Playground","leisure":"playground"}},{"type":"Feature","geometry":{"type":"Polygon","coordinates":[[[55.25375,25.141676],[55.253828,25.141549],[55.253727,25.141517],[55.253645,25.141499],[55.253647,25.14148],[55.253559,25.141456],[55.253513,25.141565],[55.25375,25.141676]]]},"properties":{"name":"Play2Go Playground","leisure":"playground"}},{"type":"Feature","geometry":{"type":"Polygon","coordinates":[[[55.255828,25.140294],[55.25593,25.140076],[55.256101,25.139903],[55.256186,25.139716],[55.256267,25.139786],[55.256153,25.139966],[55.25606,25.140032],[55.25595,25.14036],[55.255828,25.140294]]]},"properties":{"name":"Harmony Kids Playground","leisure":"playground"}},{"type":"Feature","geometry":{"type":"Polygon","coordinates":[[[55.252949,25.138492],[55.252981,25.138453],[55.252894,25.138317],[55.252827,25.138362],[55.252949,25.138492]]]},"properties":{"name":"kids Adventure Playground","leisure":"playground"}},{"type":"Feature","geometry":{"type":"Polygon","coordinates":[[[55.253765,25.136644],[55.253843,25.136589],[55.253803,25.136528],[55.253835,25.136494],[55.253757,25.136436],[55.253687,25.136484],[55.253728,25.136562],[55.253698,25.136608],[55.253765,25.136644]]]},"properties":{"name":"Colorful Playground","leisure":"playground"}},{"type":"Feature","geometry":{"type":"Polygon","coordinates":[[[55.254766,25.137917],[55.254862,25.137861],[55.254827,25.137795],[55.254846,25.137759],[55.254806,25.137708],[55.25472,25.137752],[55.254755,25.137822],[55.25472,25.137859],[55.254766,25.137917]]]},"properties":{"leisure":"playground"}},{"type":"Feature","geometry":{"type":"Polygon","coordinates":[[[55.254504,25.140694],[55.254536,25.140628],[55.254305,25.140484],[55.254252,25.140602],[55.254504,25.140694]]]},"properties":{"name":"Harmony Playground","leisure":"playground"}},{"type":"Feature","geometry":{"type":"Polygon","coordinates":[[[55.250273,25.140526],[55.250352,25.140494],[55.2503,25.140359],[55.25019,25.140385],[55.250273,25.140526]]]},"properties":{"name":"playground at park","leisure":"playground"}},{"type":"Feature","geometry":{"type":"Polygon","coordinates":[[[55.251948,25.139361],[55.252386,25.139068],[55.252693,25.139241],[55.252572,25.139385],[55.252305,25.139467],[55.252094,25.139475],[55.251948,25.139361]]]},"properties":{"name":"Al Khail Gate Park Playground","leisure":"playground"}},{"type":"Feature","geometry":{"type":"Polygon","coordinates":[[[55.222087,25.155641],[55.222223,25.155605],[55.222119,25.155418],[55.221866,25.155516],[55.222087,25.155641]]]},"properties":{"leisure":"playground"}},{"type":"Feature","geometry":{"type":"Polygon","coordinates":[[[55.221658,25.155815],[55.221639,25.155745],[55.221649,25.155697],[55.221866,25.155516],[55.221943,25.1557],[55.221658,25.155815]]]},"properties":{"leisure":"playground"}},{"type":"Feature","geometry":{"type":"Polygon","coordinates":[[[55.222433,25.155843],[55.222317,25.155878],[55.222292,25.156058],[55.22244,25.15622],[55.222585,25.156128],[55.222561,25.155994],[55.222433,25.155843]]]},"properties":{"leisure":"playground"}},{"type":"Feature","geometry":{"type":"Polygon","coordinates":[[[55.246495,25.193971],[55.246541,25.194009],[55.246554,25.19405],[55.246563,25.19411],[55.246642,25.194058],[55.246542,25.19392],[55.246495,25.193971]]]},"properties":{"leisure":"playground"}},{"type":"Feature","geometry":{"type":"Polygon","coordinates":[[[55.255824,25.168643],[55.255676,25.168563],[55.255648,25.168607],[55.255637,25.168657],[55.255626,25.168709],[55.255616,25.168769],[55.255618,25.168815],[55.255618,25.168854],[55.255626,25.168891],[55.255812,25.168872],[55.255814,25.168832],[55.255815,25.168786],[55.255815,25.168731],[55.255816,25.168705],[55.255819,25.168672],[55.255824,25.168643]]]},"properties":{"leisure":"playground"}},{"type":"Feature","geometry":{"type":"Polygon","coordinates":[[[55.221116,25.163526],[55.221023,25.163397],[55.221169,25.163311],[55.221262,25.163439],[55.221116,25.163526]]]},"properties":{"leisure":"playground"}}]}