{"type":"FeatureCollection","features":[{"type":"Feature","geometry":{"type":"Point","coordinates":[55.184849,25.13339]},"properties":{}},{"type":"Feature","geometry":{"type":"Point","coordinates":[55.183575,25.133396]},"properties":{"name":"Khaymat Al Bahar"}},{"type":"Feature","geometry":{"type":"Point","coordinates":[55.227672,25.168678]},"properties":{}},{"type":"Feature","geometry":{"type":"Point","coordinates":[55.189702,25.140049]},"properties":{"name":"Dhow & Lagoon Kitchen","cuisine":"chicken"}},{"type":"Feature","geometry":{"type":"Point","coordinates":[55.189088,25.140542]},"properties":{"name":"Wave View Caf\u00e9"}},{"type":"Feature","geometry":{"type":"Point","coordinates":[55.204023,25.154967]},"properties":{"name":"\u0637\u0647\u0631\u0627\u0646"}},{"type":"Feature","geometry":{"type":"Point","coordinates":[55.196672,25.117087]},"properties":{"name":"Mall View Palace"}},{"type":"Feature","geometry":{"type":"Point","coordinates":[55.217081,25.139478]},"properties":{"name":"Reem Al Bawadi (Sheikh Zayed Road Branch)","cuisine":"arab;sheesha"}},{"type":"Feature","geometry":{"type":"Point","coordinates":[55.229297,25.186222]},"properties":{"name":"Amanos Restaurant and Cafe","cuisine":"arabic"}},{"type":"Feature","geometry":{"type":"Point","coordinates":[55.270853,25.197121]},"properties":{"name":"\u0631\u064a\u0645 \u0627\u0644\u0628\u0648\u0627\u062f\u064a","cuisine":"arab"}},{"type":"Feature","geometry":{"type":"Point","coordinates":[55.205435,25.114225]},"properties":{"name":"Shawarmaji Restaurant and Coffee Shop"}},{"type":"Feature","geometry":{"type":"Point","coordinates":[55.24538,25.149602]},"properties":{"name":"New Wide Range","cuisine":"indian;chinese"}},{"type":"Feature","geometry":{"type":"Point","coordinates":[55.184653,25.133665]},"properties":{"name":"Toscana","cuisine":"italian"}},{"type":"Feature","geometry":{"type":"Point","coordinates":[55.198974,25.118014]},"properties":{"name":"Food Court (south)"}},{"type":"Feature","geometry":{"type":"Point","coordinates":[55.20543,25.114377]},"properties":{"name":"Red Tomato Pizza","cuisine":"italian;pizza"}},{"type":"Feature","geometry":{"type":"Point","coordinates":[55.201231,25.114839]},"properties":{"name":"Bistro 55"}},{"type":"Feature","geometry":{"type":"Point","coordinates":[55.242809,25.151066]},"properties":{"name":"Shehar-e-Karachi Restaurant","cuisine":"pakistani"}},{"type":"Feature","geometry":{"type":"Point","coordinates":[55.245769,25.147958]},"properties":{}},{"type":"Feature","geometry":{"type":"Point","coordinates":[55.185392,25.141126]},"properties":{"name":"\u0627\u0644\u0645\u064e\u062d\u0627\u0631\u0629"}},{"type":"Feature","geometry":{"type":"Point","coordinates":[55.193014,25.114493]},"properties":{"name":"Chimes"}},{"type":"Feature","geometry":{"type":"Point","coordinates":[55.190374,25.141338]},"properties":{"name":"D&A","cuisine":"british"}},{"type":"Feature","geometry":{"type":"Point","coordinates":[55.219664,25.139793]},"properties":{"name":"Mandilicious"}},{"type":"Feature","geometry":{"type":"Point","coordinates":[55.196253,25.116821]},"properties":{"name":"Nando's"}},{"type":"Feature","geometry":{"type":"Point","coordinates":[55.217361,25.140181]},"properties":{"name":"Bystro","cuisine":"Modern_European;european;dessert"}},{"type":"Feature","geometry":{"type":"Point","coordinates":[55.256754,25.174486]},"properties":{"name":"Afghan Khorasan Restaurant","cuisine":"kebab"}},{"type":"Feature","geometry":{"type":"Point","coordinates":[55.197167,25.151509]},"properties":{"name":"Bu Qtair Fish Restaurant","cuisine":"fish"}},{"type":"Feature","geometry":{"type":"Point","coordinates":[55.238332,25.198223]},"properties":{"name":"\u0635\u0645\u062f \u0627\u0644\u0639\u0631\u0627\u0642\u064a"}},{"type":"Feature","geometry":{"type":"Point","coordinates":[55.241899,25.169438]},"properties":{"name":"\u0628\u064a\u062a\u0632\u0627 \u0647\u062a","cuisine":"pizza"}},{"type":"Feature","geometry":{"type":"Point","coordinates":[55.265723,25.190766]},"properties":{"name":"Taqado Bussiness bay"}},{"type":"Feature","geometry":{"type":"Point","coordinates":[55.24668,25.195942]},"properties":{"name":"Gossip"}},{"type":"Feature","geometry":{"type":"Point","coordinates":[55.236711,25.120311]},"properties":{"name":"Cateria central kitachen"}},{"type":"Feature","geometry":{"type":"Point","coordinates":[55.222158,25.127163]},"properties":{"name":"Abdel wahab central kitchen"}},{"type":"Feature","geometry":{"type":"Point","coordinates":[55.203707,25.116978]},"properties":{"name":"Grill'O Peri Peri Chicken"}},{"type":"Feature","geometry":{"type":"Point","coordinates":[55.21785,25.11189]},"properties":{"name":"Cabrito"}},{"type":"Feature","geometry":{"type":"Point","coordinates":[55.266248,25.161577]},"properties":{"name":"\u0622\u064a\u0633 \u0644\u0628"}},{"type":"Feature","geometry":{"type":"Point","coordinates":[55.219907,25.144163]},"properties":{"name":"Jones the grocer"}},{"type":"Feature","geometry":{"type":"Point","coordinates":[55.172572,25.113135]},"properties":{"name":"Rite Bite"}},{"type":"Feature","geometry":{"type":"Point","coordinates":[55.232538,25.12469]},"properties":{"name":"Royal Pot Restaurant"}},{"type":"Feature","geometry":{"type":"Point","coordinates":[55.231639,25.122083]},"properties":{}},{"type":"Feature","geometry":{"type":"Point","coordinates":[55.200318,25.150853]},"properties":{}},{"type":"Feature","geometry":{"type":"Point","coordinates":[55.193525,25.114044]},"properties":{"name":"\u0645\u0637\u0639\u0645 \u0627\u0644\u0631\u0648\u0645\u0627\u0646\u0633\u064a\u0629 \u0627\u0644\u064a\u0645\u0646\u064a","cuisine":"arab"}},{"type":"Feature","geometry":{"type":"Point","coordinates":[55.215167,25.127476]},"properties":{"name":"Mister Bakery"}},{"type":"Feature","geometry":{"type":"Point","coordinates":[55.183321,25.133338]},"properties":{}},{"type":"Feature","geometry":{"type":"Point","coordinates":[55.238475,25.118264]},"properties":{"name":"La Marquis"}},{"type":"Feature","geometry":{"type":"Point","coordinates":[55.243425,25.171435]},"properties":{"name":"\u0627\u0644\u0634\u0646\u062f\u0642\u0647 \u0645\u0637\u0627\u0639\u0645 \u0634\u0639\u0628\u064a\u0647"}},{"type":"Feature","geometry":{"type":"Point","coordinates":[55.190474,25.114018]},"properties":{"name":"Ibn Hamido","cuisine":"seafood"}},{"type":"Feature","geometry":{"type":"Point","coordinates":[55.259954,25.183967]},"properties":{"name":"Spring Onion","cuisine":"sandwich;breakfast;grill;tea;seafood;chinese;chicken;kebab;indian;curry"}},{"type":"Feature","geometry":{"type":"Point","coordinates":[55.218019,25.174953]},"properties":{"name":"The Beach House - Bait Al Bahar"}},{"type":"Feature","geometry":{"type":"Point","coordinates":[55.249623,25.15077]},"properties":{"name":"Manado","cuisine":"burger"}},{"type":"Feature","geometry":{"type":"Point","coordinates":[55.263335,25.181449]},"properties":{"name":"Falafel Farm"}},{"type":"Feature","geometry":{"type":"Point","coordinates":[55.225616,25.153484]},"properties":{"name":"Nara Cafe and Restaurant"}},{"type":"Feature","geometry":{"type":"Point","coordinates":[55.225723,25.153661]},"properties":{"name":"Soul Fiumi"}},{"type":"Feature","geometry":{"type":"Point","coordinates":[55.223607,25.151402]},"properties":{"name":"Maraheb Restaurant","cuisine":"local"}},{"type":"Feature","geometry":{"type":"Point","coordinates":[55.223513,25.151361]},"properties":{"name":"Bundoo Khan","cuisine":"pakistani"}},{"type":"Feature","geometry":{"type":"Point","coordinates":[55.197958,25.151812]},"properties":{"name":"Al Fannah Restaurant","cuisine":"fish"}},{"type":"Feature","geometry":{"type":"Point","coordinates":[55.199095,25.153434]},"properties":{"name":"Pizzaro - Jumairah","cuisine":"pizza"}},{"type":"Feature","geometry":{"type":"Point","coordinates":[55.19916,25.153349]},"properties":{"name":"Origami Sushi fusion restaurant","cuisine":"sushi"}},{"type":"Feature","geometry":{"type":"Point","coordinates":[55.199099,25.153304]},"properties":{"name":"Meat Me There","cuisine":"burger"}},{"type":"Feature","geometry":{"type":"Point","coordinates":[55.24151,25.168984]},"properties":{"name":"Bombay Chowpatty"}},{"type":"Feature","geometry":{"type":"Point","coordinates":[55.255355,25.175317]},"properties":{"name":"Al Quoz Restaurant"}},{"type":"Feature","geometry":{"type":"Point","coordinates":[55.186157,25.133855]},"properties":{"name":"Noodle House"}},{"type":"Feature","geometry":{"type":"Point","coordinates":[55.208603,25.117928]},"properties":{"name":"Pizza Hut","cuisine":"pizza"}},{"type":"Feature","geometry":{"type":"Point","coordinates":[55.2084,25.124021]},"properties":{"name":"Vendome Paris"}},{"type":"Feature","geometry":{"type":"Point","coordinates":[55.191714,25.112263]},"properties":{"name":"Sheikh Al Mandi"}},{"type":"Feature","geometry":{"type":"Point","coordinates":[55.22239,25.133109]},"properties":{"name":"New Luck Restaurant"}},{"type":"Feature","geometry":{"type":"Point","coordinates":[55.194748,25.114528]},"properties":{"name":"chalet grill plus"}},{"type":"Feature","geometry":{"type":"Point","coordinates":[55.236279,25.12707]},"properties":{"name":"DESL HUT Restaurant"}},{"type":"Feature","geometry":{"type":"Point","coordinates":[55.231953,25.190862]},"properties":{"name":"Volt"}},{"type":"Feature","geometry":{"type":"Point","coordinates":[55.231853,25.19075]},"properties":{"name":"Samur Al Sushi","cuisine":"sushi"}},{"type":"Feature","geometry":{"type":"Point","coordinates":[55.231645,25.190437]},"properties":{"name":"Selate"}},{"type":"Feature","geometry":{"type":"Point","coordinates":[55.231622,25.1904]},"properties":{"name":"Papa Junior"}},{"type":"Feature","geometry":{"type":"Point","coordinates":[55.231592,25.190365]},"properties":{"name":"Sapphire Seafood"}},{"type":"Feature","geometry":{"type":"Point","coordinates":[55.231555,25.19033]},"properties":{"name":"Sheel Alashi"}},{"type":"Feature","geometry":{"type":"Point","coordinates":[55.230663,25.189138]},"properties":{"name":"Arz Lebanon"}},{"type":"Feature","geometry":{"type":"Point","coordinates":[55.222507,25.178547]},"properties":{"name":"Moylos Burgers"}},{"type":"Feature","geometry":{"type":"Point","coordinates":[55.222371,25.17837]},"properties":{"name":"303"}},{"type":"Feature","geometry":{"type":"Point","coordinates":[55.222145,25.178079]},"properties":{"name":"Sea Shell"}},{"type":"Feature","geometry":{"type":"Point","coordinates":[55.221847,25.177694]},"properties":{"name":"Barracuda"}},{"type":"Feature","geometry":{"type":"Point","coordinates":[55.219322,25.174433]},"properties":{"name":"Lads Burger"}},{"type":"Feature","geometry":{"type":"Point","coordinates":[55.219274,25.174369]},"properties":{"name":"Huff & Puff Burger"}},{"type":"Feature","geometry":{"type":"Point","coordinates":[55.219231,25.174326]},"properties":{"name":"Sowr"}},{"type":"Feature","geometry":{"type":"Point","coordinates":[55.219026,25.174106]},"properties":{"name":"B7B Italia"}},{"type":"Feature","geometry":{"type":"Point","coordinates":[55.216966,25.171515]},"properties":{"name":"Hamptons Cafe"}},{"type":"Feature","geometry":{"type":"Point","coordinates":[55.216726,25.171138]},"properties":{"name":"Itzza Pizza"}},{"type":"Feature","geometry":{"type":"Point","coordinates":[55.216674,25.171075]},"properties":{"name":"The Burgr Factory","cuisine":"burger;dessert;american;milkshakes"}},{"type":"Feature","geometry":{"type":"Point","coordinates":[55.241007,25.132848]},"properties":{"name":"King Chef"}},{"type":"Feature","geometry":{"type":"Point","coordinates":[55.241988,25.132679]},"properties":{"name":"Landmark Restaurant"}},{"type":"Feature","geometry":{"type":"Point","coordinates":[55.205882,25.157973]},"properties":{"name":"Burger Trip"}},{"type":"Feature","geometry":{"type":"Point","coordinates":[55.205827,25.157922]},"properties":{"name":"Hum Yum"}},{"type":"Feature","geometry":{"type":"Point","coordinates":[55.205756,25.157821]},"properties":{"name":"Canary"}},{"type":"Feature","geometry":{"type":"Point","coordinates":[55.205392,25.157397]},"properties":{"name":"Doner Deli"}},{"type":"Feature","geometry":{"type":"Point","coordinates":[55.199739,25.15083]},"properties":{"name":"Shawarma"}},{"type":"Feature","geometry":{"type":"Point","coordinates":[55.199711,25.150778]},"properties":{"name":"Heat"}},{"type":"Feature","geometry":{"type":"Point","coordinates":[55.19843,25.149317]},"properties":{"name":"Kar Food"}},{"type":"Feature","geometry":{"type":"Point","coordinates":[55.198399,25.14928]},"properties":{"name":"Poke"}},{"type":"Feature","geometry":{"type":"Point","coordinates":[55.1976,25.148415]},"properties":{"name":"Al Shawerma Al Turkia"}},{"type":"Feature","geometry":{"type":"Point","coordinates":[55.235703,25.132563]},"properties":{"name":"Karachi Restaurant"}},{"type":"Feature","geometry":{"type":"Point","coordinates":[55.238639,25.198763]},"properties":{"name":"Shu"}},{"type":"Feature","geometry":{"type":"Point","coordinates":[55.218509,25.172268]},"properties":{"name":"Buffalo Wild Wings","cuisine":"wings"}},{"type":"Feature","geometry":{"type":"Point","coordinates":[55.210407,25.16253]},"properties":{"name":"Sun Shine Restaurant"}},{"type":"Feature","geometry":{"type":"Point","coordinates":[55.20944,25.161316]},"properties":{"name":"Biryani Pot"}},{"type":"Feature","geometry":{"type":"Point","coordinates":[55.209536,25.161424]},"properties":{"name":"Bin Sina"}},{"type":"Feature","geometry":{"type":"Point","coordinates":[55.203576,25.1546]},"properties":{"name":"The Stuffed Burger"}},{"type":"Feature","geometry":{"type":"Point","coordinates":[55.197078,25.147039]},"properties":{"name":"Mamma Italia"}},{"type":"Feature","geometry":{"type":"Point","coordinates":[55.246757,25.132171]},"properties":{"name":"City Diamond Restaurant"}},{"type":"Feature","geometry":{"type":"Point","coordinates":[55.206435,25.111726]},"properties":{"name":"\u0627\u0644\u0628\u0631\u0634\u0627\u0621"}},{"type":"Feature","geometry":{"type":"Point","coordinates":[55.206505,25.111815]},"properties":{"name":"Kababi"}},{"type":"Feature","geometry":{"type":"Point","coordinates":[55.249807,25.135173]},"properties":{"name":"Qaser Alqouze Traditional Kitchen"}},{"type":"Feature","geometry":{"type":"Point","coordinates":[55.242352,25.151415]},"properties":{"name":"Shama Al Madina Restaurant"}},{"type":"Feature","geometry":{"type":"Point","coordinates":[55.206141,25.113036]},"properties":{"name":"Sabah Lebanon Restaurant & Grill"}},{"type":"Feature","geometry":{"type":"Point","coordinates":[55.242979,25.171923]},"properties":{"name":"Zahret Alrumman"}},{"type":"Feature","geometry":{"type":"Point","coordinates":[55.206111,25.114893]},"properties":{"name":"Abu Tarek Koshari & Halawani","cuisine":"egyptian"}},{"type":"Feature","geometry":{"type":"Point","coordinates":[55.205712,25.116597]},"properties":{"name":"Gandofly","cuisine":"egyptian;seafood"}},{"type":"Feature","geometry":{"type":"Point","coordinates":[55.204059,25.117117]},"properties":{"name":"Pearl View"}},{"type":"Feature","geometry":{"type":"Point","coordinates":[55.204706,25.115849]},"properties":{"name":"Bikanervala","cuisine":"indian"}},{"type":"Feature","geometry":{"type":"Point","coordinates":[55.204589,25.115816]},"properties":{"name":"Bait Al Mandi Restaurant"}},{"type":"Feature","geometry":{"type":"Point","coordinates":[55.204257,25.11579]},"properties":{"name":"Moshi","cuisine":"sushi"}},{"type":"Feature","geometry":{"type":"Point","coordinates":[55.204186,25.115825]},"properties":{"name":"Green Lagoon Restaurant","cuisine":"indian;pakiatani;chinese"}},{"type":"Feature","geometry":{"type":"Point","coordinates":[55.203854,25.116045]},"properties":{"name":"Pizzaro","cuisine":"pizza"}},{"type":"Feature","geometry":{"type":"Point","coordinates":[55.195754,25.111532]},"properties":{"name":"Maakulat Alprince Restaurant","cuisine":"egyptian;grill;falafel;meals;barbecue;rice;soup;salad;sweet;dessert;shawarma;juice;drinks;coffee;appitizers;pizza;arab"}},{"type":"Feature","geometry":{"type":"Point","coordinates":[55.195631,25.111679]},"properties":{"name":"Country Land"}},{"type":"Feature","geometry":{"type":"Point","coordinates":[55.194892,25.11483]},"properties":{"name":"Chalet Grill Plus"}},{"type":"Feature","geometry":{"type":"Point","coordinates":[55.195087,25.114599]},"properties":{"name":"Harat Al Sham"}},{"type":"Feature","geometry":{"type":"Point","coordinates":[55.192734,25.114741]},"properties":{"name":"Best Bites"}},{"type":"Feature","geometry":{"type":"Point","coordinates":[55.233517,25.13181]},"properties":{"name":"\u0645\u0637\u0639\u0645 \u0627\u0644\u0645\u062f\u064a\u0646\u0629"}},{"type":"Feature","geometry":{"type":"Point","coordinates":[55.246048,25.147318]},"properties":{"name":"Zam Zam Restaurant"}},{"type":"Feature","geometry":{"type":"Point","coordinates":[55.191953,25.11243]},"properties":{"name":"Caspian"}},{"type":"Feature","geometry":{"type":"Point","coordinates":[55.204562,25.111741]},"properties":{"name":"Karek & Harek"}},{"type":"Feature","geometry":{"type":"Point","coordinates":[55.204397,25.11194]},"properties":{"name":"Seven Spikes"}},{"type":"Feature","geometry":{"type":"Point","coordinates":[55.204735,25.112447]},"properties":{"name":"Delhi Dorbor"}},{"type":"Feature","geometry":{"type":"Point","coordinates":[55.203533,25.114276]},"properties":{"name":"Falcon Restaurant"}},{"type":"Feature","geometry":{"type":"Point","coordinates":[55.19445,25.113474]},"properties":{"name":"Bab Sharqi"}},{"type":"Feature","geometry":{"type":"Point","coordinates":[55.194585,25.116867]},"properties":{"name":"Eat & Drink"}},{"type":"Feature","geometry":{"type":"Point","coordinates":[55.194975,25.116165]},"properties":{"name":"800 Pizza","cuisine":"pizza"}},{"type":"Feature","geometry":{"type":"Point","coordinates":[55.194946,25.11615]},"properties":{"name":"Harput Restaurant","cuisine":"turkish"}},{"type":"Feature","geometry":{"type":"Point","coordinates":[55.194517,25.115951]},"properties":{"name":"The Royal Budha","cuisine":"thai"}},{"type":"Feature","geometry":{"type":"Point","coordinates":[55.193983,25.116369]},"properties":{"name":"Xennya Terrace"}},{"type":"Feature","geometry":{"type":"Point","coordinates":[55.194306,25.114987]},"properties":{"name":"Eat & Tasty Restaurant"}},{"type":"Feature","geometry":{"type":"Point","coordinates":[55.192964,25.113804]},"properties":{"name":"Edible Arrangements"}},{"type":"Feature","geometry":{"type":"Point","coordinates":[55.193124,25.112863]},"properties":{"name":"Kabab Rolls"}},{"type":"Feature","geometry":{"type":"Point","coordinates":[55.193355,25.112592]},"properties":{"name":"Sarhad Darbar Restaurant"}},{"type":"Feature","geometry":{"type":"Point","coordinates":[55.190959,25.113153]},"properties":{"name":"Mumtaz Fried Chicken"}},{"type":"Feature","geometry":{"type":"Point","coordinates":[55.190928,25.113133]},"properties":{"name":"PizzaAroma"}},{"type":"Feature","geometry":{"type":"Point","coordinates":[55.190908,25.113117]},"properties":{"name":"Spinzer Restaurant"}},{"type":"Feature","geometry":{"type":"Point","coordinates":[55.190886,25.113105]},"properties":{"name":"Brick Lane","cuisine":"indian"}},{"type":"Feature","geometry":{"type":"Point","coordinates":[55.202789,25.114769]},"properties":{"name":"Chops N Hopes","cuisine":"arab"}},{"type":"Feature","geometry":{"type":"Point","coordinates":[55.204689,25.114815]},"properties":{"name":"Shawarma","cuisine":"shawarma"}},{"type":"Feature","geometry":{"type":"Point","coordinates":[55.204732,25.11477]},"properties":{"name":"Doner Kebab","cuisine":"kebab"}},{"type":"Feature","geometry":{"type":"Point","coordinates":[55.205439,25.114307]},"properties":{"name":"JJ Chicken Legend"}},{"type":"Feature","geometry":{"type":"Point","coordinates":[55.206311,25.11314]},"properties":{"name":"Chin Chin","cuisine":"chinese"}},{"type":"Feature","geometry":{"type":"Point","coordinates":[55.238424,25.185311]},"properties":{"name":"Chinese Kitchen"}},{"type":"Feature","geometry":{"type":"Point","coordinates":[55.183955,25.123859]},"properties":{"name":"Red Pepper"}},{"type":"Feature","geometry":{"type":"Point","coordinates":[55.253845,25.171358]},"properties":{"name":"Ahbab Restaurant"}},{"type":"Feature","geometry":{"type":"Point","coordinates":[55.270444,25.187826]},"properties":{"name":"Square Root"}},{"type":"Feature","geometry":{"type":"Point","coordinates":[55.249481,25.167009]},"properties":{"name":"\u0648\u0627\u062f\u064a \u0627\u0644\u0646\u0648\u0631"}},{"type":"Feature","geometry":{"type":"Point","coordinates":[55.249367,25.166884]},"properties":{"name":"\u0645\u0637\u0639\u0645 \u0627\u0644\u0642\u0628\u0627\u0626\u0644"}},{"type":"Feature","geometry":{"type":"Point","coordinates":[55.248692,25.166042]},"properties":{"name":"Al Razooqi"}},{"type":"Feature","geometry":{"type":"Point","coordinates":[55.250481,25.150987]},"properties":{"name":"Star One Restaurant"}},{"type":"Feature","geometry":{"type":"Point","coordinates":[55.252447,25.164566]},"properties":{"name":"Ashbilla Restaurant"}},{"type":"Feature","geometry":{"type":"Point","coordinates":[55.254564,25.16276]},"properties":{"name":"Ashbilia Cafeteria"}},{"type":"Feature","geometry":{"type":"Point","coordinates":[55.256651,25.167659]},"properties":{"name":"Eat & Drink Restaurant"}},{"type":"Feature","geometry":{"type":"Point","coordinates":[55.214287,25.114004]},"properties":{}},{"type":"Feature","geometry":{"type":"Point","coordinates":[55.24641,25.155765]},"properties":{"name":"Al Shezan Restaurant"}},{"type":"Feature","geometry":{"type":"Point","coordinates":[55.245509,25.154978]},"properties":{"name":"UP House Restaurant"}},{"type":"Feature","geometry":{"type":"Point","coordinates":[55.243933,25.153582]},"properties":{"name":"Tasty Food International"}},{"type":"Feature","geometry":{"type":"Point","coordinates":[55.243291,25.151148]},"properties":{"name":"Pak Darbar"}},{"type":"Feature","geometry":{"type":"Point","coordinates":[55.243761,25.151557]},"properties":{"name":"Shambath Fanan"}},{"type":"Feature","geometry":{"type":"Point","coordinates":[55.243993,25.151789]},"properties":{"name":"Khair Darbar"}},{"type":"Feature","geometry":{"type":"Point","coordinates":[55.244268,25.152033]},"properties":{"name":"Al Garhood Traditional Restaurant and Kitchen"}},{"type":"Feature","geometry":{"type":"Point","coordinates":[55.246469,25.153984]},"properties":{"name":"Al Madeena Restaurant"}},{"type":"Feature","geometry":{"type":"Point","coordinates":[55.246901,25.154347]},"properties":{"name":"City Pearl"}},{"type":"Feature","geometry":{"type":"Point","coordinates":[55.249072,25.15627]},"properties":{"name":"Shere Punjab"}},{"type":"Feature","geometry":{"type":"Point","coordinates":[55.249651,25.156778]},"properties":{"name":"Al Azhar"}},{"type":"Feature","geometry":{"type":"Point","coordinates":[55.240914,25.148236]},"properties":{"name":"Delicia Foods"}},{"type":"Feature","geometry":{"type":"Point","coordinates":[55.251908,25.158867]},"properties":{"name":"Lucknow Restaurant"}},{"type":"Feature","geometry":{"type":"Point","coordinates":[55.251309,25.158332]},"properties":{"name":"Sayapatri Restaurant"}},{"type":"Feature","geometry":{"type":"Point","coordinates":[55.25125,25.15827]},"properties":{"name":"Mahjabin Restaurant"}},{"type":"Feature","geometry":{"type":"Point","coordinates":[55.251133,25.158173]},"properties":{"name":"Al Manama Restaurant"}},{"type":"Feature","geometry":{"type":"Point","coordinates":[55.250806,25.157811]},"properties":{"name":"Al Madina Restaurant"}},{"type":"Feature","geometry":{"type":"Point","coordinates":[55.246441,25.156226]},"properties":{"name":"Zaiqa"}},{"type":"Feature","geometry":{"type":"Point","coordinates":[55.245951,25.155802]},"properties":{"name":"Utsav Restaurant"}},{"type":"Feature","geometry":{"type":"Point","coordinates":[55.245384,25.155296]},"properties":{"name":"Badi City"}},{"type":"Feature","geometry":{"type":"Point","coordinates":[55.24516,25.155106]},"properties":{"name":"Neem Cafeteria"}},{"type":"Feature","geometry":{"type":"Point","coordinates":[55.243902,25.153971]},"properties":{"name":"Up Star Restaurant"}},{"type":"Feature","geometry":{"type":"Point","coordinates":[55.243197,25.15336]},"properties":{"name":"Hot Spice"}},{"type":"Feature","geometry":{"type":"Point","coordinates":[55.24244,25.15265]},"properties":{"name":"\u0634\u0631\u0641 \u0627\u0644\u062f\u064a\u0646"}},{"type":"Feature","geometry":{"type":"Point","coordinates":[55.242137,25.152382]},"properties":{"name":"\u0645\u062d\u0645\u062f \u0648\u0642\u0627\u0635"}},{"type":"Feature","geometry":{"type":"Point","coordinates":[55.249384,25.157697]},"properties":{"name":"City Coast"}},{"type":"Feature","geometry":{"type":"Point","coordinates":[55.248423,25.157554]},"properties":{"name":"Lahore Badshan Restaurant"}},{"type":"Feature","geometry":{"type":"Point","coordinates":[55.247815,25.157024]},"properties":{"name":"Jebel Al Noor"}},{"type":"Feature","geometry":{"type":"Point","coordinates":[55.221577,25.163053]},"properties":{"name":"Oasis Restaurant"}},{"type":"Feature","geometry":{"type":"Point","coordinates":[55.246238,25.178009]},"properties":{"name":"Sea World Seafood Restaurant"}},{"type":"Feature","geometry":{"type":"Point","coordinates":[55.246108,25.177826]},"properties":{"name":"Sobahn Korean Japanese Restaurant"}},{"type":"Feature","geometry":{"type":"Point","coordinates":[55.245902,25.177598]},"properties":{"name":"Hadoota Masreya","cuisine":"egyptian"}},{"type":"Feature","geometry":{"type":"Point","coordinates":[55.245663,25.177371]},"properties":{"name":"Shang Thai"}},{"type":"Feature","geometry":{"type":"Point","coordinates":[55.245554,25.177224]},"properties":{"name":"Khaneen Kuwait Cuisine"}},{"type":"Feature","geometry":{"type":"Point","coordinates":[55.24549,25.177122]},"properties":{"name":"Iftar Buffet"}},{"type":"Feature","geometry":{"type":"Point","coordinates":[55.245352,25.176981]},"properties":{"name":"Villa Barcelona Cafe"}},{"type":"Feature","geometry":{"type":"Point","coordinates":[55.244752,25.176365]},"properties":{"name":"Romys Restaurant & Confectionery"}},{"type":"Feature","geometry":{"type":"Point","coordinates":[55.216431,25.17098]},"properties":{"name":"\u0645\u0627\u062f\u0648 \u062c\u0645\u064a\u0631\u0627"}},{"type":"Feature","geometry":{"type":"Point","coordinates":[55.198947,25.116837]},"properties":{"name":"TGI Fridays","cuisine":"american"}},{"type":"Feature","geometry":{"type":"Point","coordinates":[55.199094,25.116985]},"properties":{"name":"IHOP","cuisine":"breakfast;pancake"}},{"type":"Feature","geometry":{"type":"Point","coordinates":[55.245266,25.143722]},"properties":{"name":"Staff Cafeteria"}},{"type":"Feature","geometry":{"type":"Point","coordinates":[55.246599,25.14267]},"properties":{"name":"Staff Cafeteria"}},{"type":"Feature","geometry":{"type":"Point","coordinates":[55.21761,25.141019]},"properties":{"name":"Denny's"}},{"type":"Feature","geometry":{"type":"Point","coordinates":[55.203678,25.116913]},"properties":{"name":"El Amoor"}},{"type":"Feature","geometry":{"type":"Point","coordinates":[55.18424,25.135074]},"properties":{"name":"Shimmers","cuisine":"greek"}},{"type":"Feature","geometry":{"type":"Point","coordinates":[55.224658,25.142725]},"properties":{"name":"Wild & The Moon"}},{"type":"Feature","geometry":{"type":"Point","coordinates":[55.249623,25.150978]},"properties":{"name":"\u0645\u0646\u0627\u062f\u0648"}},{"type":"Feature","geometry":{"type":"Point","coordinates":[55.246702,25.14878]},"properties":{"name":"CurryKoottu","cuisine":"asian;arab;burger;chicken;coffee_shop;curry;fish_and_chips;grill;indian;seafood"}},{"type":"Feature","geometry":{"type":"Point","coordinates":[55.212745,25.114965]},"properties":{"name":"Fish Hut Restaurant"}},{"type":"Feature","geometry":{"type":"Point","coordinates":[55.263949,25.184779]},"properties":{"name":"Opera Blu"}},{"type":"Feature","geometry":{"type":"Point","coordinates":[55.20399,25.116299]},"properties":{"name":"chatauri gali","cuisine":"indian"}},{"type":"Feature","geometry":{"type":"Point","coordinates":[55.205202,25.112307]},"properties":{}},{"type":"Feature","geometry":{"type":"Point","coordinates":[55.205665,25.111766]},"properties":{}},{"type":"Feature","geometry":{"type":"Point","coordinates":[55.205491,25.11216]},"properties":{}},{"type":"Feature","geometry":{"type":"Point","coordinates":[55.183584,25.130756]},"properties":{"name":"paithai","cuisine":"thai"}},{"type":"Feature","geometry":{"type":"Point","coordinates":[55.253897,25.183594]},"properties":{"name":"BQ - French Kitchen & Bar","cuisine":"french"}},{"type":"Feature","geometry":{"type":"Point","coordinates":[55.254893,25.184282]},"properties":{"name":"Le Patio"}},{"type":"Feature","geometry":{"type":"Point","coordinates":[55.254731,25.184431]},"properties":{"name":"Namu"}},{"type":"Feature","geometry":{"type":"Point","coordinates":[55.255069,25.184431]},"properties":{"name":"Ribs & Brews"}},{"type":"Feature","geometry":{"type":"Point","coordinates":[55.254058,25.183555]},"properties":{"name":"The Roof Gardens"}},{"type":"Feature","geometry":{"type":"Point","coordinates":[55.255288,25.184285]},"properties":{"name":"The Market"}},{"type":"Feature","geometry":{"type":"Point","coordinates":[55.254499,25.183249]},"properties":{"name":"World Cut Steakhouse","cuisine":"steak_house"}},{"type":"Feature","geometry":{"type":"Point","coordinates":[55.254061,25.183433]},"properties":{"name":"Sidra"}},{"type":"Feature","geometry":{"type":"Point","coordinates":[55.264336,25.121395]},"properties":{"name":"Dubai Hills Golf Club"}},{"type":"Feature","geometry":{"type":"Point","coordinates":[55.190072,25.113711]},"properties":{"name":"Golden Fork Seafood Restaurant Al Barsha"}},{"type":"Feature","geometry":{"type":"Point","coordinates":[55.190834,25.114271]},"properties":{"name":"Kapadokya","cuisine":"turkish"}},{"type":"Feature","geometry":{"type":"Point","coordinates":[55.263069,25.18934]},"properties":{"name":"Pizza Hut","cuisine":"pizza"}},{"type":"Feature","geometry":{"type":"Point","coordinates":[55.198137,25.118423]},"properties":{"name":"The Butcher Shop & Grill","cuisine":"steak_house"}},{"type":"Feature","geometry":{"type":"Point","coordinates":[55.255184,25.18881]},"properties":{"name":"Muchachas Mexican Cantina","cuisine":"mexican"}},{"type":"Feature","geometry":{"type":"Point","coordinates":[55.258608,25.185972]},"properties":{"name":"Tong Thai","cuisine":"thai"}},{"type":"Feature","geometry":{"type":"Point","coordinates":[55.254486,25.184212]},"properties":{"cuisine":"steak_house"}},{"type":"Feature","geometry":{"type":"Point","coordinates":[55.201849,25.119049]},"properties":{"name":"Din Tai Fun","cuisine":"chinese"}},{"type":"Feature","geometry":{"type":"Point","coordinates":[55.266257,25.178709]},"properties":{}},{"type":"Feature","geometry":{"type":"Point","coordinates":[55.265165,25.189287]},"properties":{"name":"Tangerine","cuisine":"asian;thai;sushi"}},{"type":"Feature","geometry":{"type":"Point","coordinates":[55.265102,25.18921]},"properties":{"name":"Farsi","cuisine":"persian"}},{"type":"Feature","geometry":{"type":"Point","coordinates":[55.270027,25.197052]},"properties":{"name":"\u0628\u0627\u0628 \u0627\u0644\u0645\u0646\u0635\u0648\u0631","cuisine":"moroccan;arab"}},{"type":"Feature","geometry":{"type":"Point","coordinates":[55.198081,25.118267]},"properties":{"name":"The Cheesecake Factory","cuisine":"american"}},{"type":"Feature","geometry":{"type":"Point","coordinates":[55.197928,25.118318]},"properties":{"name":"Chili's","cuisine":"tex-mex"}},{"type":"Feature","geometry":{"type":"Point","coordinates":[55.270609,25.196808]},"properties":{"name":"Pizza Pino","cuisine":"pizza;italian;international"}},{"type":"Feature","geometry":{"type":"Point","coordinates":[55.258219,25.185774]},"properties":{"name":"Rang Mahal"}},{"type":"Feature","geometry":{"type":"Point","coordinates":[55.208846,25.164739]},"properties":{"name":"Tomato & Basilicp","cuisine":"italian"}},{"type":"Feature","geometry":{"type":"Point","coordinates":[55.197212,25.118192]},"properties":{}},{"type":"Feature","geometry":{"type":"Point","coordinates":[55.185245,25.135175]},"properties":{}},{"type":"Feature","geometry":{"type":"Point","coordinates":[55.194058,25.116248]},"properties":{"name":"Gharana","cuisine":"indian"}},{"type":"Feature","geometry":{"type":"Point","coordinates":[55.26957,25.196321]},"properties":{"name":"Tche-Tche","cuisine":"international"}},{"type":"Feature","geometry":{"type":"Point","coordinates":[55.244527,25.176241]},"properties":{"name":"Eric's","cuisine":"african"}},{"type":"Feature","geometry":{"type":"Point","coordinates":[55.264203,25.189245]},"properties":{"name":"Hot N Spicy"}},{"type":"Feature","geometry":{"type":"Point","coordinates":[55.253796,25.135316]},"properties":{"name":"Top form restaurant"}},{"type":"Feature","geometry":{"type":"Point","coordinates":[55.252731,25.132829]},"properties":{"name":"Chimmini Rrstaurant"}},{"type":"Feature","geometry":{"type":"Point","coordinates":[55.193074,25.112914]},"properties":{"name":"AlAmour","cuisine":"regional"}},{"type":"Feature","geometry":{"type":"Point","coordinates":[55.269801,25.189216]},"properties":{"name":"Muhammad Iqbal Restaurant"}},{"type":"Feature","geometry":{"type":"Point","coordinates":[55.205349,25.114111]},"properties":{"name":"New Marina Restaurant"}},{"type":"Feature","geometry":{"type":"Point","coordinates":[55.206038,25.127411]},"properties":{"name":"Sweetheart Kitchen"}},{"type":"Feature","geometry":{"type":"Point","coordinates":[55.242862,25.170221]},"properties":{"name":"Pak Darbar"}},{"type":"Feature","geometry":{"type":"Point","coordinates":[55.255964,25.175252]},"properties":{"name":"Sweetheart Kitchen"}},{"type":"Feature","geometry":{"type":"Point","coordinates":[55.186489,25.136692]},"properties":{"name":"Il Borro Tuscan","cuisine":"italian"}},{"type":"Feature","geometry":{"type":"Point","coordinates":[55.270559,25.18727]},"properties":{"name":"Sahelnom Express"}},{"type":"Feature","geometry":{"type":"Point","coordinates":[55.246387,25.1955]},"properties":{"name":"Sarj Restaurant and Cafe"}},{"type":"Feature","geometry":{"type":"Point","coordinates":[55.216008,25.170334]},"properties":{"name":"Nine Squares"}},{"type":"Feature","geometry":{"type":"Point","coordinates":[55.195774,25.116782]},"properties":{"name":"La Mode","cuisine":"international"}},{"type":"Feature","geometry":{"type":"Point","coordinates":[55.194211,25.116224]},"properties":{"name":"The Gem Garden","cuisine":"international"}},{"type":"Feature","geometry":{"type":"Point","coordinates":[55.203336,25.115823]},"properties":{"name":"O'Leary's Sports Restaurant"}},{"type":"Feature","geometry":{"type":"Point","coordinates":[55.205866,25.115099]},"properties":{"name":"Sofra Turkish Restaurant","cuisine":"turkish"}},{"type":"Feature","geometry":{"type":"Point","coordinates":[55.206277,25.116296]},"properties":{"name":"Al Aumdah","cuisine":"arabic"}},{"type":"Feature","geometry":{"type":"Point","coordinates":[55.205903,25.116464]},"properties":{"name":"Wakha","cuisine":"afghan;pakistani"}},{"type":"Feature","geometry":{"type":"Point","coordinates":[55.205778,25.116543]},"properties":{"name":"Layali Aldhan","cuisine":"arabic;egyptian"}},{"type":"Feature","geometry":{"type":"Point","coordinates":[55.264572,25.18389]},"properties":{"cuisine":"lebanese"}},{"type":"Feature","geometry":{"type":"Point","coordinates":[55.197108,25.14707]},"properties":{"name":"Bosnian House","cuisine":"balkan"}},{"type":"Feature","geometry":{"type":"Point","coordinates":[55.194031,25.115157]},"properties":{"name":"Golden Eats"}},{"type":"Feature","geometry":{"type":"Point","coordinates":[55.249399,25.158376]},"properties":{"name":"New Al Baik"}},{"type":"Feature","geometry":{"type":"Point","coordinates":[55.235578,25.132561]},"properties":{"name":"Aryana Afghani Darbar"}},{"type":"Feature","geometry":{"type":"Point","coordinates":[55.269695,25.187933]},"properties":{"name":"Tandoori Junction"}},{"type":"Feature","geometry":{"type":"Point","coordinates":[55.269791,25.187914]},"properties":{"name":"Sweetheart Kitchen"}},{"type":"Feature","geometry":{"type":"Point","coordinates":[55.221222,25.176083]},"properties":{"name":"Machu Picchu","cuisine":"peruvian;burger;wings;fries;gourmet"}},{"type":"Feature","geometry":{"type":"Point","coordinates":[55.239788,25.189084]},"properties":{"name":"\u0645\u0637\u0639\u0645 \u0632\u064a\u0646\u0647 \u0644\u0644\u0645\u0646\u062f\u064a \u0648 \u0627\u0644\u0645\u0634\u0627\u0648\u064a"}},{"type":"Feature","geometry":{"type":"Point","coordinates":[55.185017,25.13423]},"properties":{}},{"type":"Feature","geometry":{"type":"Point","coordinates":[55.186286,25.136283]},"properties":{"name":"Beefbar Dubai","cuisine":"steak_house"}},{"type":"Feature","geometry":{"type":"Point","coordinates":[55.235363,25.180056]},"properties":{"name":"Majlis Al Sultan"}},{"type":"Feature","geometry":{"type":"Point","coordinates":[55.261966,25.191758]},"properties":{}},{"type":"Feature","geometry":{"type":"Point","coordinates":[55.2019,25.118613]},"properties":{"name":"L\u2019eto"}},{"type":"Feature","geometry":{"type":"Point","coordinates":[55.241581,25.198477]},"properties":{"name":"\u0623\u0631\u064a\u0628\u064a\u0627\u0646 \u062a\u064a \u0647\u0648\u0633","cuisine":"arab"}},{"type":"Feature","geometry":{"type":"Point","coordinates":[55.247596,25.197537]},"properties":{"name":"Al Abdalla"}},{"type":"Feature","geometry":{"type":"Point","coordinates":[55.246986,25.196731]},"properties":{"name":"Love Mhshy"}},{"type":"Feature","geometry":{"type":"Point","coordinates":[55.205687,25.140952]},"properties":{"name":"Mamaesh","cuisine":"regional"}},{"type":"Feature","geometry":{"type":"Point","coordinates":[55.249226,25.199975]},"properties":{"name":"Pizza Hut","cuisine":"pizza"}},{"type":"Feature","geometry":{"type":"Point","coordinates":[55.212038,25.132135]},"properties":{"name":"Sultan Saray"}},{"type":"Feature","geometry":{"type":"Point","coordinates":[55.238283,25.184464]},"properties":{"name":"China Garden","cuisine":"chinese"}},{"type":"Feature","geometry":{"type":"Point","coordinates":[55.219051,25.17285]},"properties":{"cuisine":"lebanese"}},{"type":"Feature","geometry":{"type":"Point","coordinates":[55.196559,25.13051]},"properties":{"name":"Tashas"}},{"type":"Feature","geometry":{"type":"Point","coordinates":[55.245871,25.194788]},"properties":{"cuisine":"burger"}},{"type":"Feature","geometry":{"type":"Point","coordinates":[55.221879,25.181698]},"properties":{"name":"R Hotels","cuisine":"regional"}},{"type":"Feature","geometry":{"type":"Point","coordinates":[55.226329,25.187225]},"properties":{"name":"Ramada Hotels & Suites by Wyndham Dubai JBR","cuisine":"regional;burger;indian"}},{"type":"Feature","geometry":{"type":"Point","coordinates":[55.189104,25.139793]},"properties":{}},{"type":"Feature","geometry":{"type":"Point","coordinates":[55.206064,25.113657]},"properties":{"name":"Maestro Pizza","cuisine":"pizza"}},{"type":"Feature","geometry":{"type":"Point","coordinates":[55.203716,25.116932]},"properties":{"name":"\u0645\u0637\u0639\u0645 \u0645\u0633\u0645\u0637 \u0628\u062d\u0647","cuisine":"egyptian"}},{"type":"Feature","geometry":{"type":"Point","coordinates":[55.246427,25.195557]},"properties":{"name":"Dark Shot"}},{"type":"Feature","geometry":{"type":"Point","coordinates":[55.246469,25.195618]},"properties":{"name":"Acai Hub"}},{"type":"Feature","geometry":{"type":"Point","coordinates":[55.246702,25.195757]},"properties":{"cuisine":"persian"}},{"type":"Feature","geometry":{"type":"Point","coordinates":[55.22262,25.136105]},"properties":{"name":"City Pearl Palace Restaurant"}},{"type":"Feature","geometry":{"type":"Point","coordinates":[55.224696,25.138589]},"properties":{"name":"Festival Restaurant"}},{"type":"Feature","geometry":{"type":"Point","coordinates":[55.257743,25.168355]},"properties":{"name":"Dar Al Shay","cuisine":"indian/kerala_cafeteria"}},{"type":"Feature","geometry":{"type":"Point","coordinates":[55.265868,25.199058]},"properties":{}},{"type":"Feature","geometry":{"type":"Point","coordinates":[55.18485,25.133488]},"properties":{"cuisine":"greek"}},{"type":"Feature","geometry":{"type":"Point","coordinates":[55.245233,25.193823]},"properties":{"name":"Reif","cuisine":"japanese"}},{"type":"Feature","geometry":{"type":"Point","coordinates":[55.216219,25.172849]},"properties":{"name":"Azeema Seafood Restaurant","cuisine":"seafood"}},{"type":"Feature","geometry":{"type":"Point","coordinates":[55.196675,25.150258]},"properties":{"name":"Arabian Tea House"}},{"type":"Feature","geometry":{"type":"Point","coordinates":[55.234485,25.192752]},"properties":{"name":"Taraf Restaurant and Cafe","cuisine":"regional;oriental"}},{"type":"Feature","geometry":{"type":"Point","coordinates":[55.258546,25.185914]},"properties":{"name":"La Farine"}},{"type":"Feature","geometry":{"type":"Point","coordinates":[55.258269,25.185832]},"properties":{"name":"Garden"}},{"type":"Feature","geometry":{"type":"Point","coordinates":[55.258376,25.185947]},"properties":{"name":"Izayaka","cuisine":"japanese;sushi"}},{"type":"Feature","geometry":{"type":"Point","coordinates":[55.258093,25.185893]},"properties":{"name":"Kitchen6"}},{"type":"Feature","geometry":{"type":"Point","coordinates":[55.261538,25.187935]},"properties":{"name":"El Gazebo"}},{"type":"Feature","geometry":{"type":"Point","coordinates":[55.257729,25.185258]},"properties":{"name":"Prime68","cuisine":"steak_house"}},{"type":"Feature","geometry":{"type":"Point","coordinates":[55.256487,25.185941]},"properties":{"name":"1 Oak"}},{"type":"Feature","geometry":{"type":"Point","coordinates":[55.26281,25.188769]},"properties":{"name":"Maestro Pizza"}},{"type":"Feature","geometry":{"type":"Point","coordinates":[55.259597,25.185959]},"properties":{"name":"Shawarma"}},{"type":"Feature","geometry":{"type":"Point","coordinates":[55.252672,25.180869]},"properties":{"name":"Il Pastaio Dubai","cuisine":"italian;pizza;burger;sandwich"}},{"type":"Feature","geometry":{"type":"Point","coordinates":[55.205367,25.115669]},"properties":{"name":"Saravanaa Bhavan","cuisine":"indian"}},{"type":"Feature","geometry":{"type":"Point","coordinates":[55.245837,25.19433]},"properties":{"name":"Myocum"}},{"type":"Feature","geometry":{"type":"Point","coordinates":[55.226375,25.149693]},"properties":{}},{"type":"Feature","geometry":{"type":"Point","coordinates":[55.205879,25.116752]},"properties":{}},{"type":"Feature","geometry":{"type":"Point","coordinates":[55.184032,25.123793]},"properties":{"name":"Koukh Al Shay"}},{"type":"Feature","geometry":{"type":"Point","coordinates":[55.199553,25.150621]},"properties":{}},{"type":"Feature","geometry":{"type":"Point","coordinates":[55.260331,25.199555]},"properties":{}},{"type":"Feature","geometry":{"type":"Point","coordinates":[55.264173,25.185858]},"properties":{"name":"Kimura-ya Restaurant Anantara"}},{"type":"Feature","geometry":{"type":"Point","coordinates":[55.198706,25.152601]},"properties":{"name":"Blu Pizzeri\u00e1","cuisine":"pizza"}},{"type":"Feature","geometry":{"type":"Point","coordinates":[55.227285,25.121879]},"properties":{"name":"Calo Fit","cuisine":"healthy_food"}},{"type":"Feature","geometry":{"type":"Point","coordinates":[55.183077,25.133767]},"properties":{"name":"French Riviera Beach","cuisine":"french"}},{"type":"Feature","geometry":{"type":"Point","coordinates":[55.185672,25.141403]},"properties":{"name":"L'Olivo","cuisine":"italian"}},{"type":"Feature","geometry":{"type":"Point","coordinates":[55.245033,25.193537]},"properties":{"name":"Moon Slice","cuisine":"pizza"}},{"type":"Feature","geometry":{"type":"Point","coordinates":[55.190294,25.144685]},"properties":{"name":"SALT"}},{"type":"Feature","geometry":{"type":"Point","coordinates":[55.195741,25.147375]},"properties":{"name":"\u0645\u0637\u062d\u0645 \u0647\u0648\u062a","cuisine":"seafood"}},{"type":"Feature","geometry":{"type":"Point","coordinates":[55.190679,25.144453]},"properties":{"name":"Meat the Fish Dubai"}},{"type":"Feature","geometry":{"type":"Point","coordinates":[55.19084,25.144357]},"properties":{"name":"PUBLIC"}},{"type":"Feature","geometry":{"type":"Point","coordinates":[55.195945,25.113914]},"properties":{"name":"The Pizza Pie Factory - Barsha","cuisine":"pizza"}},{"type":"Feature","geometry":{"type":"Point","coordinates":[55.197309,25.151006]},"properties":{"name":"Baba Al Bahar Seafood Restaurant Jumeirah","cuisine":"seafood"}},{"type":"Feature","geometry":{"type":"Point","coordinates":[55.266667,25.191036]},"properties":{"name":"Barbar Business Bay","cuisine":"arab;lebanese"}},{"type":"Feature","geometry":{"type":"Point","coordinates":[55.269744,25.191615]},"properties":{"cuisine":"indian"}},{"type":"Feature","geometry":{"type":"Point","coordinates":[55.26186,25.167386]},"properties":{"name":"Al Yemen Al Saeed","cuisine":"arab"}},{"type":"Feature","geometry":{"type":"Point","coordinates":[55.260649,25.183689]},"properties":{"cuisine":"arab"}},{"type":"Feature","geometry":{"type":"Point","coordinates":[55.198113,25.118553]},"properties":{"name":"Old Tbilisi"}},{"type":"Feature","geometry":{"type":"Point","coordinates":[55.22704,25.122025]},"properties":{"name":"Kitchen Works","cuisine":"pizza;coffee_shop;burger;sandwich;chicken;asian;ukrainian;filipino;chinese;italian;kebab;indian"}},{"type":"Feature","geometry":{"type":"Point","coordinates":[55.26964,25.18924]},"properties":{"name":"Apna Kolachi"}},{"type":"Feature","geometry":{"type":"Point","coordinates":[55.269952,25.189194]},"properties":{"name":"Saarangaa Bhojan Shala","cuisine":"indian"}},{"type":"Feature","geometry":{"type":"Point","coordinates":[55.264835,25.189011]},"properties":{"name":"Kamat Restaurant","cuisine":"indian"}},{"type":"Feature","geometry":{"type":"Point","coordinates":[55.264781,25.188969]},"properties":{"name":"ens\u014d","cuisine":"sushi"}},{"type":"Feature","geometry":{"type":"Point","coordinates":[55.26472,25.188928]},"properties":{"name":"Oventine by AlSafadi","cuisine":"arab"}},{"type":"Feature","geometry":{"type":"Point","coordinates":[55.264676,25.188884]},"properties":{"name":"Malak Al Tawouk","cuisine":"arab;lebanese"}},{"type":"Feature","geometry":{"type":"Point","coordinates":[55.23831,25.186306]},"properties":{"name":"Bait Al Shay","cuisine":"arab;breakfast;burger;chicken;coffee_shop;indian;sandwich"}},{"type":"Feature","geometry":{"type":"Point","coordinates":[55.236334,25.116447]},"properties":{"name":"BIG T","cuisine":"barbecue"}},{"type":"Feature","geometry":{"type":"Point","coordinates":[55.192717,25.111577]},"properties":{"name":"Pak Darbar"}},{"type":"Feature","geometry":{"type":"Point","coordinates":[55.186594,25.133454]},"properties":{"name":"AMARU","cuisine":"latin_american"}},{"type":"Feature","geometry":{"type":"Point","coordinates":[55.265788,25.190344]},"properties":{"name":"Gazebo","cuisine":"indian"}},{"type":"Feature","geometry":{"type":"Point","coordinates":[55.221978,25.172916]},"properties":{"name":"Maria Bonita Taco Shop & Grill"}},{"type":"Feature","geometry":{"type":"Point","coordinates":[55.266489,25.184563]},"properties":{"name":"Mordi","cuisine":"pizza"}},{"type":"Feature","geometry":{"type":"Point","coordinates":[55.267066,25.185309]},"properties":{"name":"Nando's","cuisine":"chicken;portuguese"}},{"type":"Feature","geometry":{"type":"Polygon","coordinates":[[[55.180945,25.134297],[55.180988,25.13434],[55.180971,25.134354],[55.181086,25.134464],[55.181106,25.134448],[55.181154,25.134496],[55.181182,25.134477],[55.181161,25.134451],[55.181219,25.134408],[55.181238,25.134427],[55.181299,25.134377],[55.181237,25.134307],[55.181271,25.134279],[55.181252,25.134258],[55.181232,25.134238],[55.181203,25.134208],[55.181169,25.134233],[55.1811,25.13416],[55.181018,25.134226],[55.181026,25.134233],[55.180945,25.134297]]]},"properties":{"name":"\u0645\u0637\u0639\u0645 \u0628\u064a\u064a\u0631 \u0634\u064a\u0643","cuisine":"italian"}},{"type":"Feature","geometry":{"type":"Polygon","coordinates":[[[55.189691,25.14213],[55.18981,25.142131],[55.189811,25.14196],[55.189692,25.141959],[55.189691,25.14213]]]},"properties":{"name":"Ocean Blue","cuisine":"seafood"}},{"type":"Feature","geometry":{"type":"Polygon","coordinates":[[[55.22306,25.178431],[55.223117,25.178501],[55.22314,25.178487],[55.223177,25.178532],[55.22325,25.178484],[55.223231,25.178459],[55.223321,25.1784],[55.223227,25.178284],[55.223094,25.178372],[55.223113,25.178396],[55.22306,25.178431]]]},"properties":{"name":"Taste of Arabia","cuisine":"lebanese"}},{"type":"Feature","geometry":{"type":"Polygon","coordinates":[[[55.249819,25.131729],[55.249971,25.131627],[55.249873,25.131508],[55.250426,25.131139],[55.25007,25.130702],[55.249365,25.131172],[55.249819,25.131729]]]},"properties":{"name":"Lahori Darbar Restaurant"}},{"type":"Feature","geometry":{"type":"Polygon","coordinates":[[[55.250722,25.174473],[55.250986,25.174288],[55.250879,25.174147],[55.250636,25.173945],[55.25039,25.174123],[55.250541,25.174261],[55.25054,25.174307],[55.250564,25.174326],[55.250593,25.174328],[55.250722,25.174473]]]},"properties":{}},{"type":"Feature","geometry":{"type":"Polygon","coordinates":[[[55.231697,25.112664],[55.231751,25.112738],[55.232014,25.112567],[55.232049,25.11261],[55.232132,25.112556],[55.231972,25.112356],[55.231715,25.11254],[55.231697,25.112664]]]},"properties":{"name":"Good Chef"}},{"type":"Feature","geometry":{"type":"Polygon","coordinates":[[[55.228559,25.11893],[55.229044,25.118622],[55.228845,25.118365],[55.228726,25.118353],[55.228314,25.118614],[55.228559,25.11893]]]},"properties":{"name":"Topform Restaurant"}},{"type":"Feature","geometry":{"type":"Polygon","coordinates":[[[55.227875,25.11978],[55.228008,25.119691],[55.227609,25.119198],[55.227578,25.119219],[55.227542,25.119175],[55.22744,25.119243],[55.227875,25.11978]]]},"properties":{"name":"Al SOmar Restaurant"}},{"type":"Feature","geometry":{"type":"Polygon","coordinates":[[[55.224276,25.128656],[55.224921,25.128228],[55.224815,25.128098],[55.22417,25.128525],[55.224276,25.128656]]]},"properties":{"name":"Al Bar Restaurant"}},{"type":"Feature","geometry":{"type":"Polygon","coordinates":[[[55.216045,25.170589],[55.216184,25.170498],[55.21631,25.170656],[55.216172,25.170747],[55.216045,25.170589]]]},"properties":{"name":"Elevation Burger"}},{"type":"Feature","geometry":{"type":"Polygon","coordinates":[[[55.235472,25.13083],[55.23544,25.130792],[55.235623,25.130679],[55.23561,25.130664],[55.235684,25.130612],[55.23569,25.130572],[55.235634,25.1305],[55.235647,25.130492],[55.235495,25.130305],[55.235557,25.130265],[55.235765,25.130528],[55.23574,25.130646],[55.235472,25.13083]]]},"properties":{"name":"Al Madeena Restaurant"}},{"type":"Feature","geometry":{"type":"Polygon","coordinates":[[[55.207875,25.160486],[55.207996,25.160402],[55.208021,25.160431],[55.208012,25.160438],[55.208062,25.160497],[55.208071,25.16049],[55.208151,25.160584],[55.208004,25.160686],[55.207939,25.160609],[55.207953,25.160599],[55.207921,25.160562],[55.207858,25.160605],[55.207791,25.160526],[55.207865,25.160475],[55.207875,25.160486]]]},"properties":{"name":"\u0632\u064a\u0637\u0648\u0646\u064a"}},{"type":"Feature","geometry":{"type":"Polygon","coordinates":[[[55.193266,25.143527],[55.193122,25.143359],[55.193189,25.143312],[55.193213,25.143339],[55.193301,25.143277],[55.193374,25.143362],[55.193314,25.143404],[55.193332,25.143425],[55.193406,25.143374],[55.193435,25.143408],[55.193266,25.143527]]]},"properties":{"name":"Sultan Baba Iskender"}},{"type":"Feature","geometry":{"type":"Polygon","coordinates":[[[55.221731,25.176785],[55.22193,25.176666],[55.22204,25.176817],[55.221989,25.17685],[55.221948,25.176865],[55.2219,25.176872],[55.221854,25.176861],[55.221819,25.176839],[55.221806,25.176821],[55.221772,25.176841],[55.221731,25.176785]]]},"properties":{"name":"Kabana","cuisine":"afghan;arabic;coffee"}},{"type":"Feature","geometry":{"type":"Polygon","coordinates":[[[55.209809,25.161846],[55.209733,25.161753],[55.209999,25.161577],[55.210092,25.161692],[55.209971,25.161772],[55.209954,25.161751],[55.209809,25.161846]]]},"properties":{"name":"Burger Fuel"}},{"type":"Feature","geometry":{"type":"Polygon","coordinates":[[[55.207468,25.159138],[55.207386,25.15904],[55.207544,25.158931],[55.207626,25.159029],[55.207468,25.159138]]]},"properties":{"name":"The Voice"}},{"type":"Feature","geometry":{"type":"Polygon","coordinates":[[[55.253127,25.132794],[55.253071,25.132726],[55.253308,25.132566],[55.253364,25.132633],[55.253127,25.132794]]]},"properties":{"name":"New Food"}},{"type":"Feature","geometry":{"type":"Polygon","coordinates":[[[55.249509,25.129926],[55.248782,25.130409],[55.248609,25.130196],[55.249335,25.129713],[55.249509,25.129926]]]},"properties":{"name":"Green Pepper Restauarant"}},{"type":"Feature","geometry":{"type":"Polygon","coordinates":[[[55.254915,25.134358],[55.254978,25.134437],[55.254706,25.134617],[55.254643,25.134538],[55.254915,25.134358]]]},"properties":{"name":"Point Food Restaurant"}},{"type":"Feature","geometry":{"type":"Polygon","coordinates":[[[55.244805,25.135096],[55.244946,25.135274],[55.245043,25.135211],[55.245019,25.135181],[55.244902,25.135033],[55.244805,25.135096]]]},"properties":{"name":"Public Cook"}},{"type":"Feature","geometry":{"type":"Polygon","coordinates":[[[55.220079,25.132246],[55.220182,25.132371],[55.220289,25.132299],[55.220187,25.132174],[55.220079,25.132246]]]},"properties":{"name":"Khareef Restaurant"}},{"type":"Feature","geometry":{"type":"Polygon","coordinates":[[[55.217408,25.128896],[55.217334,25.128801],[55.21739,25.128766],[55.21741,25.128792],[55.217463,25.128758],[55.217517,25.128827],[55.217408,25.128896]]]},"properties":{"name":"Hot & Cool"}},{"type":"Feature","geometry":{"type":"Polygon","coordinates":[[[55.254441,25.171896],[55.254438,25.171898],[55.254373,25.171945],[55.254366,25.17195],[55.254397,25.171985],[55.254472,25.17193],[55.254441,25.171896]]]},"properties":{"name":"Bahraini Kabab"}},{"type":"Feature","geometry":{"type":"Polygon","coordinates":[[[55.244421,25.171176],[55.244466,25.17114],[55.244411,25.171084],[55.244366,25.171121],[55.244421,25.171176]]]},"properties":{"name":"Al Ghala Cafeteria"}},{"type":"Feature","geometry":{"type":"Polygon","coordinates":[[[55.209784,25.146393],[55.209837,25.146464],[55.210006,25.146361],[55.209953,25.14629],[55.209784,25.146393]]]},"properties":{"name":"Antar"}},{"type":"Feature","geometry":{"type":"Polygon","coordinates":[[[55.218907,25.172497],[55.218764,25.17231],[55.218496,25.172477],[55.218607,25.172623],[55.218604,25.17268],[55.218686,25.172693],[55.218695,25.172627],[55.218907,25.172497]]]},"properties":{"name":"Grand Abshar Restaurant","cuisine":"persian"}},{"type":"Feature","geometry":{"type":"Polygon","coordinates":[[[55.199518,25.15373],[55.199599,25.153821],[55.199655,25.15378],[55.199574,25.153689],[55.199518,25.15373]]]},"properties":{"name":"Tent Ju Meirah Restaurant"}},{"type":"Feature","geometry":{"type":"Polygon","coordinates":[[[55.184633,25.141848],[55.184476,25.142119],[55.184452,25.142161],[55.184557,25.142232],[55.184743,25.141924],[55.184633,25.141848]]]},"properties":{"name":"\u0627\u0633\u0643\u064a\u0628"}},{"type":"Feature","geometry":{"type":"Polygon","coordinates":[[[55.219597,25.174946],[55.21951,25.17483],[55.219612,25.174767],[55.219699,25.174883],[55.219597,25.174946]]]},"properties":{"name":"ODEON Restaurant, Market & Catering","cuisine":"french"}},{"type":"Feature","geometry":{"type":"Polygon","coordinates":[[[55.215664,25.173188],[55.215604,25.173116],[55.215662,25.173077],[55.215722,25.173149],[55.215664,25.173188]]]},"properties":{"name":"Dibba Bay Oysters","cuisine":"seafood"}}]}