{"type":"FeatureCollection","features":[{"type":"Feature","geometry":{"type":"Point","coordinates":[55.233526,25.185181]},"properties":{"amenity":"school"}},{"type":"Feature","geometry":{"type":"Point","coordinates":[55.237726,25.16956]},"properties":{"name":"The English College","amenity":"school"}},{"type":"Feature","geometry":{"type":"Point","coordinates":[55.210713,25.155118]},"properties":{"name":"\u0645\u0631\u0643\u0632 \u062a\u0646\u0645\u064a\u0629 \u0627\u0644\u0637\u0641\u0644","amenity":"school"}},{"type":"Feature","geometry":{"type":"Point","coordinates":[55.2546,25.169819]},"properties":{"name":"\u0645\u062f\u0631\u0633\u0629 \u0623\u0628\u0648 \u062d\u0646\u064a\u0641\u0629 \u0644\u0644\u062a\u0639\u0644\u064a\u0645 \u0627\u0644\u0627\u0633\u0627\u0633\u064a","amenity":"school"}},{"type":"Feature","geometry":{"type":"Point","coordinates":[55.208065,25.125677]},"properties":{"name":"\u0645\u0631\u0643\u0632 \u0627\u0644\u0641\u0646\u0648\u0646 \u0627\u0644\u0645\u0648\u0633\u064a\u0642\u064a\u0629","amenity":"school"}},{"type":"Feature","geometry":{"type":"Point","coordinates":[55.209196,25.12595]},"properties":{"name":"Centre for Musical Arts","amenity":"school"}},{"type":"Feature","geometry":{"type":"Point","coordinates":[55.226054,25.120969]},"properties":{"name":"Al Ahli Driving Center","amenity":"school"}},{"type":"Feature","geometry":{"type":"Point","coordinates":[55.254469,25.148466]},"properties":{"name":"Springdales Indian School Dubai","amenity":"school"}},{"type":"Feature","geometry":{"type":"Point","coordinates":[55.247963,25.149432]},"properties":{"name":"Oaktree Primary School","amenity":"school"}},{"type":"Feature","geometry":{"type":"Point","coordinates":[55.248155,25.1496]},"properties":{"name":"Amled School Dubai","amenity":"school"}},{"type":"Feature","geometry":{"type":"Point","coordinates":[55.232028,25.167206]},"properties":{"name":"Modern Alternative Education","amenity":"school"}},{"type":"Feature","geometry":{"type":"Point","coordinates":[55.239953,25.179014]},"properties":{"amenity":"school"}},{"type":"Feature","geometry":{"type":"Point","coordinates":[55.22334,25.155701]},"properties":{"amenity":"school"}},{"type":"Feature","geometry":{"type":"Polygon","coordinates":[[[55.222362,25.12864],[55.222564,25.128506],[55.222711,25.128686],[55.222509,25.128821],[55.222362,25.12864]]]},"properties":{"name":"Emirates Driving Institute","amenity":"school"}},{"type":"Feature","geometry":{"type":"Polygon","coordinates":[[[55.19203,25.136595],[55.19142,25.136987],[55.19139,25.136943],[55.190369,25.137668],[55.190201,25.137788],[55.190014,25.137565],[55.189832,25.137352],[55.189422,25.136867],[55.189424,25.13678],[55.190184,25.136241],[55.191057,25.135594],[55.191101,25.135571],[55.191165,25.135557],[55.19122,25.135555],[55.1913,25.135634],[55.19203,25.136595]]]},"properties":{"name":"The Emirates Academy Of Hospitality Management","amenity":"school"}},{"type":"Feature","geometry":{"type":"Polygon","coordinates":[[[55.195815,25.136706],[55.195765,25.136741],[55.194873,25.1357],[55.194922,25.135665],[55.194915,25.135656],[55.19546,25.13529],[55.195185,25.134956],[55.195622,25.134662],[55.195598,25.134678],[55.196767,25.136081],[55.195815,25.136706]]]},"properties":{"name":"\u0643\u064a\u0646\u062c\u0632 \u062f\u0628\u064a","amenity":"school"}},{"type":"Feature","geometry":{"type":"Polygon","coordinates":[[[55.195722,25.136832],[55.194528,25.135383],[55.193362,25.13618],[55.194568,25.137617],[55.195722,25.136832]]]},"properties":{"name":"\u0645\u062f\u0631\u0633\u0629 \u0631\u0627\u0641\u0644\u0632 \u0627\u0644\u062f\u0648\u0644\u064a\u0629","amenity":"school"}},{"type":"Feature","geometry":{"type":"Polygon","coordinates":[[[55.196526,25.14163],[55.196449,25.141579],[55.195236,25.140142],[55.19519,25.140069],[55.195183,25.140002],[55.195218,25.13991],[55.196592,25.138948],[55.196641,25.138939],[55.19668,25.138942],[55.196732,25.138977],[55.19803,25.140548],[55.198033,25.140602],[55.198015,25.140662],[55.197966,25.140687],[55.196711,25.141579],[55.196666,25.141605],[55.19662,25.141608],[55.196526,25.14163]]]},"properties":{"name":"\u0631\u0627\u0641\u0644\u0632 \u0648\u0648\u0631\u0644\u062f \u0623\u0643\u0627\u062f\u064a\u0645\u064a","amenity":"school"}},{"type":"Feature","geometry":{"type":"Polygon","coordinates":[[[55.252785,25.200798],[55.251446,25.198865],[55.252577,25.198223],[55.253964,25.200168],[55.252785,25.200798]]]},"properties":{"name":"Al Raya Girl's School","amenity":"school"}},{"type":"Feature","geometry":{"type":"Polygon","coordinates":[[[55.250624,25.191678],[55.250435,25.191417],[55.250351,25.191295],[55.249826,25.190519],[55.251392,25.189663],[55.252129,25.190838],[55.250624,25.191678]]]},"properties":{"name":"\u0645\u062f\u0631\u0633\u0629 \u0627\u0644\u0635\u0641\u0627 \u0627\u0644\u062b\u0627\u0646\u0648\u064a\u0629","amenity":"school"}},{"type":"Feature","geometry":{"type":"Polygon","coordinates":[[[55.24259,25.180824],[55.242289,25.180466],[55.24219,25.180337],[55.241887,25.179964],[55.243272,25.178991],[55.244027,25.17977],[55.243996,25.179881],[55.24259,25.180824]]]},"properties":{"name":"\u0645\u062f\u0631\u0633\u0629 \u062c\u0645\u064a\u0631\u0627 \u0627\u0644\u0625\u0646\u0643\u0644\u064a\u0632\u064a\u0629","amenity":"school"}},{"type":"Feature","geometry":{"type":"Polygon","coordinates":[[[55.240627,25.182112],[55.240221,25.181516],[55.240128,25.18138],[55.239706,25.180762],[55.239491,25.180434],[55.24128,25.179447],[55.242407,25.180897],[55.240627,25.182112]]]},"properties":{"name":"\u0645\u062f\u0631\u0633\u0629 \u0627\u0644\u0627\u062a\u062d\u0627\u062f \u0627\u0644\u062e\u0627\u0635\u0629","amenity":"school"}},{"type":"Feature","geometry":{"type":"Polygon","coordinates":[[[55.241011,25.179012],[55.240265,25.178115],[55.241448,25.177373],[55.242211,25.178216],[55.241011,25.179012]]]},"properties":{"name":"\u0645\u062f\u0631\u0633\u0629 \u0627\u0644\u0635\u0641\u0627 \u0627\u0644\u0628\u0631\u064a\u0637\u0627\u0646\u064a\u0629","amenity":"school"}},{"type":"Feature","geometry":{"type":"Polygon","coordinates":[[[55.209576,25.136162],[55.208419,25.134665],[55.210512,25.133315],[55.211689,25.134836],[55.210645,25.135511],[55.209576,25.136162]]]},"properties":{"name":"Emirates International School","amenity":"school"}},{"type":"Feature","geometry":{"type":"Polygon","coordinates":[[[55.263005,25.168807],[55.26359,25.169435],[55.263935,25.169474],[55.264569,25.168981],[55.264727,25.168859],[55.264798,25.168803],[55.264947,25.168687],[55.265001,25.168646],[55.265075,25.168588],[55.265136,25.168541],[55.264399,25.167743],[55.263541,25.168397],[55.263516,25.168416],[55.263464,25.168456],[55.263394,25.16851],[55.263005,25.168807]]]},"properties":{"name":"\u0645\u062f\u0631\u0633\u0629 \u062f\u0628\u064a \u0627\u0644\u0639\u0627\u0644\u0645\u064a\u0629","amenity":"school"}},{"type":"Feature","geometry":{"type":"Polygon","coordinates":[[[55.257918,25.173086],[55.258026,25.172999],[55.258813,25.172368],[55.259344,25.172936],[55.258393,25.17361],[55.257961,25.173134],[55.257918,25.173086]]]},"properties":{"name":"\u0645\u062f\u0631\u0633\u0629 \u0627\u0644\u0635\u0641\u0627 \u0627\u0644\u062e\u0627\u0635\u0629","amenity":"school"}},{"type":"Feature","geometry":{"type":"Polygon","coordinates":[[[55.206054,25.152018],[55.206782,25.152875],[55.207821,25.152151],[55.207093,25.151294],[55.206054,25.152018]]]},"properties":{"amenity":"school"}},{"type":"Feature","geometry":{"type":"Polygon","coordinates":[[[55.182215,25.112537],[55.182354,25.112374],[55.183528,25.110991],[55.183541,25.111001],[55.183566,25.11102],[55.184107,25.111395],[55.184152,25.111426],[55.184579,25.111723],[55.184465,25.111859],[55.184301,25.112051],[55.184235,25.112129],[55.184205,25.112164],[55.18418,25.112194],[55.183661,25.112805],[55.183266,25.11327],[55.183198,25.113222],[55.183122,25.113169],[55.182822,25.11296],[55.182517,25.112748],[55.182423,25.112683],[55.182215,25.112537]]]},"properties":{"name":"GEMS Wellington International School","amenity":"school"}},{"type":"Feature","geometry":{"type":"Polygon","coordinates":[[[55.206206,25.114251],[55.206732,25.113798],[55.207173,25.113471],[55.207985,25.112825],[55.208252,25.113108],[55.209791,25.11507],[55.209697,25.116342],[55.208628,25.117099],[55.207481,25.115796],[55.206446,25.114513],[55.206206,25.114251]]]},"properties":{"name":"Dubai International Academy - Al Barsha","amenity":"school"}},{"type":"Feature","geometry":{"type":"Polygon","coordinates":[[[55.253886,25.192286],[55.252927,25.190886],[55.250926,25.192043],[55.251883,25.193412],[55.252904,25.192838],[55.253886,25.192286]]]},"properties":{"name":"\u0645\u062f\u0631\u0633\u0629 \u062c\u064a\u0647 \u0625\u0633 \u0625\u0633","amenity":"school"}},{"type":"Feature","geometry":{"type":"Polygon","coordinates":[[[55.251392,25.189663],[55.249826,25.190519],[55.249404,25.18984],[55.249369,25.189794],[55.249561,25.189676],[55.250868,25.188901],[55.251341,25.189605],[55.251392,25.189663]]]},"properties":{"name":"\u0645\u062f\u0631\u0633\u0629 \u0627\u0644\u0623\u0641\u0642 \u0627\u0644\u0625\u0646\u062c\u0644\u064a\u0632\u064a\u0629","amenity":"school"}},{"type":"Feature","geometry":{"type":"Polygon","coordinates":[[[55.253263,25.123213],[55.254424,25.122389],[55.25558,25.123725],[55.254419,25.124549],[55.253263,25.123213]]]},"properties":{"name":"GEMS Wellington Academy","amenity":"school"}},{"type":"Feature","geometry":{"type":"Polygon","coordinates":[[[55.254419,25.124549],[55.255538,25.125835],[55.256709,25.124956],[55.25558,25.123725],[55.254419,25.124549]]]},"properties":{"amenity":"school"}},{"type":"Feature","geometry":{"type":"Polygon","coordinates":[[[55.255632,25.121549],[55.256836,25.122875],[55.255758,25.123695],[55.254544,25.122359],[55.255632,25.121549]]]},"properties":{"name":"GEMS International School, Al Khail","amenity":"school"}},{"type":"Feature","geometry":{"type":"Polygon","coordinates":[[[55.256836,25.122875],[55.257909,25.124024],[55.257976,25.124094],[55.256895,25.124919],[55.255758,25.123695],[55.256836,25.122875]]]},"properties":{"name":"GEMS New Millenium School","amenity":"school"}},{"type":"Feature","geometry":{"type":"Polygon","coordinates":[[[55.260024,25.172456],[55.260029,25.172453],[55.260936,25.171833],[55.261035,25.171765],[55.261046,25.171638],[55.26096,25.171547],[55.260542,25.171106],[55.260524,25.171088],[55.260507,25.171072],[55.259469,25.171847],[55.260024,25.172456]]]},"properties":{"name":"\u062c\u064a\u0645\u0633 \u0645\u062f\u0631\u0633\u062a\u0646\u0627 \u0627\u0644\u0647\u0646\u062f\u064a\u0629","amenity":"school"}},{"type":"Feature","geometry":{"type":"Polygon","coordinates":[[[55.2573,25.174125],[55.257131,25.173947],[55.257085,25.173982],[55.257102,25.174],[55.257077,25.17402],[55.2571,25.174044],[55.257053,25.17408],[55.25706,25.174087],[55.256905,25.174208],[55.256898,25.174201],[55.256843,25.174244],[55.25682,25.17422],[55.256797,25.174238],[55.25678,25.17422],[55.256738,25.174253],[55.256907,25.174431],[55.2573,25.174125]]]},"properties":{"name":"\u0645\u0631\u0643\u0632 \u0627\u0644\u0645\u0646\u0627\u0631 \u0644\u062f\u0631\u0627\u0633\u0629 \u0627\u0644\u0642\u0631\u0622\u0646","amenity":"school"}},{"type":"Feature","geometry":{"type":"Polygon","coordinates":[[[55.239757,25.175907],[55.239343,25.175315],[55.237654,25.176244],[55.238083,25.176844],[55.239757,25.175907]]]},"properties":{"name":"\u0645\u062f\u0631\u0633\u0629 \u062c\u0645\u064a\u0631\u0627 \u0627\u0644\u0627\u0628\u062a\u062f\u0627\u0626\u064a\u0629","amenity":"school"}},{"type":"Feature","geometry":{"type":"Polygon","coordinates":[[[55.207093,25.151294],[55.207821,25.152151],[55.207855,25.152191],[55.208998,25.151395],[55.207556,25.149697],[55.206412,25.150493],[55.207093,25.151294]]]},"properties":{"name":"Collegiate American School","amenity":"school"}},{"type":"Feature","geometry":{"type":"Polygon","coordinates":[[[55.249284,25.189768],[55.248354,25.188413],[55.24837,25.188339],[55.249292,25.187835],[55.249845,25.188583],[55.250309,25.189172],[55.249284,25.189768]]]},"properties":{"amenity":"school"}},{"type":"Feature","geometry":{"type":"Polygon","coordinates":[[[55.263042,25.170125],[55.262821,25.169889],[55.262802,25.169868],[55.262678,25.169736],[55.262523,25.169569],[55.262499,25.169544],[55.260735,25.170899],[55.260768,25.170934],[55.260906,25.171081],[55.26095,25.171085],[55.261031,25.171174],[55.261028,25.171202],[55.261219,25.171415],[55.263042,25.170125]]]},"properties":{"name":"\u0645\u062f\u0631\u0633\u0629 \u062f\u0628\u064a \u0627\u0644\u0639\u0627\u0644\u0645\u064a\u0629","amenity":"school"}},{"type":"Feature","geometry":{"type":"Polygon","coordinates":[[[55.256446,25.174209],[55.257008,25.17378],[55.257383,25.174182],[55.256916,25.174507],[55.256897,25.17452],[55.256859,25.174546],[55.256741,25.174529],[55.256621,25.174399],[55.256446,25.174209]]]},"properties":{"amenity":"school"}},{"type":"Feature","geometry":{"type":"Polygon","coordinates":[[[55.235032,25.177156],[55.234562,25.176476],[55.236033,25.175614],[55.236535,25.176295],[55.235633,25.176812],[55.235592,25.176837],[55.235032,25.177156]]]},"properties":{"name":"Jumeirah College","amenity":"school"}}]}