{"type":"FeatureCollection","features":[{"type":"Feature","geometry":{"type":"Point","coordinates":[55.255928,25.175113]},"properties":{"name":"Dubai Bowling Centre","sport":"10pin"}},{"type":"Feature","geometry":{"type":"Point","coordinates":[55.25573,25.175255]},"properties":{"name":"HM Fitness"}},{"type":"Feature","geometry":{"type":"Point","coordinates":[55.238263,25.164227]},"properties":{"name":"Team Nogueira","sport":"martial_arts"}},{"type":"Feature","geometry":{"type":"Point","coordinates":[55.208902,25.164351]},"properties":{"name":"XPark","sport":"skateboard"}},{"type":"Feature","geometry":{"type":"Point","coordinates":[55.267445,25.191272]},"properties":{"name":"Bay Avenue Skatepark","sport":"skateboard;roller_skating"}},{"type":"Feature","geometry":{"type":"Point","coordinates":[55.241629,25.128316]},"properties":{"name":"Al Ahdaf Sport Club"}},{"type":"Feature","geometry":{"type":"Point","coordinates":[55.226061,25.154224]},"properties":{"name":"VLCC"}},{"type":"Feature","geometry":{"type":"Point","coordinates":[55.21758,25.135544]},"properties":{"name":"Train Strength & Fitness"}},{"type":"Feature","geometry":{"type":"Point","coordinates":[55.213173,25.12841]},"properties":{"name":"Insportz Club"}},{"type":"Feature","geometry":{"type":"Point","coordinates":[55.245798,25.149261]},"properties":{"name":"Gym"}},{"type":"Feature","geometry":{"type":"Point","coordinates":[55.206452,25.112723]},"properties":{"name":"Synergy Fitness"}},{"type":"Feature","geometry":{"type":"Point","coordinates":[55.205349,25.116711]},"properties":{"name":"DX Team Fitness"}},{"type":"Feature","geometry":{"type":"Point","coordinates":[55.194276,25.11328]},"properties":{"name":"GYM"}},{"type":"Feature","geometry":{"type":"Point","coordinates":[55.219389,25.158551]},"properties":{"name":"Shape Zoon Health Center"}},{"type":"Feature","geometry":{"type":"Point","coordinates":[55.262236,25.185412]},"properties":{"name":"Valla Fitness"}},{"type":"Feature","geometry":{"type":"Point","coordinates":[55.215415,25.113252]},"properties":{"name":"Fitness"}},{"type":"Feature","geometry":{"type":"Point","coordinates":[55.2558,25.124787]},"properties":{}},{"type":"Feature","geometry":{"type":"Point","coordinates":[55.255892,25.12333]},"properties":{}},{"type":"Feature","geometry":{"type":"Point","coordinates":[55.256674,25.1241]},"properties":{}},{"type":"Feature","geometry":{"type":"Point","coordinates":[55.246716,25.142725]},"properties":{}},{"type":"Feature","geometry":{"type":"Point","coordinates":[55.245353,25.143831]},"properties":{"name":"GYM"}},{"type":"Feature","geometry":{"type":"Point","coordinates":[55.222889,25.143791]},"properties":{"name":"GymNation"}},{"type":"Feature","geometry":{"type":"Point","coordinates":[55.254371,25.148689]},"properties":{"name":"Cleopatra Swimming Academy"}},{"type":"Feature","geometry":{"type":"Point","coordinates":[55.233638,25.161726]},"properties":{"name":"Ringside","sport":"boxing"}},{"type":"Feature","geometry":{"type":"Point","coordinates":[55.223438,25.145705]},"properties":{"name":"In Shape Ladies","sport":"gymnastics"}},{"type":"Feature","geometry":{"type":"Point","coordinates":[55.211664,25.122598]},"properties":{"name":"MTK Strong MMA Gym Dubai"}},{"type":"Feature","geometry":{"type":"Point","coordinates":[55.246272,25.194311]},"properties":{}},{"type":"Feature","geometry":{"type":"Point","coordinates":[55.246099,25.194072]},"properties":{}},{"type":"Feature","geometry":{"type":"Point","coordinates":[55.256516,25.168322]},"properties":{"sport":"basketball"}},{"type":"Feature","geometry":{"type":"Point","coordinates":[55.256115,25.16833]},"properties":{"sport":"beachvolleyball"}},{"type":"Feature","geometry":{"type":"Point","coordinates":[55.248931,25.199462]},"properties":{"name":"Fit Box Gym","sport":"boxing"}},{"type":"Feature","geometry":{"type":"Point","coordinates":[55.225714,25.146157]},"properties":{"name":"X-Strike","sport":"laser_tag"}},{"type":"Feature","geometry":{"type":"Point","coordinates":[55.225242,25.145559]},"properties":{"name":"Just Play","sport":"soccer;basketball"}},{"type":"Feature","geometry":{"type":"Point","coordinates":[55.203668,25.139559]},"properties":{}},{"type":"Feature","geometry":{"type":"Point","coordinates":[55.246332,25.194398]},"properties":{"sport":"squash"}},{"type":"Feature","geometry":{"type":"Point","coordinates":[55.246059,25.194011]},"properties":{"sport":"squash"}},{"type":"Feature","geometry":{"type":"Point","coordinates":[55.238684,25.162995]},"properties":{"name":"Mountain Extreme","sport":"climbing"}},{"type":"Feature","geometry":{"type":"Polygon","coordinates":[[[55.182959,25.129549],[55.18312,25.129559],[55.183141,25.129266],[55.182981,25.129256],[55.182959,25.129549]]]},"properties":{"sport":"tennis"}},{"type":"Feature","geometry":{"type":"Polygon","coordinates":[[[55.183388,25.12923],[55.183548,25.12924],[55.18357,25.128947],[55.183409,25.128937],[55.183388,25.12923]]]},"properties":{"sport":"tennis"}},{"type":"Feature","geometry":{"type":"Polygon","coordinates":[[[55.182761,25.129732],[55.182922,25.129741],[55.182944,25.129448],[55.182783,25.129438],[55.182761,25.129732]]]},"properties":{"sport":"tennis"}},{"type":"Feature","geometry":{"type":"Polygon","coordinates":[[[55.183168,25.129403],[55.183329,25.129412],[55.18335,25.129119],[55.18319,25.129109],[55.183168,25.129403]]]},"properties":{"sport":"tennis"}},{"type":"Feature","geometry":{"type":"Polygon","coordinates":[[[55.182558,25.129886],[55.182718,25.129896],[55.18274,25.129603],[55.182579,25.129593],[55.182558,25.129886]]]},"properties":{"sport":"tennis"}},{"type":"Feature","geometry":{"type":"Polygon","coordinates":[[[55.24423,25.144007],[55.244419,25.144033],[55.244466,25.143754],[55.244278,25.143727],[55.24423,25.144007]]]},"properties":{"sport":"tennis"}},{"type":"Feature","geometry":{"type":"Polygon","coordinates":[[[55.24441,25.142848],[55.244382,25.143019],[55.24469,25.143062],[55.244719,25.142891],[55.24441,25.142848]]]},"properties":{"sport":"tennis"}},{"type":"Feature","geometry":{"type":"Polygon","coordinates":[[[55.244678,25.143122],[55.244867,25.143148],[55.244915,25.142868],[55.244726,25.142842],[55.244719,25.142891],[55.24469,25.143062],[55.244678,25.143122]]]},"properties":{"sport":"tennis"}},{"type":"Feature","geometry":{"type":"Polygon","coordinates":[[[55.247257,25.146502],[55.247362,25.146646],[55.247622,25.146489],[55.247517,25.146345],[55.247257,25.146502]]]},"properties":{"sport":"tennis"}},{"type":"Feature","geometry":{"type":"Polygon","coordinates":[[[55.246138,25.144752],[55.246327,25.144778],[55.246375,25.144499],[55.246186,25.144472],[55.246138,25.144752]]]},"properties":{"sport":"tennis"}},{"type":"Feature","geometry":{"type":"Polygon","coordinates":[[[55.247521,25.142452],[55.247658,25.142472],[55.247702,25.142239],[55.247565,25.142219],[55.247521,25.142452]]]},"properties":{"sport":"tennis"}},{"type":"Feature","geometry":{"type":"Polygon","coordinates":[[[55.190448,25.125285],[55.190312,25.126189],[55.190367,25.12633],[55.190427,25.126373],[55.1908,25.126419],[55.190932,25.126349],[55.191006,25.12626],[55.191138,25.125337],[55.190448,25.125285]]]},"properties":{}},{"type":"Feature","geometry":{"type":"Polygon","coordinates":[[[55.190547,25.137272],[55.190432,25.137135],[55.190722,25.136937],[55.190837,25.137073],[55.190547,25.137272]]]},"properties":{"sport":"tennis"}},{"type":"Feature","geometry":{"type":"Polygon","coordinates":[[[55.190945,25.13702],[55.190818,25.136872],[55.19107,25.136694],[55.191198,25.136842],[55.190945,25.13702]]]},"properties":{"sport":"basketball"}},{"type":"Feature","geometry":{"type":"Polygon","coordinates":[[[55.195199,25.136601],[55.195122,25.136512],[55.195304,25.136382],[55.195381,25.13647],[55.195199,25.136601]]]},"properties":{"sport":"basketball"}},{"type":"Feature","geometry":{"type":"Polygon","coordinates":[[[55.19549,25.136728],[55.195346,25.136562],[55.195421,25.136509],[55.195564,25.136675],[55.19549,25.136728]]]},"properties":{"sport":"tennis"}},{"type":"Feature","geometry":{"type":"Polygon","coordinates":[[[55.192535,25.135241],[55.192689,25.135132],[55.192613,25.135045],[55.19246,25.135153],[55.192535,25.135241]]]},"properties":{"sport":"tennis"}},{"type":"Feature","geometry":{"type":"Polygon","coordinates":[[[55.199976,25.137972],[55.200087,25.138109],[55.200353,25.137931],[55.200245,25.1378],[55.199976,25.137972]]]},"properties":{"sport":"basketball"}},{"type":"Feature","geometry":{"type":"Polygon","coordinates":[[[55.196049,25.136269],[55.195843,25.136029],[55.195971,25.135939],[55.196177,25.136179],[55.196049,25.136269]]]},"properties":{"sport":"basketball"}},{"type":"Feature","geometry":{"type":"Polygon","coordinates":[[[55.19538,25.136808],[55.195233,25.136643],[55.195308,25.136588],[55.195455,25.136753],[55.19538,25.136808]]]},"properties":{"sport":"tennis"}},{"type":"Feature","geometry":{"type":"Polygon","coordinates":[[[55.19145,25.126177],[55.191579,25.125317],[55.192448,25.125424],[55.192318,25.126283],[55.19145,25.126177]]]},"properties":{}},{"type":"Feature","geometry":{"type":"Polygon","coordinates":[[[55.199931,25.138004],[55.199821,25.13787],[55.20013,25.137666],[55.200245,25.1378],[55.199976,25.137972],[55.199931,25.138004]]]},"properties":{"sport":"tennis"}},{"type":"Feature","geometry":{"type":"Polygon","coordinates":[[[55.183229,25.11296],[55.182572,25.112496],[55.182869,25.112151],[55.183526,25.112615],[55.183229,25.11296]]]},"properties":{"sport":"soccer"}},{"type":"Feature","geometry":{"type":"Polygon","coordinates":[[[55.237856,25.200124],[55.237796,25.200048],[55.237991,25.199921],[55.238052,25.199996],[55.237856,25.200124]]]},"properties":{"sport":"tennis"}},{"type":"Feature","geometry":{"type":"Polygon","coordinates":[[[55.238216,25.200134],[55.238561,25.200188],[55.23862,25.199877],[55.238275,25.199823],[55.238216,25.200134]]]},"properties":{"sport":"tennis"}},{"type":"Feature","geometry":{"type":"Polygon","coordinates":[[[55.237956,25.200294],[55.237872,25.200185],[55.238093,25.200045],[55.238178,25.200154],[55.237956,25.200294]]]},"properties":{"sport":"tennis"}},{"type":"Feature","geometry":{"type":"Polygon","coordinates":[[[55.205624,25.154652],[55.206057,25.155102],[55.20574,25.155352],[55.205307,25.154901],[55.205624,25.154652]]]},"properties":{"sport":"soccer"}},{"type":"Feature","geometry":{"type":"Polygon","coordinates":[[[55.17398,25.123131],[55.173888,25.123033],[55.174116,25.122859],[55.174207,25.122957],[55.17398,25.123131]]]},"properties":{"sport":"tennis"}},{"type":"Feature","geometry":{"type":"Polygon","coordinates":[[[55.172376,25.113833],[55.172125,25.113575],[55.172258,25.113469],[55.172509,25.113728],[55.172376,25.113833]]]},"properties":{"sport":"basketball"}},{"type":"Feature","geometry":{"type":"Polygon","coordinates":[[[55.172607,25.113714],[55.17231,25.113433],[55.172472,25.113292],[55.17277,25.113573],[55.172607,25.113714]]]},"properties":{"sport":"soccer"}},{"type":"Feature","geometry":{"type":"Polygon","coordinates":[[[55.172191,25.113878],[55.172007,25.113702],[55.172115,25.113609],[55.172299,25.113785],[55.172191,25.113878]]]},"properties":{"sport":"beachvolleyball"}},{"type":"Feature","geometry":{"type":"Polygon","coordinates":[[[55.182422,25.112317],[55.182617,25.112085],[55.182762,25.112185],[55.182566,25.112417],[55.182422,25.112317]]]},"properties":{"sport":"tennis"}},{"type":"Feature","geometry":{"type":"Polygon","coordinates":[[[55.182517,25.112748],[55.182423,25.112683],[55.182215,25.112537],[55.182354,25.112374],[55.182655,25.112586],[55.182517,25.112748]]]},"properties":{}},{"type":"Feature","geometry":{"type":"Polygon","coordinates":[[[55.208541,25.114047],[55.208336,25.113795],[55.208615,25.113609],[55.20882,25.113861],[55.208541,25.114047]]]},"properties":{"sport":"tennis"}},{"type":"Feature","geometry":{"type":"Polygon","coordinates":[[[55.208061,25.115472],[55.207671,25.11508],[55.208415,25.114474],[55.208805,25.114866],[55.208061,25.115472]]]},"properties":{"sport":"soccer"}},{"type":"Feature","geometry":{"type":"Polygon","coordinates":[[[55.268527,25.16532],[55.268629,25.165359],[55.268731,25.165391],[55.268855,25.165412],[55.268983,25.16542],[55.269102,25.165416],[55.269221,25.165394],[55.269337,25.16536],[55.269465,25.165302],[55.269564,25.165239],[55.269666,25.165152],[55.269832,25.164945],[55.269896,25.16473],[55.269934,25.164667],[55.269973,25.164608],[55.270007,25.164553],[55.270026,25.164516],[55.270046,25.164474],[55.270062,25.164404],[55.270064,25.164308],[55.270055,25.164234],[55.270021,25.164148],[55.269941,25.164024],[55.269845,25.163929],[55.269757,25.163867],[55.269666,25.163824],[55.269592,25.163793],[55.269422,25.163764],[55.269394,25.163809],[55.26926,25.163771],[55.269193,25.163764],[55.269128,25.16376],[55.269034,25.163764],[55.268969,25.163774],[55.268908,25.163789],[55.26881,25.163839],[55.268701,25.163927],[55.26845,25.164233],[55.26822,25.164121],[55.268032,25.164154],[55.267947,25.164214],[55.267884,25.164279],[55.267826,25.164358],[55.267785,25.164435],[55.26771,25.164931],[55.268197,25.165378],[55.268382,25.165548],[55.268527,25.16532]]]},"properties":{"sport":"baseball"}},{"type":"Feature","geometry":{"type":"Polygon","coordinates":[[[55.249743,25.147977],[55.2498,25.14803],[55.249883,25.14796],[55.249824,25.147906],[55.249743,25.147977]]]},"properties":{"sport":"volleyball"}},{"type":"Feature","geometry":{"type":"Polygon","coordinates":[[[55.226827,25.115977],[55.226458,25.11622],[55.226478,25.116246],[55.226447,25.116266],[55.22655,25.116395],[55.227014,25.116089],[55.226936,25.115992],[55.226827,25.115977]]]},"properties":{"name":"Aktiv Nation"}},{"type":"Feature","geometry":{"type":"Polygon","coordinates":[[[55.227199,25.116324],[55.227077,25.116173],[55.226616,25.116477],[55.226738,25.116628],[55.227199,25.116324]]]},"properties":{"name":"Aktiv Nation"}},{"type":"Feature","geometry":{"type":"Polygon","coordinates":[[[55.196261,25.139558],[55.195518,25.140095],[55.19582,25.140437],[55.196563,25.1399],[55.196261,25.139558]]]},"properties":{"sport":"soccer"}},{"type":"Feature","geometry":{"type":"Polygon","coordinates":[[[55.19528,25.136086],[55.195519,25.135918],[55.195165,25.135504],[55.194926,25.135672],[55.19528,25.136086]]]},"properties":{}},{"type":"Feature","geometry":{"type":"Polygon","coordinates":[[[55.229614,25.154615],[55.229844,25.154881],[55.229835,25.15497],[55.229713,25.155044],[55.229619,25.154921],[55.22957,25.154953],[55.22941,25.154753],[55.229568,25.154646],[55.229614,25.154615]]]},"properties":{"name":"Crossfit Gold Box"}},{"type":"Feature","geometry":{"type":"Polygon","coordinates":[[[55.209666,25.11834],[55.210048,25.118093],[55.210577,25.118765],[55.210195,25.119012],[55.209666,25.11834]]]},"properties":{"name":"The Warehouse Gym"}},{"type":"Feature","geometry":{"type":"Polygon","coordinates":[[[55.237934,25.17457],[55.238009,25.174527],[55.23808,25.174627],[55.238005,25.17467],[55.237934,25.17457]]]},"properties":{}},{"type":"Feature","geometry":{"type":"Polygon","coordinates":[[[55.204982,25.132755],[55.204894,25.132642],[55.204637,25.132807],[55.204725,25.132919],[55.204982,25.132755]]]},"properties":{}},{"type":"Feature","geometry":{"type":"Polygon","coordinates":[[[55.20494,25.133372],[55.205289,25.133149],[55.204982,25.132755],[55.204725,25.132919],[55.204633,25.132979],[55.20494,25.133372]]]},"properties":{}},{"type":"Feature","geometry":{"type":"Polygon","coordinates":[[[55.25853,25.137397],[55.258673,25.137302],[55.258827,25.137492],[55.258684,25.137587],[55.25853,25.137397]]]},"properties":{"sport":"soccer"}},{"type":"Feature","geometry":{"type":"Polygon","coordinates":[[[55.264195,25.168276],[55.26401,25.168079],[55.264387,25.167789],[55.264572,25.167985],[55.264195,25.168276]]]},"properties":{}},{"type":"Feature","geometry":{"type":"Polygon","coordinates":[[[55.23625,25.176019],[55.236345,25.176153],[55.236111,25.176289],[55.236016,25.176154],[55.23625,25.176019]]]},"properties":{"sport":"tennis"}},{"type":"Feature","geometry":{"type":"Polygon","coordinates":[[[55.2362,25.176413],[55.236123,25.176305],[55.236363,25.176167],[55.236439,25.176275],[55.2362,25.176413]]]},"properties":{"sport":"tennis"}},{"type":"Feature","geometry":{"type":"Polygon","coordinates":[[[55.235976,25.176142],[55.235717,25.175797],[55.235997,25.175635],[55.236247,25.175992],[55.235976,25.176142]]]},"properties":{"sport":"soccer"}},{"type":"Feature","geometry":{"type":"Polygon","coordinates":[[[55.239385,25.175728],[55.239561,25.175968],[55.23971,25.175876],[55.23954,25.175642],[55.239385,25.175728]]]},"properties":{"sport":"tennis"}},{"type":"Feature","geometry":{"type":"Polygon","coordinates":[[[55.239034,25.17628],[55.23881,25.175973],[55.239246,25.175712],[55.239285,25.175765],[55.239356,25.175723],[55.239542,25.175977],[55.239034,25.17628]]]},"properties":{"sport":"soccer"}},{"type":"Feature","geometry":{"type":"Polygon","coordinates":[[[55.237734,25.169575],[55.238049,25.169892],[55.23818,25.169796],[55.237868,25.169456],[55.237734,25.169575]]]},"properties":{"sport":"netball;tennis"}},{"type":"Feature","geometry":{"type":"Polygon","coordinates":[[[55.237027,25.169625],[55.237603,25.170235],[55.237996,25.169943],[55.23745,25.169331],[55.237027,25.169625]]]},"properties":{"sport":"soccer"}},{"type":"Feature","geometry":{"type":"Polygon","coordinates":[[[55.237488,25.169206],[55.237589,25.169318],[55.237849,25.169119],[55.237752,25.169011],[55.237488,25.169206]]]},"properties":{"sport":"tennis"}},{"type":"Feature","geometry":{"type":"Polygon","coordinates":[[[55.254793,25.124433],[55.255566,25.125327],[55.256389,25.124727],[55.255604,25.123842],[55.254793,25.124433]]]},"properties":{"sport":"soccer"}},{"type":"Feature","geometry":{"type":"Polygon","coordinates":[[[55.266509,25.116748],[55.266572,25.116518],[55.266692,25.116545],[55.266629,25.116774],[55.266509,25.116748]]]},"properties":{}},{"type":"Feature","geometry":{"type":"Polygon","coordinates":[[[55.265097,25.117656],[55.26507,25.117521],[55.265227,25.117496],[55.265254,25.117631],[55.265097,25.117656]]]},"properties":{}},{"type":"Feature","geometry":{"type":"Polygon","coordinates":[[[55.251254,25.13073],[55.25124,25.130711],[55.251084,25.130488],[55.251223,25.130371],[55.251457,25.13061],[55.251254,25.13073]]]},"properties":{"name":"ENOC Basketball Court","sport":"basketball"}},{"type":"Feature","geometry":{"type":"Polygon","coordinates":[[[55.251281,25.14021],[55.251507,25.14029],[55.251635,25.139996],[55.251419,25.139909],[55.251281,25.14021]]]},"properties":{"sport":"basketball"}},{"type":"Feature","geometry":{"type":"Polygon","coordinates":[[[55.251507,25.14029],[55.251281,25.14021],[55.251154,25.14049],[55.25138,25.140591],[55.251507,25.14029]]]},"properties":{"sport":"soccer"}},{"type":"Feature","geometry":{"type":"Polygon","coordinates":[[[55.250219,25.14089],[55.250452,25.14074],[55.250302,25.140594],[55.250093,25.140735],[55.250219,25.14089]]]},"properties":{"sport":"soccer"}},{"type":"Feature","geometry":{"type":"Polygon","coordinates":[[[55.250408,25.12968],[55.250885,25.129385],[55.250739,25.129215],[55.250272,25.129524],[55.250408,25.12968]]]},"properties":{"name":"Le Meridian Football Field","sport":"american_football"}},{"type":"Feature","geometry":{"type":"Polygon","coordinates":[[[55.251101,25.128717],[55.251191,25.128656],[55.250997,25.128412],[55.250924,25.128465],[55.251101,25.128717]]]},"properties":{"name":"Le Meridian Basketball Court","sport":"basketball"}},{"type":"Feature","geometry":{"type":"Polygon","coordinates":[[[55.250251,25.142283],[55.250145,25.142163],[55.250402,25.142],[55.250505,25.142133],[55.250251,25.142283]]]},"properties":{"sport":"basketball"}},{"type":"Feature","geometry":{"type":"Polygon","coordinates":[[[55.227333,25.199457],[55.226928,25.199851],[55.226938,25.199783],[55.226936,25.199706],[55.226925,25.199643],[55.226894,25.199554],[55.226847,25.199447],[55.226813,25.199375],[55.226808,25.19931],[55.226821,25.19923],[55.226849,25.199128],[55.226854,25.199077],[55.226854,25.199054],[55.226892,25.199063],[55.226929,25.199088],[55.2273,25.19942],[55.227333,25.199457]]]},"properties":{"sport":"equestrian"}},{"type":"Feature","geometry":{"type":"Polygon","coordinates":[[[55.254618,25.181855],[55.254369,25.181593],[55.254228,25.181702],[55.254242,25.181716],[55.253967,25.181929],[55.254202,25.182177],[55.254213,25.182169],[55.25422,25.182163],[55.254618,25.181855]]]},"properties":{}},{"type":"Feature","geometry":{"type":"Polygon","coordinates":[[[55.191705,25.142407],[55.192063,25.142356],[55.192004,25.142046],[55.191923,25.141776],[55.191851,25.141641],[55.191775,25.141668],[55.191693,25.141699],[55.191663,25.141631],[55.191556,25.141668],[55.191479,25.141693],[55.19157,25.14192],[55.19161,25.142022],[55.191674,25.142226],[55.191686,25.142297],[55.191705,25.142407]]]},"properties":{"name":"Mouratoglou Tennis Centre","sport":"tennis"}},{"type":"Feature","geometry":{"type":"Polygon","coordinates":[[[55.191221,25.141787],[55.191361,25.141735],[55.191531,25.142059],[55.191603,25.142426],[55.191403,25.142452],[55.191344,25.142105],[55.191221,25.141787]]]},"properties":{"sport":"tennis"}},{"type":"Feature","geometry":{"type":"Polygon","coordinates":[[[55.180978,25.11298],[55.180993,25.11273],[55.181253,25.112743],[55.181276,25.112744],[55.181273,25.112792],[55.181261,25.112988],[55.18126,25.112994],[55.181001,25.112981],[55.180978,25.11298]]]},"properties":{"sport":"swimming"}},{"type":"Feature","geometry":{"type":"Polygon","coordinates":[[[55.182655,25.112586],[55.182959,25.1128],[55.182822,25.11296],[55.182517,25.112748],[55.182655,25.112586]]]},"properties":{}},{"type":"Feature","geometry":{"type":"Polygon","coordinates":[[[55.182822,25.11296],[55.182959,25.1128],[55.183259,25.113011],[55.183122,25.113169],[55.182822,25.11296]]]},"properties":{}},{"type":"Feature","geometry":{"type":"Polygon","coordinates":[[[55.221798,25.155268],[55.221997,25.155128],[55.221919,25.155037],[55.22172,25.155177],[55.221798,25.155268]]]},"properties":{"sport":"basketball"}},{"type":"Feature","geometry":{"type":"Polygon","coordinates":[[[55.221655,25.155335],[55.221515,25.15516],[55.221193,25.15537],[55.221334,25.155546],[55.221655,25.155335]]]},"properties":{"sport":"soccer"}},{"type":"Feature","geometry":{"type":"Polygon","coordinates":[[[55.22192,25.154997],[55.221803,25.154859],[55.221619,25.154986],[55.221736,25.155124],[55.22192,25.154997]]]},"properties":{"sport":"beachvolleyball"}},{"type":"Feature","geometry":{"type":"Polygon","coordinates":[[[55.246367,25.194258],[55.246659,25.194081],[55.24675,25.194208],[55.246458,25.194381],[55.246367,25.194258]]]},"properties":{"sport":"padel"}},{"type":"Feature","geometry":{"type":"Polygon","coordinates":[[[55.246132,25.193919],[55.246419,25.193748],[55.246508,25.19387],[55.246221,25.194041],[55.246132,25.193919]]]},"properties":{"sport":"tennis"}},{"type":"Feature","geometry":{"type":"Polygon","coordinates":[[[55.247809,25.182969],[55.247952,25.182971],[55.247948,25.183223],[55.247805,25.183221],[55.247809,25.182969]]]},"properties":{"sport":"basketball"}},{"type":"Feature","geometry":{"type":"Polygon","coordinates":[[[55.240917,25.179225],[55.241098,25.179478],[55.240652,25.17974],[55.240471,25.179487],[55.240917,25.179225]]]},"properties":{"sport":"soccer"}},{"type":"Feature","geometry":{"type":"Polygon","coordinates":[[[55.263065,25.180597],[55.263029,25.180397],[55.263141,25.180381],[55.263177,25.180581],[55.263065,25.180597]]]},"properties":{"sport":"tennis"}},{"type":"Feature","geometry":{"type":"Polygon","coordinates":[[[55.243336,25.145315],[55.243574,25.145155],[55.243673,25.14528],[55.243434,25.145435],[55.243336,25.145315]]]},"properties":{}},{"type":"Feature","geometry":{"type":"Polygon","coordinates":[[[55.243574,25.145155],[55.243845,25.144979],[55.243944,25.145105],[55.243673,25.14528],[55.243574,25.145155]]]},"properties":{}},{"type":"Feature","geometry":{"type":"Polygon","coordinates":[[[55.24675,25.194208],[55.246458,25.194381],[55.246397,25.194417],[55.246323,25.19446],[55.24625,25.194504],[55.246202,25.194438],[55.245905,25.194025],[55.245983,25.193979],[55.246062,25.193932],[55.246117,25.1939],[55.246132,25.193919],[55.246419,25.193748],[55.246508,25.19387],[55.246542,25.19392],[55.246642,25.194058],[55.246659,25.194081],[55.24675,25.194208]]]},"properties":{"name":"dar wasl Club","sport":"tennis;swimming;squash;fitness"}},{"type":"Feature","geometry":{"type":"Polygon","coordinates":[[[55.247432,25.149721],[55.247555,25.149875],[55.247098,25.150177],[55.246975,25.150023],[55.247432,25.149721]]]},"properties":{"sport":"soccer"}},{"type":"Feature","geometry":{"type":"Polygon","coordinates":[[[55.24942,25.152199],[55.249744,25.152406],[55.25005,25.152012],[55.249726,25.151805],[55.24942,25.152199]]]},"properties":{"sport":"soccer"}},{"type":"Feature","geometry":{"type":"Polygon","coordinates":[[[55.252381,25.178785],[55.253201,25.179661],[55.253774,25.179222],[55.252954,25.178346],[55.252381,25.178785]]]},"properties":{"name":"Danube Sports World"}},{"type":"Feature","geometry":{"type":"Polygon","coordinates":[[[55.235347,25.170511],[55.235163,25.170311],[55.235166,25.170262],[55.235271,25.170191],[55.235479,25.170422],[55.235347,25.170511]]]},"properties":{"sport":"tennis"}},{"type":"Feature","geometry":{"type":"Polygon","coordinates":[[[55.253388,25.142418],[55.253626,25.142018],[55.25384,25.142124],[55.253651,25.14254],[55.253388,25.142418]]]},"properties":{"name":"Basketball court AKG","sport":"basketball"}},{"type":"Feature","geometry":{"type":"Polygon","coordinates":[[[55.243724,25.200374],[55.243602,25.200446],[55.243791,25.20071],[55.243913,25.200638],[55.243724,25.200374]]]},"properties":{"sport":"tennis"}},{"type":"Feature","geometry":{"type":"Polygon","coordinates":[[[55.256213,25.168075],[55.25646,25.16809],[55.256433,25.168471],[55.256185,25.168457],[55.256213,25.168075]]]},"properties":{"sport":"soccer"}},{"type":"Feature","geometry":{"type":"Polygon","coordinates":[[[55.234276,25.111854],[55.23457,25.11222],[55.23503,25.111918],[55.234735,25.111551],[55.234276,25.111854]]]},"properties":{"name":"Padel X","sport":"padel"}},{"type":"Feature","geometry":{"type":"Polygon","coordinates":[[[55.205804,25.123213],[55.206351,25.122847],[55.20598,25.122376],[55.205423,25.12274],[55.205804,25.123213]]]},"properties":{"sport":"soccer"}},{"type":"Feature","geometry":{"type":"Polygon","coordinates":[[[55.22121,25.163246],[55.221041,25.163018],[55.221237,25.1629],[55.221406,25.163128],[55.22121,25.163246]]]},"properties":{"sport":"soccer"}},{"type":"Feature","geometry":{"type":"Polygon","coordinates":[[[55.221286,25.163416],[55.22119,25.163287],[55.221426,25.163144],[55.221522,25.163273],[55.221286,25.163416]]]},"properties":{"sport":"basketball"}},{"type":"Feature","geometry":{"type":"Polygon","coordinates":[[[55.247326,25.182893],[55.247471,25.182897],[55.247479,25.182661],[55.247333,25.182657],[55.247326,25.182893]]]},"properties":{"sport":"tennis"}},{"type":"Feature","geometry":{"type":"Polygon","coordinates":[[[55.269186,25.185417],[55.269334,25.185341],[55.269162,25.18507],[55.269015,25.185146],[55.269186,25.185417]]]},"properties":{"sport":"tennis"}},{"type":"Feature","geometry":{"type":"Polygon","coordinates":[[[55.268904,25.185127],[55.268998,25.185078],[55.268901,25.184924],[55.268806,25.184973],[55.268904,25.185127]]]},"properties":{"sport":"padel"}},{"type":"Feature","geometry":{"type":"Polygon","coordinates":[[[55.269059,25.185106],[55.269153,25.185057],[55.269056,25.184904],[55.268962,25.184952],[55.269059,25.185106]]]},"properties":{"sport":"padel"}},{"type":"Feature","geometry":{"type":"Polygon","coordinates":[[[55.268952,25.184936],[55.269046,25.184887],[55.268949,25.184734],[55.268855,25.184783],[55.268952,25.184936]]]},"properties":{"sport":"padel"}},{"type":"Feature","geometry":{"type":"Polygon","coordinates":[[[55.268204,25.185911],[55.268299,25.185873],[55.268226,25.185725],[55.268131,25.185763],[55.268204,25.185911]]]},"properties":{"sport":"padel"}},{"type":"Feature","geometry":{"type":"Polygon","coordinates":[[[55.26855,25.186565],[55.2687,25.186581],[55.268794,25.186549],[55.268789,25.186458],[55.268572,25.186431],[55.26855,25.186565]]]},"properties":{"sport":"basketball"}},{"type":"Feature","geometry":{"type":"Polygon","coordinates":[[[55.247504,25.182899],[55.247661,25.182899],[55.247661,25.182664],[55.247505,25.182663],[55.247504,25.182899]]]},"properties":{"sport":"tennis"}}]}