{"type":"FeatureCollection","features":[{"type":"Feature","geometry":{"type":"Point","coordinates":[55.190433,25.142562]},"properties":{}},{"type":"Feature","geometry":{"type":"Point","coordinates":[55.189693,25.140144]},"properties":{}},{"type":"Feature","geometry":{"type":"Point","coordinates":[55.209185,25.165114]},"properties":{"wheelchair":"limited"}},{"type":"Feature","geometry":{"type":"Point","coordinates":[55.270504,25.163055]},"properties":{"wheelchair":"no"}},{"type":"Feature","geometry":{"type":"Point","coordinates":[55.194535,25.147957]},"properties":{"name":"Toiletten","wheelchair":"yes"}},{"type":"Feature","geometry":{"type":"Point","coordinates":[55.196624,25.150342]},"properties":{"wheelchair":"yes"}},{"type":"Feature","geometry":{"type":"Point","coordinates":[55.205365,25.16033]},"properties":{}},{"type":"Feature","geometry":{"type":"Point","coordinates":[55.200685,25.118887]},"properties":{"wheelchair":"yes"}},{"type":"Feature","geometry":{"type":"Point","coordinates":[55.201645,25.118061]},"properties":{"wheelchair":"yes"}},{"type":"Feature","geometry":{"type":"Point","coordinates":[55.199266,25.11894]},"properties":{"wheelchair":"yes"}},{"type":"Feature","geometry":{"type":"Point","coordinates":[55.19944,25.117376]},"properties":{"wheelchair":"yes"}},{"type":"Feature","geometry":{"type":"Point","coordinates":[55.185394,25.126363]},"properties":{}},{"type":"Feature","geometry":{"type":"Point","coordinates":[55.224609,25.185445]},"properties":{}},{"type":"Feature","geometry":{"type":"Point","coordinates":[55.226347,25.184572]},"properties":{"wheelchair":"limited"}},{"type":"Feature","geometry":{"type":"Point","coordinates":[55.264499,25.188758]},"properties":{"wheelchair":"yes"}},{"type":"Feature","geometry":{"type":"Point","coordinates":[55.220273,25.177828]},"properties":{}},{"type":"Feature","geometry":{"type":"Point","coordinates":[55.241205,25.187981]},"properties":{"wheelchair":"limited"}},{"type":"Feature","geometry":{"type":"Point","coordinates":[55.188477,25.138941]},"properties":{}},{"type":"Feature","geometry":{"type":"Point","coordinates":[55.188548,25.138989]},"properties":{}},{"type":"Feature","geometry":{"type":"Point","coordinates":[55.249188,25.199785]},"properties":{"wheelchair":"limited"}},{"type":"Feature","geometry":{"type":"Point","coordinates":[55.20067,25.129482]},"properties":{"wheelchair":"no"}},{"type":"Feature","geometry":{"type":"Point","coordinates":[55.227785,25.168507]},"properties":{"wheelchair":"yes"}},{"type":"Feature","geometry":{"type":"Point","coordinates":[55.216689,25.17349]},"properties":{}},{"type":"Feature","geometry":{"type":"Point","coordinates":[55.263489,25.189898]},"properties":{}},{"type":"Feature","geometry":{"type":"Point","coordinates":[55.244914,25.184825]},"properties":{"wheelchair":"limited"}},{"type":"Feature","geometry":{"type":"Point","coordinates":[55.225774,25.142436]},"properties":{"wheelchair":"limited"}},{"type":"Feature","geometry":{"type":"Point","coordinates":[55.195863,25.147296]},"properties":{}},{"type":"Feature","geometry":{"type":"Point","coordinates":[55.195895,25.147354]},"properties":{}},{"type":"Feature","geometry":{"type":"Point","coordinates":[55.235635,25.146251]},"properties":{"wheelchair":"no"}},{"type":"Feature","geometry":{"type":"Point","coordinates":[55.264591,25.18888]},"properties":{"wheelchair":"yes"}},{"type":"Feature","geometry":{"type":"Point","coordinates":[55.268681,25.17839]},"properties":{}},{"type":"Feature","geometry":{"type":"Polygon","coordinates":[[[55.221916,25.156353],[55.221863,25.156328],[55.221806,25.156243],[55.221851,25.156271],[55.221916,25.156353]]]},"properties":{}},{"type":"Feature","geometry":{"type":"Polygon","coordinates":[[[55.245445,25.183608],[55.24554,25.183612],[55.245544,25.183542],[55.245449,25.183538],[55.245445,25.183608]]]},"properties":{"wheelchair":"limited"}}]}